"sess_ctry","sess_loc","datum","sug_platform","session_duration","pages_per_sess","jump_offs","sess_cart_add","sess_co","sess_co_done","sessions","land_pg","country","state","county","name","lat","lng"
United Kingdom,London,"2024-10-01",direct,0.0,1.0,1,0,0,0,1,https://www.whiskyquartier.de/password,US,California,Tulare County,London,36.47606,-119.44318
United Kingdom,London,"2024-10-01",direct,0.0,1.0,1,0,0,0,1,https://www.whiskyquartier.de/password,US,Ohio,Madison County,London,39.88645,-83.44825
United Kingdom,London,"2024-10-01",direct,0.0,1.0,1,0,0,0,1,https://www.whiskyquartier.de/password,US,Kentucky,Laurel County,London,37.12898,-84.08326
United Kingdom,London,"2024-10-01",direct,0.0,1.0,1,0,0,0,1,https://www.whiskyquartier.de/password,US,Arkansas,Pope County,London,35.32897,-93.25296
United Kingdom,London,"2024-10-01",direct,0.0,1.0,1,0,0,0,1,https://www.whiskyquartier.de/password,GB,England,"",London,51.50853,-0.12574
United Kingdom,London,"2024-10-01",direct,0.0,1.0,1,0,0,0,1,https://www.whiskyquartier.de/password,CA,Ontario,London,London,42.98339,-81.23304
Canada,"","2024-10-01",direct,0.0,1.0,1,0,0,0,1,https://www.whiskyquartier.de/password,IT,Piemont,Torino,"",44.93645,7.54015
Ukraine,Kyiv,"2024-10-01",direct,0.0,1.0,1,0,0,0,1,https://www.whiskyquartier.de/password,UA,"","",Kyiv,50.45466,30.5238
France,"","2024-10-01",direct,0.0,1.0,1,0,0,0,1,https://www.whiskyquartier.de/password,IT,Piemont,Torino,"",44.93645,7.54015
Canada,Montreal,"2024-10-01",direct,0.0,1.0,1,0,0,0,1,https://www.whiskyquartier.de/password,,,,,,
Switzerland,"","2024-10-01",alphabet,0.0,1.0,1,0,0,0,1,https://www.whiskyquartier.de/password,IT,Piemont,Torino,"",44.93645,7.54015
Ireland,Dublin,"2024-10-01",direct,0.0,1.0,4,0,0,0,4,https://www.whiskyquartier.de/password,US,California,Alameda County,Dublin,37.70215,-121.93579
Ireland,Dublin,"2024-10-01",direct,0.0,1.0,4,0,0,0,4,https://www.whiskyquartier.de/password,US,Pennsylvania,Bucks County,Dublin,40.37177,-75.20156
Ireland,Dublin,"2024-10-01",direct,0.0,1.0,4,0,0,0,4,https://www.whiskyquartier.de/password,US,Ohio,Franklin County,Dublin,40.09923,-83.11408
Ireland,Dublin,"2024-10-01",direct,0.0,1.0,4,0,0,0,4,https://www.whiskyquartier.de/password,US,New Hampshire,Cheshire County,Dublin,42.90758,-72.06258
Ireland,Dublin,"2024-10-01",direct,0.0,1.0,4,0,0,0,4,https://www.whiskyquartier.de/password,US,Virginia,Pulaski County,Dublin,37.10568,-80.68534
Ireland,Dublin,"2024-10-01",direct,0.0,1.0,4,0,0,0,4,https://www.whiskyquartier.de/password,US,Texas,Erath County,Dublin,32.08514,-98.34199
Ireland,Dublin,"2024-10-01",direct,0.0,1.0,4,0,0,0,4,https://www.whiskyquartier.de/password,US,Georgia,Laurens County,Dublin,32.54044,-82.90375
Ireland,Dublin,"2024-10-01",direct,0.0,1.0,4,0,0,0,4,https://www.whiskyquartier.de/password,IE,"",County Dublin,Dublin,53.33306,-6.24889
Bulgaria,Varna,"2024-11-01",whiskybase,76.0,5.0,0,0,0,0,1,https://www.whiskyquartier.de/products/kavalan-solist-brandy-0-7l,RU,Chelyabinsk Oblast,Varnensky District,Varna,53.38194,60.97472
Bulgaria,Varna,"2024-11-01",whiskybase,76.0,5.0,0,0,0,0,1,https://www.whiskyquartier.de/products/kavalan-solist-brandy-0-7l,RS,Central Serbia,Macva Administrative District,Varna,44.67914,19.6515
Bulgaria,Varna,"2024-11-01",whiskybase,76.0,5.0,0,0,0,0,1,https://www.whiskyquartier.de/products/kavalan-solist-brandy-0-7l,IT,Trentino-Alto Adige/Südtirol,South Tyrol,Varna,46.73901,11.63749
Bulgaria,Varna,"2024-11-01",whiskybase,76.0,5.0,0,0,0,0,1,https://www.whiskyquartier.de/products/kavalan-solist-brandy-0-7l,BG,"",Varna,Varna,43.21667,27.91667
The Netherlands,Amsterdam,"2024-11-01",whiskybase,0.0,1.0,1,0,0,0,1,https://www.whiskyquartier.de/products/gold-double-cask-0-7l,US,New York,Montgomery County,Amsterdam,42.93869,-74.18819
The Netherlands,Amsterdam,"2024-11-01",whiskybase,0.0,1.0,1,0,0,0,1,https://www.whiskyquartier.de/products/gold-double-cask-0-7l,NL,North Holland,"",Amsterdam,52.37403,4.88969
Canada,"","2024-11-01",direct,0.0,1.0,1,0,0,0,1,https://www.whiskyquartier.de/,IT,Piemont,Torino,"",44.93645,7.54015
Finland,Helsinki,"2024-11-01",meta,0.0,1.0,1,0,0,0,1,https://www.whiskyquartier.de/?fbclid=IwZXh0bgNhZW0BMABhZGlkAAAGD,FI,"",Uusimaa,Helsinki,60.16952,24.93545
South Korea,Gwanak-gu,"2024-11-01",whiskybase,15.0,2.0,0,0,0,0,1,https://www.whiskyquartier.de/products/cardeas-warehouse-1-0-7l,,,,,,
Croatia,Sisak,"2024-11-01",direct,0.0,1.0,1,0,0,0,1,https://www.whiskyquartier.de/collections/neu-im-shop,HR,"",Sisak-Moslavina County,Sisak,45.46611,16.37833
The Netherlands,Purmerend,"2024-11-01",direct,11.833333,1.1666666,5,0,0,0,6,https://www.whiskyquartier.de/products/classic-cut-2020-0-7l,NL,North Holland,"",Purmerend,52.505,4.95972
Czechia,Beroun,"2024-11-01",whiskybase,0.0,1.0,1,0,0,0,1,https://www.whiskyquartier.de/products/concept-no-1-0-7l,CZ,Central Bohemia,"",Beroun,49.96382,14.072
Canada,Montreal,"2024-11-01",direct,0.0,1.0,2,0,0,0,2,https://www.whiskyquartier.de/,,,,,,
United Kingdom,London,"2024-11-01",direct,0.0,1.0,1,0,0,0,1,https://www.whiskyquartier.de/collections/highlands,US,California,Tulare County,London,36.47606,-119.44318
United Kingdom,London,"2024-11-01",direct,0.0,1.0,1,0,0,0,1,https://www.whiskyquartier.de/collections/highlands,US,Ohio,Madison County,London,39.88645,-83.44825
United Kingdom,London,"2024-11-01",direct,0.0,1.0,1,0,0,0,1,https://www.whiskyquartier.de/collections/highlands,US,Kentucky,Laurel County,London,37.12898,-84.08326
United Kingdom,London,"2024-11-01",direct,0.0,1.0,1,0,0,0,1,https://www.whiskyquartier.de/collections/highlands,US,Arkansas,Pope County,London,35.32897,-93.25296
United Kingdom,London,"2024-11-01",direct,0.0,1.0,1,0,0,0,1,https://www.whiskyquartier.de/collections/highlands,GB,England,"",London,51.50853,-0.12574
United Kingdom,London,"2024-11-01",direct,0.0,1.0,1,0,0,0,1,https://www.whiskyquartier.de/collections/highlands,CA,Ontario,London,London,42.98339,-81.23304
India,"","2024-11-01",alphabet,63.666668,3.0,1,1,1,0,3,https://www.whiskyquartier.de/,IT,Piemont,Torino,"",44.93645,7.54015
The Netherlands,"","2024-11-01",whiskybase,10.0,2.0,0,0,0,0,1,https://www.whiskyquartier.de/products/classic-cut-2020-0-7l,IT,Piemont,Torino,"",44.93645,7.54015
The Netherlands,Amsterdam,"2024-11-01",whiskybase,65.5,2.5,1,1,1,0,2,https://www.whiskyquartier.de/products/triple-wood-0-7l?_pos=1&_s,US,New York,Montgomery County,Amsterdam,42.93869,-74.18819
The Netherlands,Amsterdam,"2024-11-01",whiskybase,65.5,2.5,1,1,1,0,2,https://www.whiskyquartier.de/products/triple-wood-0-7l?_pos=1&_s,NL,North Holland,"",Amsterdam,52.37403,4.88969
Croatia,Sisak,"2024-11-01",meta,50.0,2.0,0,0,0,0,1,https://www.whiskyquartier.de/?fbclid=IwZXh0bgNhZW0BMABhZGlkAAAGD,HR,"",Sisak-Moslavina County,Sisak,45.46611,16.37833
Spain,Narón,"2024-11-01",meta,21.0,2.0,0,0,0,0,1,https://www.whiskyquartier.de/?fbclid=IwZXh0bgNhZW0BMABhZGlkAAAGD,ES,Galicia,Ferrol,Narón,43.50175,-8.19082
Ireland,Clonee,"2024-11-01",meta,0.0,1.0,1,0,0,0,1,https://www.whiskyquartier.de/?fbclid=IwZXh0bgNhZW0CMTEAAR39FwnEJ,,,,,,
United Kingdom,Manchester,"2024-11-01",direct,7.0,1.5,1,0,0,0,2,https://www.whiskyquartier.de/,US,Washington,Kitsap County,Manchester,47.55566,-122.54507
United Kingdom,Manchester,"2024-11-01",direct,7.0,1.5,1,0,0,0,2,https://www.whiskyquartier.de/,US,Wisconsin,Green Lake County,Manchester,43.69054,-89.04845
United Kingdom,Manchester,"2024-11-01",direct,7.0,1.5,1,0,0,0,2,https://www.whiskyquartier.de/,US,Pennsylvania,York County,Manchester,40.06315,-76.7183
United Kingdom,Manchester,"2024-11-01",direct,7.0,1.5,1,0,0,0,2,https://www.whiskyquartier.de/,US,Ohio,Summit County,Manchester,40.937,-81.56929
United Kingdom,Manchester,"2024-11-01",direct,7.0,1.5,1,0,0,0,2,https://www.whiskyquartier.de/,US,New York,Ontario County,Manchester,42.96979,-77.23026
United Kingdom,Manchester,"2024-11-01",direct,7.0,1.5,1,0,0,0,2,https://www.whiskyquartier.de/,US,New Hampshire,Hillsborough County,Manchester,42.99564,-71.45479
United Kingdom,Manchester,"2024-11-01",direct,7.0,1.5,1,0,0,0,2,https://www.whiskyquartier.de/,US,Michigan,Washtenaw County,Manchester,42.15032,-84.03772
United Kingdom,Manchester,"2024-11-01",direct,7.0,1.5,1,0,0,0,2,https://www.whiskyquartier.de/,US,Maine,Kennebec County,Manchester,44.32451,-69.86033
United Kingdom,Manchester,"2024-11-01",direct,7.0,1.5,1,0,0,0,2,https://www.whiskyquartier.de/,US,Iowa,Delaware County,Manchester,42.48415,-91.45543
United Kingdom,Manchester,"2024-11-01",direct,7.0,1.5,1,0,0,0,2,https://www.whiskyquartier.de/,US,Connecticut,Hartford County,Manchester,41.77593,-72.52148
United Kingdom,Manchester,"2024-11-01",direct,7.0,1.5,1,0,0,0,2,https://www.whiskyquartier.de/,US,Tennessee,Coffee County,Manchester,35.48174,-86.0886
United Kingdom,Manchester,"2024-11-01",direct,7.0,1.5,1,0,0,0,2,https://www.whiskyquartier.de/,US,Ohio,Adams County,Manchester,38.68813,-83.60936
United Kingdom,Manchester,"2024-11-01",direct,7.0,1.5,1,0,0,0,2,https://www.whiskyquartier.de/,US,Missouri,Saint Louis County,Manchester,38.597,-90.50929
United Kingdom,Manchester,"2024-11-01",direct,7.0,1.5,1,0,0,0,2,https://www.whiskyquartier.de/,US,Maryland,Carroll County,Manchester,39.66121,-76.88498
United Kingdom,Manchester,"2024-11-01",direct,7.0,1.5,1,0,0,0,2,https://www.whiskyquartier.de/,US,Kentucky,Clay County,Manchester,37.1537,-83.76186
United Kingdom,Manchester,"2024-11-01",direct,7.0,1.5,1,0,0,0,2,https://www.whiskyquartier.de/,US,Georgia,Meriwether County,Manchester,32.85985,-84.61993
United Kingdom,Manchester,"2024-11-01",direct,7.0,1.5,1,0,0,0,2,https://www.whiskyquartier.de/,GB,England,Greater Manchester,Manchester,53.48095,-2.23743
India,Bengaluru,"2024-11-01",direct,0.0,1.0,1,0,0,0,1,https://www.whiskyquartier.de/,IN,Karnataka,Bangalore North,Bengaluru,12.97194,77.59369
The Netherlands,Purmerend,"2024-11-01",direct,0.0,1.0,2,0,0,0,2,https://www.whiskyquartier.de/products/a-night-on-earth-scotland-,NL,North Holland,"",Purmerend,52.505,4.95972
Finland,Helsinki,"2024-11-01",meta,0.0,1.0,1,0,0,0,1,https://www.whiskyquartier.de/?fbclid=IwZXh0bgNhZW0BMABhZGlkAAAGD,FI,"",Uusimaa,Helsinki,60.16952,24.93545
United Kingdom,London,"2024-11-01",whiskystats,15.0,1.0,0,1,0,0,1,https://www.whiskyquartier.de/products/triple-wood-0-7l?_pos=1&_s,US,California,Tulare County,London,36.47606,-119.44318
United Kingdom,London,"2024-11-01",whiskystats,15.0,1.0,0,1,0,0,1,https://www.whiskyquartier.de/products/triple-wood-0-7l?_pos=1&_s,US,Ohio,Madison County,London,39.88645,-83.44825
United Kingdom,London,"2024-11-01",whiskystats,15.0,1.0,0,1,0,0,1,https://www.whiskyquartier.de/products/triple-wood-0-7l?_pos=1&_s,US,Kentucky,Laurel County,London,37.12898,-84.08326
United Kingdom,London,"2024-11-01",whiskystats,15.0,1.0,0,1,0,0,1,https://www.whiskyquartier.de/products/triple-wood-0-7l?_pos=1&_s,US,Arkansas,Pope County,London,35.32897,-93.25296
United Kingdom,London,"2024-11-01",whiskystats,15.0,1.0,0,1,0,0,1,https://www.whiskyquartier.de/products/triple-wood-0-7l?_pos=1&_s,GB,England,"",London,51.50853,-0.12574
United Kingdom,London,"2024-11-01",whiskystats,15.0,1.0,0,1,0,0,1,https://www.whiskyquartier.de/products/triple-wood-0-7l?_pos=1&_s,CA,Ontario,London,London,42.98339,-81.23304
Finland,Helsinki,"2024-11-01",meta,61.0,2.0,0,0,0,0,1,https://www.whiskyquartier.de/?fbclid=IwZXh0bgNhZW0BMABhZGlkAAAGD,FI,"",Uusimaa,Helsinki,60.16952,24.93545
Vietnam,Biên Hòa,"2024-11-01",meta,104.0,3.0,0,0,0,0,1,https://www.whiskyquartier.de/?fbclid=IwZXh0bgNhZW0BMABhZGlkAAAGD,VN,Dong Nai Province,"",Biên Hòa,10.94469,106.82432
Finland,Helsinki,"2024-11-01",meta,0.0,1.0,1,0,0,0,1,https://www.whiskyquartier.de/?fbclid=IwZXh0bgNhZW0BMABhZGlkAAAGD,FI,"",Uusimaa,Helsinki,60.16952,24.93545
Portugal,Casal Comba,"2024-11-01",meta,11.0,2.0,0,0,0,0,1,https://www.whiskyquartier.de/?fbclid=PAZXh0bgNhZW0BMABhZGlkAAAGD,,,,,,
Afghanistan,Kabul,"2024-11-01",alphabet,0.0,1.0,3,0,0,0,3,https://www.whiskyquartier.de/products/laddie-origins-feis-ile-20,AF,Kabul Province,Kabul,Kabul,34.52813,69.17233
Sweden,Luleå,"2024-11-01",meta,0.0,1.0,1,0,0,0,1,https://www.whiskyquartier.de/?fbclid=IwZXh0bgNhZW0CMTEAAR21tfjKT,SE,"",Norrbotten County,Luleå,65.58415,22.15465
Portugal,Lisbon,"2024-11-01",direct,1195.0,2.0,0,0,0,0,1,https://www.whiskyquartier.de/,US,Ohio,Columbiana County,Lisbon,40.772,-80.76813
Portugal,Lisbon,"2024-11-01",direct,1195.0,2.0,0,0,0,0,1,https://www.whiskyquartier.de/,US,North Dakota,Ransom County,Lisbon,46.44163,-97.68121
Portugal,Lisbon,"2024-11-01",direct,1195.0,2.0,0,0,0,0,1,https://www.whiskyquartier.de/,US,Maine,Androscoggin County,Lisbon,44.03146,-70.1045
Portugal,Lisbon,"2024-11-01",direct,1195.0,2.0,0,0,0,0,1,https://www.whiskyquartier.de/,US,Iowa,Linn County,Lisbon,41.92112,-91.38545
Portugal,Lisbon,"2024-11-01",direct,1195.0,2.0,0,0,0,0,1,https://www.whiskyquartier.de/,US,Connecticut,New London County,Lisbon,41.60399,-72.01174
Portugal,Lisbon,"2024-11-01",direct,1195.0,2.0,0,0,0,0,1,https://www.whiskyquartier.de/,US,Ohio,Clark County,Lisbon,39.86089,-83.6352
Portugal,Lisbon,"2024-11-01",direct,1195.0,2.0,0,0,0,0,1,https://www.whiskyquartier.de/,PT,"",Lisbon,Lisbon,38.71667,-9.13333
Poland,"","2024-11-01",whiskybase,7.0,1.0,0,1,0,0,1,https://www.whiskyquartier.de/products/cardeas-warehouse-1-0-7l,IT,Piemont,Torino,"",44.93645,7.54015
Czechia,Beroun,"2024-11-01",whiskybase,0.0,1.0,2,0,0,0,2,https://www.whiskyquartier.de/products/cardeas-warehouse-1-0-7l,CZ,Central Bohemia,"",Beroun,49.96382,14.072
Austria,Vienna,"2024-11-01",whiskybase,6.0,2.0,0,0,0,0,1,https://www.whiskyquartier.de/products/cardeas-warehouse-1-0-7l,US,West Virginia,Wood County,Vienna,39.32702,-81.54846
Austria,Vienna,"2024-11-01",whiskybase,6.0,2.0,0,0,0,0,1,https://www.whiskyquartier.de/products/cardeas-warehouse-1-0-7l,US,Virginia,Fairfax County,Vienna,38.90122,-77.26526
Austria,Vienna,"2024-11-01",whiskybase,6.0,2.0,0,0,0,0,1,https://www.whiskyquartier.de/products/cardeas-warehouse-1-0-7l,US,Missouri,Maries County,Vienna,38.18671,-91.94711
Austria,Vienna,"2024-11-01",whiskybase,6.0,2.0,0,0,0,0,1,https://www.whiskyquartier.de/products/cardeas-warehouse-1-0-7l,US,Illinois,Johnson County,Vienna,37.41533,-88.89784
Austria,Vienna,"2024-11-01",whiskybase,6.0,2.0,0,0,0,0,1,https://www.whiskyquartier.de/products/cardeas-warehouse-1-0-7l,US,Georgia,Dooly County,Vienna,32.09156,-83.79545
Austria,Vienna,"2024-11-01",whiskybase,6.0,2.0,0,0,0,0,1,https://www.whiskyquartier.de/products/cardeas-warehouse-1-0-7l,AT,"","",Vienna,48.20849,16.37208
Chile,Santiago,"2024-11-01",whiskybase,21.0,2.0,0,0,0,0,1,https://www.whiskyquartier.de/products/the-laddie-valinch-no-12-0,PY,Misiones,"",Santiago,-27.1431,-56.76803
Chile,Santiago,"2024-11-01",whiskybase,21.0,2.0,0,0,0,0,1,https://www.whiskyquartier.de/products/the-laddie-valinch-no-12-0,PH,Davao Oriental,"",Santiago,7.28889,126.57333
Chile,Santiago,"2024-11-01",whiskybase,21.0,2.0,0,0,0,0,1,https://www.whiskyquartier.de/products/the-laddie-valinch-no-12-0,PH,Cebu,"",Santiago,10.5897,124.3066
Chile,Santiago,"2024-11-01",whiskybase,21.0,2.0,0,0,0,0,1,https://www.whiskyquartier.de/products/the-laddie-valinch-no-12-0,PH,Iloilo,Barotac Viejo,Santiago,11.05806,122.91167
Chile,Santiago,"2024-11-01",whiskybase,21.0,2.0,0,0,0,0,1,https://www.whiskyquartier.de/products/the-laddie-valinch-no-12-0,PH,Laguna,"",Santiago,14.0211,121.2792
Chile,Santiago,"2024-11-01",whiskybase,21.0,2.0,0,0,0,0,1,https://www.whiskyquartier.de/products/the-laddie-valinch-no-12-0,PH,Pampanga,"",Santiago,14.90371,120.51134
Chile,Santiago,"2024-11-01",whiskybase,21.0,2.0,0,0,0,0,1,https://www.whiskyquartier.de/products/the-laddie-valinch-no-12-0,PH,Isabela,"",Santiago,16.68808,121.5487
Chile,Santiago,"2024-11-01",whiskybase,21.0,2.0,0,0,0,0,1,https://www.whiskyquartier.de/products/the-laddie-valinch-no-12-0,PH,Ilocos Sur,"",Santiago,17.2939,120.4449
Chile,Santiago,"2024-11-01",whiskybase,21.0,2.0,0,0,0,0,1,https://www.whiskyquartier.de/products/the-laddie-valinch-no-12-0,PE,Cusco,"",Santiago,-13.52728,-71.9843
Chile,Santiago,"2024-11-01",whiskybase,21.0,2.0,0,0,0,0,1,https://www.whiskyquartier.de/products/the-laddie-valinch-no-12-0,PE,Ica,"",Santiago,-14.18469,-75.71124
Chile,Santiago,"2024-11-01",whiskybase,21.0,2.0,0,0,0,0,1,https://www.whiskyquartier.de/products/the-laddie-valinch-no-12-0,MX,Puebla,Xiutetelco,Santiago,19.81194,-97.32361
Chile,Santiago,"2024-11-01",whiskybase,21.0,2.0,0,0,0,0,1,https://www.whiskyquartier.de/products/the-laddie-valinch-no-12-0,MX,Aguascalientes,Pabellón de Arteaga,Santiago,22.11948,-102.33769
Chile,Santiago,"2024-11-01",whiskybase,21.0,2.0,0,0,0,0,1,https://www.whiskyquartier.de/products/the-laddie-valinch-no-12-0,MX,Zacatecas,Pinos,Santiago,22.45477,-101.45898
Chile,Santiago,"2024-11-01",whiskybase,21.0,2.0,0,0,0,0,1,https://www.whiskyquartier.de/products/the-laddie-valinch-no-12-0,MX,Nuevo León,Santiago,Santiago,25.42533,-100.15205
Chile,Santiago,"2024-11-01",whiskybase,21.0,2.0,0,0,0,0,1,https://www.whiskyquartier.de/products/the-laddie-valinch-no-12-0,MX,Veracruz,Ixmatlahuacan,Santiago,18.44884,-95.83037
Chile,Santiago,"2024-11-01",whiskybase,21.0,2.0,0,0,0,0,1,https://www.whiskyquartier.de/products/the-laddie-valinch-no-12-0,MX,Veracruz,Atzalan,Santiago,19.91714,-97.154
Chile,Santiago,"2024-11-01",whiskybase,21.0,2.0,0,0,0,0,1,https://www.whiskyquartier.de/products/the-laddie-valinch-no-12-0,EC,Bolívar,San Miguel,Santiago,-1.69968,-78.99985
Chile,Santiago,"2024-11-01",whiskybase,21.0,2.0,0,0,0,0,1,https://www.whiskyquartier.de/products/the-laddie-valinch-no-12-0,EC,Loja,Loja,Santiago,-3.7938,-79.28192
Chile,Santiago,"2024-11-01",whiskybase,21.0,2.0,0,0,0,0,1,https://www.whiskyquartier.de/products/the-laddie-valinch-no-12-0,CR,"",Cantón Puriscal,Santiago,9.84636,-84.31428
Chile,Santiago,"2024-11-01",whiskybase,21.0,2.0,0,0,0,0,1,https://www.whiskyquartier.de/products/the-laddie-valinch-no-12-0,CR,"",Cantón Palmares,Santiago,10.02275,-84.4442
Chile,Santiago,"2024-11-01",whiskybase,21.0,2.0,0,0,0,0,1,https://www.whiskyquartier.de/products/the-laddie-valinch-no-12-0,CO,Putumayo,"",Santiago,1.14844,-77.0045
Chile,Santiago,"2024-11-01",whiskybase,21.0,2.0,0,0,0,0,1,https://www.whiskyquartier.de/products/the-laddie-valinch-no-12-0,CO,Norte de Santander,"",Santiago,7.86432,-72.7162
Chile,Santiago,"2024-11-01",whiskybase,21.0,2.0,0,0,0,0,1,https://www.whiskyquartier.de/products/the-laddie-valinch-no-12-0,CL,Santiago Metropolitan Region,Provincia de Santiago,Santiago,-33.45694,-70.64827
Chile,Santiago,"2024-11-01",whiskybase,21.0,2.0,0,0,0,0,1,https://www.whiskyquartier.de/products/the-laddie-valinch-no-12-0,BR,Rio Grande do Sul,"",Santiago,-29.19167,-54.86722
The Netherlands,Spijkenisse,"2024-11-01",whiskybase,0.0,1.0,1,0,0,0,1,https://www.whiskyquartier.de/products/macallan-harmony-collectio,NL,South Holland,"",Spijkenisse,51.845,4.32917
The Netherlands,Purmerend,"2024-11-01",direct,123.666664,1.3333334,2,0,0,0,3,https://www.whiskyquartier.de/products/macallan-classic-cut-2023,NL,North Holland,"",Purmerend,52.505,4.95972
Bulgaria,Sofia,"2024-12-01",whiskybase,0.0,1.0,1,0,0,0,1,https://www.whiskyquartier.de/products/cardeas-warehouse-1-0-7l,BG,"",Sofia-City,Sofia,42.69751,23.32415
Armenia,"","2024-12-01",alphabet,0.0,1.0,4,0,0,0,4,https://www.whiskyquartier.de/products/classic-cut-2020-0-7l,IT,Piemont,Torino,"",44.93645,7.54015
Austria,Salzburg,"2024-12-01",alphabet,0.0,1.0,1,0,0,0,1,https://www.whiskyquartier.de/products/edition-no-6-0-7l?srsltid=,AT,Salzburg,"",Salzburg,47.79941,13.04399
Ireland,Clonee,"2024-12-01",meta,0.0,1.0,1,0,0,0,1,https://www.whiskyquartier.de/collections/asien?fbclid=IwZXh0bgNh,,,,,,
Bahamas,Nassau,"2024-12-01",alphabet,0.0,1.0,3,0,0,0,3,https://www.whiskyquartier.de/products/18y-sherry-oak-2022-0-7l,US,New York,Rensselaer County,Nassau,42.51591,-73.61012
Bahamas,Nassau,"2024-12-01",alphabet,0.0,1.0,3,0,0,0,3,https://www.whiskyquartier.de/products/18y-sherry-oak-2022-0-7l,DE,Rhineland-Palatinate,Rhein-Lahn-Kreis,Nassau,50.31453,7.80025
Bahamas,Nassau,"2024-12-01",alphabet,0.0,1.0,3,0,0,0,3,https://www.whiskyquartier.de/products/18y-sherry-oak-2022-0-7l,BS,"","",Nassau,25.05823,-77.34306
Ireland,Dublin,"2024-12-01",direct,0.0,1.0,1,0,0,0,1,https://www.whiskyquartier.de/policies/privacy-policy,US,California,Alameda County,Dublin,37.70215,-121.93579
Ireland,Dublin,"2024-12-01",direct,0.0,1.0,1,0,0,0,1,https://www.whiskyquartier.de/policies/privacy-policy,US,Pennsylvania,Bucks County,Dublin,40.37177,-75.20156
Ireland,Dublin,"2024-12-01",direct,0.0,1.0,1,0,0,0,1,https://www.whiskyquartier.de/policies/privacy-policy,US,Ohio,Franklin County,Dublin,40.09923,-83.11408
Ireland,Dublin,"2024-12-01",direct,0.0,1.0,1,0,0,0,1,https://www.whiskyquartier.de/policies/privacy-policy,US,New Hampshire,Cheshire County,Dublin,42.90758,-72.06258
Ireland,Dublin,"2024-12-01",direct,0.0,1.0,1,0,0,0,1,https://www.whiskyquartier.de/policies/privacy-policy,US,Virginia,Pulaski County,Dublin,37.10568,-80.68534
Ireland,Dublin,"2024-12-01",direct,0.0,1.0,1,0,0,0,1,https://www.whiskyquartier.de/policies/privacy-policy,US,Texas,Erath County,Dublin,32.08514,-98.34199
Ireland,Dublin,"2024-12-01",direct,0.0,1.0,1,0,0,0,1,https://www.whiskyquartier.de/policies/privacy-policy,US,Georgia,Laurens County,Dublin,32.54044,-82.90375
Ireland,Dublin,"2024-12-01",direct,0.0,1.0,1,0,0,0,1,https://www.whiskyquartier.de/policies/privacy-policy,IE,"",County Dublin,Dublin,53.33306,-6.24889
Finland,Helsinki,"2024-12-01",direct,128.0,5.0,0,1,1,1,1,https://www.whiskyquartier.de/products/cardeas-warehouse-1-0-7l,FI,"",Uusimaa,Helsinki,60.16952,24.93545
Ireland,Clonee,"2024-12-01",meta,0.0,1.0,1,0,0,0,1,https://www.whiskyquartier.de/collections/speyside?fbclid=IwZXh0b,,,,,,
Finland,Helsinki,"2024-12-01",whiskybase,1183.0,12.0,0,1,1,0,1,https://www.whiskyquartier.de/products/cardeas-warehouse-1-0-7l,FI,"",Uusimaa,Helsinki,60.16952,24.93545
Ireland,Clonee,"2024-12-01",meta,0.0,1.0,1,0,0,0,1,https://www.whiskyquartier.de/products/yamazaki-0-7l?fbclid=IwZXh,,,,,,
Türkiye,Konya,"2024-12-01",meta,0.0,1.0,1,0,0,0,1,https://www.whiskyquartier.de/?fbclid=IwZXh0bgNhZW0BMABhZGlkAAAGD,TR,"","",Konya,37.87135,32.48464
Canada,Beauharnois,"2024-12-01",direct,0.0,1.0,1,0,0,0,1,https://www.whiskyquartier.de/,CA,Quebec,Beauharnois-Salaberry,Beauharnois,45.31341,-73.8725
Ireland,Dublin,"2024-12-01",direct,0.0,1.0,1,0,0,0,1,https://www.whiskyquartier.de/policies/contact-information,US,California,Alameda County,Dublin,37.70215,-121.93579
Ireland,Dublin,"2024-12-01",direct,0.0,1.0,1,0,0,0,1,https://www.whiskyquartier.de/policies/contact-information,US,Pennsylvania,Bucks County,Dublin,40.37177,-75.20156
Ireland,Dublin,"2024-12-01",direct,0.0,1.0,1,0,0,0,1,https://www.whiskyquartier.de/policies/contact-information,US,Ohio,Franklin County,Dublin,40.09923,-83.11408
Ireland,Dublin,"2024-12-01",direct,0.0,1.0,1,0,0,0,1,https://www.whiskyquartier.de/policies/contact-information,US,New Hampshire,Cheshire County,Dublin,42.90758,-72.06258
Ireland,Dublin,"2024-12-01",direct,0.0,1.0,1,0,0,0,1,https://www.whiskyquartier.de/policies/contact-information,US,Virginia,Pulaski County,Dublin,37.10568,-80.68534
Ireland,Dublin,"2024-12-01",direct,0.0,1.0,1,0,0,0,1,https://www.whiskyquartier.de/policies/contact-information,US,Texas,Erath County,Dublin,32.08514,-98.34199
Ireland,Dublin,"2024-12-01",direct,0.0,1.0,1,0,0,0,1,https://www.whiskyquartier.de/policies/contact-information,US,Georgia,Laurens County,Dublin,32.54044,-82.90375
Ireland,Dublin,"2024-12-01",direct,0.0,1.0,1,0,0,0,1,https://www.whiskyquartier.de/policies/contact-information,IE,"",County Dublin,Dublin,53.33306,-6.24889
Ireland,Clonee,"2024-12-01",meta,0.0,1.0,1,0,0,0,1,https://www.whiskyquartier.de/?fbclid=IwZXh0bgNhZW0CMTEAAR34TiNA5,,,,,,
Ireland,Dublin,"2024-12-01",direct,0.0,1.0,1,0,0,0,1,https://www.whiskyquartier.de/policies/legal-notice,US,California,Alameda County,Dublin,37.70215,-121.93579
Ireland,Dublin,"2024-12-01",direct,0.0,1.0,1,0,0,0,1,https://www.whiskyquartier.de/policies/legal-notice,US,Pennsylvania,Bucks County,Dublin,40.37177,-75.20156
Ireland,Dublin,"2024-12-01",direct,0.0,1.0,1,0,0,0,1,https://www.whiskyquartier.de/policies/legal-notice,US,Ohio,Franklin County,Dublin,40.09923,-83.11408
Ireland,Dublin,"2024-12-01",direct,0.0,1.0,1,0,0,0,1,https://www.whiskyquartier.de/policies/legal-notice,US,New Hampshire,Cheshire County,Dublin,42.90758,-72.06258
Ireland,Dublin,"2024-12-01",direct,0.0,1.0,1,0,0,0,1,https://www.whiskyquartier.de/policies/legal-notice,US,Virginia,Pulaski County,Dublin,37.10568,-80.68534
Ireland,Dublin,"2024-12-01",direct,0.0,1.0,1,0,0,0,1,https://www.whiskyquartier.de/policies/legal-notice,US,Texas,Erath County,Dublin,32.08514,-98.34199
Ireland,Dublin,"2024-12-01",direct,0.0,1.0,1,0,0,0,1,https://www.whiskyquartier.de/policies/legal-notice,US,Georgia,Laurens County,Dublin,32.54044,-82.90375
Ireland,Dublin,"2024-12-01",direct,0.0,1.0,1,0,0,0,1,https://www.whiskyquartier.de/policies/legal-notice,IE,"",County Dublin,Dublin,53.33306,-6.24889
Ireland,Clonee,"2024-12-01",meta,0.0,1.0,1,0,0,0,1,https://www.whiskyquartier.de/products/quest-collection-quest-1l?,,,,,,
Sweden,Luleå,"2024-12-01",meta,0.0,1.0,1,0,0,0,1,https://www.whiskyquartier.de/pages/whiskyquartier-die-vielfalt-d,SE,"",Norrbotten County,Luleå,65.58415,22.15465
Bangladesh,"","2024-12-01",alphabet,333.0,2.0,0,0,0,0,1,https://www.whiskyquartier.de/pages/contact,IT,Piemont,Torino,"",44.93645,7.54015
Ireland,Clonee,"2024-12-01",meta,0.0,1.0,1,0,0,0,1,https://www.whiskyquartier.de/collections/asien?fbclid=IwZXh0bgNh,,,,,,
Ireland,Clonee,"2024-12-01",meta,0.0,1.0,1,0,0,0,1,https://www.whiskyquartier.de/collections/neu-im-shop?fbclid=IwZX,,,,,,
The Netherlands,Rotterdam,"2024-12-01",whiskybase,0.0,1.0,1,0,0,0,1,https://www.whiskyquartier.de/products/cardeas-warehouse-1-0-7l,US,New York,Schenectady,Rotterdam,42.78702,-73.97096
The Netherlands,Rotterdam,"2024-12-01",whiskybase,0.0,1.0,1,0,0,0,1,https://www.whiskyquartier.de/products/cardeas-warehouse-1-0-7l,NL,South Holland,"",Rotterdam,51.9225,4.47917
Austria,Vienna,"2024-12-01",alphabet,58.0,3.0,0,0,0,0,1,https://www.whiskyquartier.de/products/macallan-classic-cut-2023?,US,West Virginia,Wood County,Vienna,39.32702,-81.54846
Austria,Vienna,"2024-12-01",alphabet,58.0,3.0,0,0,0,0,1,https://www.whiskyquartier.de/products/macallan-classic-cut-2023?,US,Virginia,Fairfax County,Vienna,38.90122,-77.26526
Austria,Vienna,"2024-12-01",alphabet,58.0,3.0,0,0,0,0,1,https://www.whiskyquartier.de/products/macallan-classic-cut-2023?,US,Missouri,Maries County,Vienna,38.18671,-91.94711
Austria,Vienna,"2024-12-01",alphabet,58.0,3.0,0,0,0,0,1,https://www.whiskyquartier.de/products/macallan-classic-cut-2023?,US,Illinois,Johnson County,Vienna,37.41533,-88.89784
Austria,Vienna,"2024-12-01",alphabet,58.0,3.0,0,0,0,0,1,https://www.whiskyquartier.de/products/macallan-classic-cut-2023?,US,Georgia,Dooly County,Vienna,32.09156,-83.79545
Austria,Vienna,"2024-12-01",alphabet,58.0,3.0,0,0,0,0,1,https://www.whiskyquartier.de/products/macallan-classic-cut-2023?,AT,"","",Vienna,48.20849,16.37208
Sweden,Luleå,"2024-12-01",meta,0.0,1.0,1,0,0,0,1,https://www.whiskyquartier.de/?fbclid=IwZXh0bgNhZW0CMTEAAR3xl_WFD,SE,"",Norrbotten County,Luleå,65.58415,22.15465
Sweden,Luleå,"2024-12-01",meta,0.0,1.0,1,0,0,0,1,https://www.whiskyquartier.de/pages/whiskyquartier-die-geschichte,SE,"",Norrbotten County,Luleå,65.58415,22.15465
Ireland,Dublin,"2024-12-01",direct,0.0,1.0,1,0,0,0,1,https://www.whiskyquartier.de/policies/terms-of-service,US,California,Alameda County,Dublin,37.70215,-121.93579
Ireland,Dublin,"2024-12-01",direct,0.0,1.0,1,0,0,0,1,https://www.whiskyquartier.de/policies/terms-of-service,US,Pennsylvania,Bucks County,Dublin,40.37177,-75.20156
Ireland,Dublin,"2024-12-01",direct,0.0,1.0,1,0,0,0,1,https://www.whiskyquartier.de/policies/terms-of-service,US,Ohio,Franklin County,Dublin,40.09923,-83.11408
Ireland,Dublin,"2024-12-01",direct,0.0,1.0,1,0,0,0,1,https://www.whiskyquartier.de/policies/terms-of-service,US,New Hampshire,Cheshire County,Dublin,42.90758,-72.06258
Ireland,Dublin,"2024-12-01",direct,0.0,1.0,1,0,0,0,1,https://www.whiskyquartier.de/policies/terms-of-service,US,Virginia,Pulaski County,Dublin,37.10568,-80.68534
Ireland,Dublin,"2024-12-01",direct,0.0,1.0,1,0,0,0,1,https://www.whiskyquartier.de/policies/terms-of-service,US,Texas,Erath County,Dublin,32.08514,-98.34199
Ireland,Dublin,"2024-12-01",direct,0.0,1.0,1,0,0,0,1,https://www.whiskyquartier.de/policies/terms-of-service,US,Georgia,Laurens County,Dublin,32.54044,-82.90375
Ireland,Dublin,"2024-12-01",direct,0.0,1.0,1,0,0,0,1,https://www.whiskyquartier.de/policies/terms-of-service,IE,"",County Dublin,Dublin,53.33306,-6.24889
Austria,Vienna,"2024-12-01",direct,0.0,1.0,1,0,0,0,1,https://www.whiskyquartier.de/products/quest-collection-terra-0-7,US,West Virginia,Wood County,Vienna,39.32702,-81.54846
Austria,Vienna,"2024-12-01",direct,0.0,1.0,1,0,0,0,1,https://www.whiskyquartier.de/products/quest-collection-terra-0-7,US,Virginia,Fairfax County,Vienna,38.90122,-77.26526
Austria,Vienna,"2024-12-01",direct,0.0,1.0,1,0,0,0,1,https://www.whiskyquartier.de/products/quest-collection-terra-0-7,US,Missouri,Maries County,Vienna,38.18671,-91.94711
Austria,Vienna,"2024-12-01",direct,0.0,1.0,1,0,0,0,1,https://www.whiskyquartier.de/products/quest-collection-terra-0-7,US,Illinois,Johnson County,Vienna,37.41533,-88.89784
Austria,Vienna,"2024-12-01",direct,0.0,1.0,1,0,0,0,1,https://www.whiskyquartier.de/products/quest-collection-terra-0-7,US,Georgia,Dooly County,Vienna,32.09156,-83.79545
Austria,Vienna,"2024-12-01",direct,0.0,1.0,1,0,0,0,1,https://www.whiskyquartier.de/products/quest-collection-terra-0-7,AT,"","",Vienna,48.20849,16.37208
Ireland,Dublin,"2024-12-01",direct,0.0,1.0,1,0,0,0,1,https://www.whiskyquartier.de/policies/refund-policy,US,California,Alameda County,Dublin,37.70215,-121.93579
Ireland,Dublin,"2024-12-01",direct,0.0,1.0,1,0,0,0,1,https://www.whiskyquartier.de/policies/refund-policy,US,Pennsylvania,Bucks County,Dublin,40.37177,-75.20156
Ireland,Dublin,"2024-12-01",direct,0.0,1.0,1,0,0,0,1,https://www.whiskyquartier.de/policies/refund-policy,US,Ohio,Franklin County,Dublin,40.09923,-83.11408
Ireland,Dublin,"2024-12-01",direct,0.0,1.0,1,0,0,0,1,https://www.whiskyquartier.de/policies/refund-policy,US,New Hampshire,Cheshire County,Dublin,42.90758,-72.06258
Ireland,Dublin,"2024-12-01",direct,0.0,1.0,1,0,0,0,1,https://www.whiskyquartier.de/policies/refund-policy,US,Virginia,Pulaski County,Dublin,37.10568,-80.68534
Ireland,Dublin,"2024-12-01",direct,0.0,1.0,1,0,0,0,1,https://www.whiskyquartier.de/policies/refund-policy,US,Texas,Erath County,Dublin,32.08514,-98.34199
Ireland,Dublin,"2024-12-01",direct,0.0,1.0,1,0,0,0,1,https://www.whiskyquartier.de/policies/refund-policy,US,Georgia,Laurens County,Dublin,32.54044,-82.90375
Ireland,Dublin,"2024-12-01",direct,0.0,1.0,1,0,0,0,1,https://www.whiskyquartier.de/policies/refund-policy,IE,"",County Dublin,Dublin,53.33306,-6.24889
The Netherlands,Rotterdam,"2024-12-01",whiskybase,19.0,3.0,0,0,0,0,1,https://www.whiskyquartier.de/products/quest-collection-enigma-0-,US,New York,Schenectady,Rotterdam,42.78702,-73.97096
The Netherlands,Rotterdam,"2024-12-01",whiskybase,19.0,3.0,0,0,0,0,1,https://www.whiskyquartier.de/products/quest-collection-enigma-0-,NL,South Holland,"",Rotterdam,51.9225,4.47917
Ireland,Clonee,"2024-12-01",meta,0.0,1.0,1,0,0,0,1,https://www.whiskyquartier.de/pages/whisky?fbclid=IwZXh0bgNhZW0CM,,,,,,
The Netherlands,Amsterdam,"2024-12-01",whiskybase,9.0,1.5,1,0,0,0,2,https://www.whiskyquartier.de/products/triple-wood-0-7l?_pos=1&_s,US,New York,Montgomery County,Amsterdam,42.93869,-74.18819
The Netherlands,Amsterdam,"2024-12-01",whiskybase,9.0,1.5,1,0,0,0,2,https://www.whiskyquartier.de/products/triple-wood-0-7l?_pos=1&_s,NL,North Holland,"",Amsterdam,52.37403,4.88969
Türkiye,Istanbul,"2024-12-01",direct,1165.0,7.0,0,1,1,1,1,https://www.whiskyquartier.de/products/kavalan-solist-brandy-0-7l,TR,"","",Istanbul,41.01384,28.94966
India,"","2024-12-01",alphabet,0.0,1.0,1,0,0,0,1,https://www.whiskyquartier.de/,IT,Piemont,Torino,"",44.93645,7.54015
The Netherlands,Purmerend,"2024-12-01",direct,0.0,1.0,4,0,0,0,4,https://www.whiskyquartier.de/products/a-night-on-earth-scotland-,NL,North Holland,"",Purmerend,52.505,4.95972
Ireland,Clonee,"2024-12-01",meta,0.0,1.0,1,0,0,0,1,https://www.whiskyquartier.de/products/yamazaki-0-7l?fbclid=IwZXh,,,,,,
Sweden,Luleå,"2024-12-01",meta,0.0,1.0,1,0,0,0,1,https://www.whiskyquartier.de/pages/whiskyquartier-die-geschichte,SE,"",Norrbotten County,Luleå,65.58415,22.15465
The Netherlands,Amsterdam,"2024-12-01",direct,22.0,2.0,0,1,1,0,1,https://www.whiskyquartier.de/products/cardeas-warehouse-1-0-7l,US,New York,Montgomery County,Amsterdam,42.93869,-74.18819
The Netherlands,Amsterdam,"2024-12-01",direct,22.0,2.0,0,1,1,0,1,https://www.whiskyquartier.de/products/cardeas-warehouse-1-0-7l,NL,North Holland,"",Amsterdam,52.37403,4.88969
Ireland,Clonee,"2024-12-01",meta,0.0,1.0,1,0,0,0,1,https://www.whiskyquartier.de/products/quest-collection-quest-1l?,,,,,,
Ireland,Clonee,"2024-12-01",meta,0.0,1.0,1,0,0,0,1,https://www.whiskyquartier.de/pages/whiskyquartier-die-geschichte,,,,,,
Czechia,Beroun,"2024-12-01",whiskybase,0.0,1.0,2,0,0,0,2,https://www.whiskyquartier.de/products/cardeas-warehouse-1-0-7l,CZ,Central Bohemia,"",Beroun,49.96382,14.072
The Netherlands,Purmerend,"2024-12-01",direct,0.0,1.0,6,0,0,0,6,https://www.whiskyquartier.de/products/classic-cut-2020-0-7l,NL,North Holland,"",Purmerend,52.505,4.95972
Finland,Helsinki,"2024-12-01",direct,255.0,9.0,0,0,0,0,1,https://www.whiskyquartier.de/collections/islay,FI,"",Uusimaa,Helsinki,60.16952,24.93545
Ireland,Dublin,"2024-12-01",direct,0.0,1.0,1,0,0,0,1,https://www.whiskyquartier.de/?preview_privacy_banner=1,US,California,Alameda County,Dublin,37.70215,-121.93579
Ireland,Dublin,"2024-12-01",direct,0.0,1.0,1,0,0,0,1,https://www.whiskyquartier.de/?preview_privacy_banner=1,US,Pennsylvania,Bucks County,Dublin,40.37177,-75.20156
Ireland,Dublin,"2024-12-01",direct,0.0,1.0,1,0,0,0,1,https://www.whiskyquartier.de/?preview_privacy_banner=1,US,Ohio,Franklin County,Dublin,40.09923,-83.11408
Ireland,Dublin,"2024-12-01",direct,0.0,1.0,1,0,0,0,1,https://www.whiskyquartier.de/?preview_privacy_banner=1,US,New Hampshire,Cheshire County,Dublin,42.90758,-72.06258
Ireland,Dublin,"2024-12-01",direct,0.0,1.0,1,0,0,0,1,https://www.whiskyquartier.de/?preview_privacy_banner=1,US,Virginia,Pulaski County,Dublin,37.10568,-80.68534
Ireland,Dublin,"2024-12-01",direct,0.0,1.0,1,0,0,0,1,https://www.whiskyquartier.de/?preview_privacy_banner=1,US,Texas,Erath County,Dublin,32.08514,-98.34199
Ireland,Dublin,"2024-12-01",direct,0.0,1.0,1,0,0,0,1,https://www.whiskyquartier.de/?preview_privacy_banner=1,US,Georgia,Laurens County,Dublin,32.54044,-82.90375
Ireland,Dublin,"2024-12-01",direct,0.0,1.0,1,0,0,0,1,https://www.whiskyquartier.de/?preview_privacy_banner=1,IE,"",County Dublin,Dublin,53.33306,-6.24889
Türkiye,Istanbul,"2024-12-01",whiskybase,0.0,1.0,2,0,0,0,2,https://www.whiskyquartier.de/products/kavalan-solist-brandy-0-7l,TR,"","",Istanbul,41.01384,28.94966
Ireland,Dublin,"2024-12-01",direct,0.0,1.0,1,0,0,0,1,https://www.whiskyquartier.de/pages/contact,US,California,Alameda County,Dublin,37.70215,-121.93579
Ireland,Dublin,"2024-12-01",direct,0.0,1.0,1,0,0,0,1,https://www.whiskyquartier.de/pages/contact,US,Pennsylvania,Bucks County,Dublin,40.37177,-75.20156
Ireland,Dublin,"2024-12-01",direct,0.0,1.0,1,0,0,0,1,https://www.whiskyquartier.de/pages/contact,US,Ohio,Franklin County,Dublin,40.09923,-83.11408
Ireland,Dublin,"2024-12-01",direct,0.0,1.0,1,0,0,0,1,https://www.whiskyquartier.de/pages/contact,US,New Hampshire,Cheshire County,Dublin,42.90758,-72.06258
Ireland,Dublin,"2024-12-01",direct,0.0,1.0,1,0,0,0,1,https://www.whiskyquartier.de/pages/contact,US,Virginia,Pulaski County,Dublin,37.10568,-80.68534
Ireland,Dublin,"2024-12-01",direct,0.0,1.0,1,0,0,0,1,https://www.whiskyquartier.de/pages/contact,US,Texas,Erath County,Dublin,32.08514,-98.34199
Ireland,Dublin,"2024-12-01",direct,0.0,1.0,1,0,0,0,1,https://www.whiskyquartier.de/pages/contact,US,Georgia,Laurens County,Dublin,32.54044,-82.90375
Ireland,Dublin,"2024-12-01",direct,0.0,1.0,1,0,0,0,1,https://www.whiskyquartier.de/pages/contact,IE,"",County Dublin,Dublin,53.33306,-6.24889
The Netherlands,Rotterdam,"2024-12-01",whiskybase,0.0,1.0,1,0,0,0,1,https://www.whiskyquartier.de/products/ardcore-0-7l,US,New York,Schenectady,Rotterdam,42.78702,-73.97096
The Netherlands,Rotterdam,"2024-12-01",whiskybase,0.0,1.0,1,0,0,0,1,https://www.whiskyquartier.de/products/ardcore-0-7l,NL,South Holland,"",Rotterdam,51.9225,4.47917
Belgium,Ghent,"2024-12-01",whiskybase,0.0,1.0,1,0,0,0,1,https://www.whiskyquartier.de/products/concept-no-3-0-7l,,,,,,
Sweden,Luleå,"2024-12-01",meta,0.0,1.0,1,0,0,0,1,https://www.whiskyquartier.de/?fbclid=IwZXh0bgNhZW0CMTEAAR0SKwb9L,SE,"",Norrbotten County,Luleå,65.58415,22.15465
The Netherlands,Amsterdam,"2024-12-01",direct,12.0,6.0,0,0,0,0,1,https://www.whiskyquartier.de/,US,New York,Montgomery County,Amsterdam,42.93869,-74.18819
The Netherlands,Amsterdam,"2024-12-01",direct,12.0,6.0,0,0,0,0,1,https://www.whiskyquartier.de/,NL,North Holland,"",Amsterdam,52.37403,4.88969
Czechia,Beroun,"2024-12-01",whiskybase,0.0,1.0,2,0,0,0,2,https://www.whiskyquartier.de/products/concept-no-1-0-7l,CZ,Central Bohemia,"",Beroun,49.96382,14.072
Sweden,Luleå,"2024-12-01",meta,0.0,1.0,1,0,0,0,1,https://www.whiskyquartier.de/products/yamazaki-0-7l?fbclid=IwZXh,SE,"",Norrbotten County,Luleå,65.58415,22.15465
Ireland,Dublin,"2024-12-01",direct,0.0,1.0,1,0,0,0,1,https://www.whiskyquartier.de/,US,California,Alameda County,Dublin,37.70215,-121.93579
Ireland,Dublin,"2024-12-01",direct,0.0,1.0,1,0,0,0,1,https://www.whiskyquartier.de/,US,Pennsylvania,Bucks County,Dublin,40.37177,-75.20156
Ireland,Dublin,"2024-12-01",direct,0.0,1.0,1,0,0,0,1,https://www.whiskyquartier.de/,US,Ohio,Franklin County,Dublin,40.09923,-83.11408
Ireland,Dublin,"2024-12-01",direct,0.0,1.0,1,0,0,0,1,https://www.whiskyquartier.de/,US,New Hampshire,Cheshire County,Dublin,42.90758,-72.06258
Ireland,Dublin,"2024-12-01",direct,0.0,1.0,1,0,0,0,1,https://www.whiskyquartier.de/,US,Virginia,Pulaski County,Dublin,37.10568,-80.68534
Ireland,Dublin,"2024-12-01",direct,0.0,1.0,1,0,0,0,1,https://www.whiskyquartier.de/,US,Texas,Erath County,Dublin,32.08514,-98.34199
Ireland,Dublin,"2024-12-01",direct,0.0,1.0,1,0,0,0,1,https://www.whiskyquartier.de/,US,Georgia,Laurens County,Dublin,32.54044,-82.90375
Ireland,Dublin,"2024-12-01",direct,0.0,1.0,1,0,0,0,1,https://www.whiskyquartier.de/,IE,"",County Dublin,Dublin,53.33306,-6.24889
Russia,St Petersburg,"2024-12-01",direct,0.0,1.0,1,0,0,0,1,https://www.whiskyquartier.de/products/cardeas-warehouse-1-0-7l,,,,,,
Cabo Verde,Praia,"2025-01-01",alphabet,0.0,1.0,2,0,0,0,2,https://www.whiskyquartier.de/products/suntory-hibiki-100th-anniv,CV,"",Praia,Praia,14.93152,-23.51254
Switzerland,Aarau,"2025-01-01",whiskybase,0.0,1.0,1,0,0,0,1,https://www.whiskyquartier.de/products/suntory-hibiki-100th-anniv,CH,Aargau,Bezirk Aarau,Aarau,47.39254,8.04422
Ukraine,"","2025-01-01",whiskybase,0.0,1.0,1,0,0,0,1,https://www.whiskyquartier.de/products/quest-collection-quest-1l,IT,Piemont,Torino,"",44.93645,7.54015
Portugal,Lisbon,"2025-01-01",whiskybase,0.0,1.0,1,0,0,0,1,https://www.whiskyquartier.de/products/glenturret-12-yo-2024-0-7l,US,Ohio,Columbiana County,Lisbon,40.772,-80.76813
Portugal,Lisbon,"2025-01-01",whiskybase,0.0,1.0,1,0,0,0,1,https://www.whiskyquartier.de/products/glenturret-12-yo-2024-0-7l,US,North Dakota,Ransom County,Lisbon,46.44163,-97.68121
Portugal,Lisbon,"2025-01-01",whiskybase,0.0,1.0,1,0,0,0,1,https://www.whiskyquartier.de/products/glenturret-12-yo-2024-0-7l,US,Maine,Androscoggin County,Lisbon,44.03146,-70.1045
Portugal,Lisbon,"2025-01-01",whiskybase,0.0,1.0,1,0,0,0,1,https://www.whiskyquartier.de/products/glenturret-12-yo-2024-0-7l,US,Iowa,Linn County,Lisbon,41.92112,-91.38545
Portugal,Lisbon,"2025-01-01",whiskybase,0.0,1.0,1,0,0,0,1,https://www.whiskyquartier.de/products/glenturret-12-yo-2024-0-7l,US,Connecticut,New London County,Lisbon,41.60399,-72.01174
Portugal,Lisbon,"2025-01-01",whiskybase,0.0,1.0,1,0,0,0,1,https://www.whiskyquartier.de/products/glenturret-12-yo-2024-0-7l,US,Ohio,Clark County,Lisbon,39.86089,-83.6352
Portugal,Lisbon,"2025-01-01",whiskybase,0.0,1.0,1,0,0,0,1,https://www.whiskyquartier.de/products/glenturret-12-yo-2024-0-7l,PT,"",Lisbon,Lisbon,38.71667,-9.13333
Switzerland,Uitikon,"2025-01-01",whiskybase,0.0,1.0,1,0,0,0,1,https://www.whiskyquartier.de/products/suntory-hibiki-100th-anniv,CH,Zurich,Bezirk Dietikon,Uitikon,47.36911,8.45699
Austria,Vienna,"2025-01-01",alphabet,0.0,1.0,1,0,0,0,1,https://www.whiskyquartier.de/products/classic-cut-2020-0-7l?srsl,US,West Virginia,Wood County,Vienna,39.32702,-81.54846
Austria,Vienna,"2025-01-01",alphabet,0.0,1.0,1,0,0,0,1,https://www.whiskyquartier.de/products/classic-cut-2020-0-7l?srsl,US,Virginia,Fairfax County,Vienna,38.90122,-77.26526
Austria,Vienna,"2025-01-01",alphabet,0.0,1.0,1,0,0,0,1,https://www.whiskyquartier.de/products/classic-cut-2020-0-7l?srsl,US,Missouri,Maries County,Vienna,38.18671,-91.94711
Austria,Vienna,"2025-01-01",alphabet,0.0,1.0,1,0,0,0,1,https://www.whiskyquartier.de/products/classic-cut-2020-0-7l?srsl,US,Illinois,Johnson County,Vienna,37.41533,-88.89784
Austria,Vienna,"2025-01-01",alphabet,0.0,1.0,1,0,0,0,1,https://www.whiskyquartier.de/products/classic-cut-2020-0-7l?srsl,US,Georgia,Dooly County,Vienna,32.09156,-83.79545
Austria,Vienna,"2025-01-01",alphabet,0.0,1.0,1,0,0,0,1,https://www.whiskyquartier.de/products/classic-cut-2020-0-7l?srsl,AT,"","",Vienna,48.20849,16.37208
Ukraine,Kyiv,"2025-01-01",whiskybase,0.0,1.0,2,0,0,0,2,https://www.whiskyquartier.de/products/roseisle-12-years-old-the-,UA,"","",Kyiv,50.45466,30.5238
Canada,Montreal,"2025-01-01",direct,0.0,1.0,1,0,0,0,1,https://www.whiskyquartier.de/,,,,,,
The Netherlands,Amsterdam,"2025-01-01",direct,0.0,1.0,1,0,0,0,1,https://www.whiskyquartier.de/products/classic-cut-2020-0-7l,US,New York,Montgomery County,Amsterdam,42.93869,-74.18819
The Netherlands,Amsterdam,"2025-01-01",direct,0.0,1.0,1,0,0,0,1,https://www.whiskyquartier.de/products/classic-cut-2020-0-7l,NL,North Holland,"",Amsterdam,52.37403,4.88969
Belgium,Antwerp,"2025-01-01",alphabet,0.0,1.0,1,0,0,0,1,https://www.whiskyquartier.de/products/triple-wood-0-7l,US,Ohio,Paulding County,Antwerp,41.18144,-84.74051
Lebanon,"","2025-01-01",whiskybase,0.0,1.0,1,0,0,0,1,https://www.whiskyquartier.de/products/laddie-ten-0-7l,IT,Piemont,Torino,"",44.93645,7.54015
Belize,"","2025-01-01",direct,0.0,1.0,1,0,0,0,1,https://www.whiskyquartier.de/,IT,Piemont,Torino,"",44.93645,7.54015
Sweden,Bandhagen,"2025-01-01",whiskybase,28.0,2.0,0,0,0,0,1,https://www.whiskyquartier.de/products/kavalan-solist-brandy-0-7l,,,,,,
Bulgaria,Sofia,"2025-01-01",whiskybase,0.0,1.0,1,0,0,0,1,https://www.whiskyquartier.de/products/classic-cut-2020-0-7l,BG,"",Sofia-City,Sofia,42.69751,23.32415
Switzerland,Zurich,"2025-01-01",whiskybase,0.0,1.0,1,0,0,0,1,https://www.whiskyquartier.de/products/suntory-hibiki-100th-anniv,,,,,,
The Netherlands,Purmerend,"2025-01-01",direct,0.0,1.0,5,0,0,0,5,https://www.whiskyquartier.de/products/classic-cut-2020-0-7l,NL,North Holland,"",Purmerend,52.505,4.95972
Taiwan,Kaohsiung,"2025-01-01",alphabet,0.0,1.0,1,0,0,0,1,https://www.whiskyquartier.de/,TW,"","",Kaohsiung,22.61626,120.31333
Taiwan,Taipei,"2025-01-01",direct,0.0,1.0,1,0,0,0,1,https://www.whiskyquartier.de/collections/frontpage,TW,Hhohho Region,Inkhundla Piggs Peak,Taipei,25.05306,121.52639
Austria,Innsbruck,"2025-01-01",alphabet,0.0,1.0,1,0,0,0,1,https://www.whiskyquartier.de/products/classic-cut-2020-0-7l?srsl,AT,Tyrol,"",Innsbruck,47.26266,11.39454
Bulgaria,Sofia,"2025-01-01",whiskybase,0.0,1.0,1,0,0,0,1,https://www.whiskyquartier.de/products/1824-gold-0-7l-kopie,BG,"",Sofia-City,Sofia,42.69751,23.32415
United Kingdom,West Bromwich,"2025-02-01",spiritradar,40.0,5.0,0,0,0,0,1,https://www.whiskyquartier.de/,GB,England,West Midlands Combined Authority,West Bromwich,52.51868,-1.9945
Estonia,Tallinn,"2025-02-01",whiskybase,17.5,2.0,1,0,0,0,2,https://www.whiskyquartier.de/products/roseisle-12-years-old-the-,EE,"",Harju maakond,Tallinn,59.43696,24.75353
Canada,Montreal,"2025-02-01",direct,0.0,1.0,1,0,0,0,1,https://www.whiskyquartier.de/,,,,,,
Austria,Vienna,"2025-02-01",whiskybase,389.0,3.0,0,0,0,0,1,https://www.whiskyquartier.de/products/macallan-folio-8-0-7l,US,West Virginia,Wood County,Vienna,39.32702,-81.54846
Austria,Vienna,"2025-02-01",whiskybase,389.0,3.0,0,0,0,0,1,https://www.whiskyquartier.de/products/macallan-folio-8-0-7l,US,Virginia,Fairfax County,Vienna,38.90122,-77.26526
Austria,Vienna,"2025-02-01",whiskybase,389.0,3.0,0,0,0,0,1,https://www.whiskyquartier.de/products/macallan-folio-8-0-7l,US,Missouri,Maries County,Vienna,38.18671,-91.94711
Austria,Vienna,"2025-02-01",whiskybase,389.0,3.0,0,0,0,0,1,https://www.whiskyquartier.de/products/macallan-folio-8-0-7l,US,Illinois,Johnson County,Vienna,37.41533,-88.89784
Austria,Vienna,"2025-02-01",whiskybase,389.0,3.0,0,0,0,0,1,https://www.whiskyquartier.de/products/macallan-folio-8-0-7l,US,Georgia,Dooly County,Vienna,32.09156,-83.79545
Austria,Vienna,"2025-02-01",whiskybase,389.0,3.0,0,0,0,0,1,https://www.whiskyquartier.de/products/macallan-folio-8-0-7l,AT,"","",Vienna,48.20849,16.37208
Austria,Kapfenberg,"2025-02-01",whiskybase,1631.0,10.0,0,1,1,1,1,https://www.whiskyquartier.de/products/macallan-folio-8-0-7l,AT,Styria,Bezirk Bruck-Mürzzuschlag,Kapfenberg,47.44458,15.29331
The Netherlands,Lunteren,"2025-02-01",whiskybase,0.0,1.0,1,0,0,0,1,https://www.whiskyquartier.de/products/macallan-folio-8-0-7l,NL,Gelderland,"",Lunteren,52.085,5.62222
United Kingdom,London,"2025-02-01",direct,0.0,1.0,2,0,0,0,2,https://www.whiskyquartier.de/,US,California,Tulare County,London,36.47606,-119.44318
United Kingdom,London,"2025-02-01",direct,0.0,1.0,2,0,0,0,2,https://www.whiskyquartier.de/,US,Ohio,Madison County,London,39.88645,-83.44825
United Kingdom,London,"2025-02-01",direct,0.0,1.0,2,0,0,0,2,https://www.whiskyquartier.de/,US,Kentucky,Laurel County,London,37.12898,-84.08326
United Kingdom,London,"2025-02-01",direct,0.0,1.0,2,0,0,0,2,https://www.whiskyquartier.de/,US,Arkansas,Pope County,London,35.32897,-93.25296
United Kingdom,London,"2025-02-01",direct,0.0,1.0,2,0,0,0,2,https://www.whiskyquartier.de/,GB,England,"",London,51.50853,-0.12574
United Kingdom,London,"2025-02-01",direct,0.0,1.0,2,0,0,0,2,https://www.whiskyquartier.de/,CA,Ontario,London,London,42.98339,-81.23304
The Netherlands,Purmerend,"2025-02-01",direct,93.5,2.0,1,0,0,0,2,https://www.whiskyquartier.de/products/classic-cut-2020-0-7l,NL,North Holland,"",Purmerend,52.505,4.95972
Lebanon,"","2025-02-01",whiskybase,0.0,1.0,1,0,0,0,1,https://www.whiskyquartier.de/products/laddie-ten-0-7l,IT,Piemont,Torino,"",44.93645,7.54015
Portugal,Lisbon,"2025-02-01",whiskybase,0.0,1.0,2,0,0,0,2,https://www.whiskyquartier.de/products/glenturret-12-yo-2024-0-7l,US,Ohio,Columbiana County,Lisbon,40.772,-80.76813
Portugal,Lisbon,"2025-02-01",whiskybase,0.0,1.0,2,0,0,0,2,https://www.whiskyquartier.de/products/glenturret-12-yo-2024-0-7l,US,North Dakota,Ransom County,Lisbon,46.44163,-97.68121
Portugal,Lisbon,"2025-02-01",whiskybase,0.0,1.0,2,0,0,0,2,https://www.whiskyquartier.de/products/glenturret-12-yo-2024-0-7l,US,Maine,Androscoggin County,Lisbon,44.03146,-70.1045
Portugal,Lisbon,"2025-02-01",whiskybase,0.0,1.0,2,0,0,0,2,https://www.whiskyquartier.de/products/glenturret-12-yo-2024-0-7l,US,Iowa,Linn County,Lisbon,41.92112,-91.38545
Portugal,Lisbon,"2025-02-01",whiskybase,0.0,1.0,2,0,0,0,2,https://www.whiskyquartier.de/products/glenturret-12-yo-2024-0-7l,US,Connecticut,New London County,Lisbon,41.60399,-72.01174
Portugal,Lisbon,"2025-02-01",whiskybase,0.0,1.0,2,0,0,0,2,https://www.whiskyquartier.de/products/glenturret-12-yo-2024-0-7l,US,Ohio,Clark County,Lisbon,39.86089,-83.6352
Portugal,Lisbon,"2025-02-01",whiskybase,0.0,1.0,2,0,0,0,2,https://www.whiskyquartier.de/products/glenturret-12-yo-2024-0-7l,PT,"",Lisbon,Lisbon,38.71667,-9.13333
Rwanda,Kigali,"2025-02-01",alphabet,0.0,1.0,1,0,0,0,1,https://www.whiskyquartier.de/,RW,Kigali City,Nyarugenge District,Kigali,-1.94995,30.05885
Bangladesh,"","2025-02-01",alphabet,219.0,2.0,0,0,0,0,1,https://www.whiskyquartier.de/pages/contact,IT,Piemont,Torino,"",44.93645,7.54015
Türkiye,"","2025-02-01",whiskybase,0.0,1.0,1,0,0,0,1,https://www.whiskyquartier.de/products/macallan-folio-8-0-7l,IT,Piemont,Torino,"",44.93645,7.54015
Ukraine,Kyiv,"2025-02-01",whiskybase,9.0,2.0,0,0,0,0,1,https://www.whiskyquartier.de/products/glenturret-12-yo-2024-0-7l,UA,"","",Kyiv,50.45466,30.5238
Switzerland,Zurich,"2025-02-01",whiskybase,0.0,1.0,1,0,0,0,1,https://www.whiskyquartier.de/products/suntory-hibiki-100th-anniv,,,,,,
The Netherlands,Nijmegen,"2025-02-01",direct,62.0,2.0,0,0,0,0,1,https://www.whiskyquartier.de/products/macallan-folio-8-0-7l,NL,Gelderland,"",Nijmegen,51.8425,5.85278
Austria,Vienna,"2025-02-01",alphabet,0.0,1.0,1,0,0,0,1,https://www.whiskyquartier.de/products/macallan-folio-8-0-7l?srsl,US,West Virginia,Wood County,Vienna,39.32702,-81.54846
Austria,Vienna,"2025-02-01",alphabet,0.0,1.0,1,0,0,0,1,https://www.whiskyquartier.de/products/macallan-folio-8-0-7l?srsl,US,Virginia,Fairfax County,Vienna,38.90122,-77.26526
Austria,Vienna,"2025-02-01",alphabet,0.0,1.0,1,0,0,0,1,https://www.whiskyquartier.de/products/macallan-folio-8-0-7l?srsl,US,Missouri,Maries County,Vienna,38.18671,-91.94711
Austria,Vienna,"2025-02-01",alphabet,0.0,1.0,1,0,0,0,1,https://www.whiskyquartier.de/products/macallan-folio-8-0-7l?srsl,US,Illinois,Johnson County,Vienna,37.41533,-88.89784
Austria,Vienna,"2025-02-01",alphabet,0.0,1.0,1,0,0,0,1,https://www.whiskyquartier.de/products/macallan-folio-8-0-7l?srsl,US,Georgia,Dooly County,Vienna,32.09156,-83.79545
Austria,Vienna,"2025-02-01",alphabet,0.0,1.0,1,0,0,0,1,https://www.whiskyquartier.de/products/macallan-folio-8-0-7l?srsl,AT,"","",Vienna,48.20849,16.37208
The Netherlands,Purmerend,"2025-02-01",direct,586.0,2.0,0,0,0,0,1,https://www.whiskyquartier.de/products/a-night-on-earth-scotland-,NL,North Holland,"",Purmerend,52.505,4.95972
Portugal,Guimarães,"2025-03-01",whiskybase,62.0,3.0,0,0,0,0,1,https://www.whiskyquartier.de/products/kavalan-solist-brandy-0-7l,PT,"",Braga,Guimarães,41.44443,-8.29619
The Netherlands,"","2025-03-01",alphabet,0.0,1.0,1,0,0,0,1,https://www.whiskyquartier.de/products/quest-collection-lumina-0-,IT,Piemont,Torino,"",44.93645,7.54015
Switzerland,Verbier,"2025-03-01",alphabet,0.0,1.0,1,0,0,0,1,https://www.whiskyquartier.de/products/birkenhof-fading-hill-ware,CH,Wallis,Entremont,Verbier,46.1002,7.22651
Ukraine,Kyiv,"2025-03-01",alphabet,40.0,2.0,0,1,1,0,1,https://www.whiskyquartier.de/products/glenfiddich-15-years-old-0,UA,"","",Kyiv,50.45466,30.5238
Portugal,Guimarães,"2025-03-01",direct,0.0,1.0,1,0,0,0,1,https://www.whiskyquartier.de/collections/islay-whisky-schottland,PT,"",Braga,Guimarães,41.44443,-8.29619
Switzerland,Basel,"2025-03-01",alphabet,0.0,1.0,1,0,0,0,1,https://www.whiskyquartier.de/products/macallan-folio-8-0-7l?srsl,CH,Basel-City,"",Basel,47.55839,7.57327
Ukraine,Kyiv,"2025-03-01",whiskybase,36.5,2.0,1,0,0,0,2,https://www.whiskyquartier.de/products/glenturret-10-yo-peat-smok,UA,"","",Kyiv,50.45466,30.5238
Portugal,Lisbon,"2025-03-01",whiskybase,0.0,1.0,1,0,0,0,1,https://www.whiskyquartier.de/products/ardnahoe-infinite-loch-0-7,US,Ohio,Columbiana County,Lisbon,40.772,-80.76813
Portugal,Lisbon,"2025-03-01",whiskybase,0.0,1.0,1,0,0,0,1,https://www.whiskyquartier.de/products/ardnahoe-infinite-loch-0-7,US,North Dakota,Ransom County,Lisbon,46.44163,-97.68121
Portugal,Lisbon,"2025-03-01",whiskybase,0.0,1.0,1,0,0,0,1,https://www.whiskyquartier.de/products/ardnahoe-infinite-loch-0-7,US,Maine,Androscoggin County,Lisbon,44.03146,-70.1045
Portugal,Lisbon,"2025-03-01",whiskybase,0.0,1.0,1,0,0,0,1,https://www.whiskyquartier.de/products/ardnahoe-infinite-loch-0-7,US,Iowa,Linn County,Lisbon,41.92112,-91.38545
Portugal,Lisbon,"2025-03-01",whiskybase,0.0,1.0,1,0,0,0,1,https://www.whiskyquartier.de/products/ardnahoe-infinite-loch-0-7,US,Connecticut,New London County,Lisbon,41.60399,-72.01174
Portugal,Lisbon,"2025-03-01",whiskybase,0.0,1.0,1,0,0,0,1,https://www.whiskyquartier.de/products/ardnahoe-infinite-loch-0-7,US,Ohio,Clark County,Lisbon,39.86089,-83.6352
Portugal,Lisbon,"2025-03-01",whiskybase,0.0,1.0,1,0,0,0,1,https://www.whiskyquartier.de/products/ardnahoe-infinite-loch-0-7,PT,"",Lisbon,Lisbon,38.71667,-9.13333
Austria,Vienna,"2025-03-01",alphabet,127.0,3.0,0,0,0,0,1,https://www.whiskyquartier.de/,US,West Virginia,Wood County,Vienna,39.32702,-81.54846
Austria,Vienna,"2025-03-01",alphabet,127.0,3.0,0,0,0,0,1,https://www.whiskyquartier.de/,US,Virginia,Fairfax County,Vienna,38.90122,-77.26526
Austria,Vienna,"2025-03-01",alphabet,127.0,3.0,0,0,0,0,1,https://www.whiskyquartier.de/,US,Missouri,Maries County,Vienna,38.18671,-91.94711
Austria,Vienna,"2025-03-01",alphabet,127.0,3.0,0,0,0,0,1,https://www.whiskyquartier.de/,US,Illinois,Johnson County,Vienna,37.41533,-88.89784
Austria,Vienna,"2025-03-01",alphabet,127.0,3.0,0,0,0,0,1,https://www.whiskyquartier.de/,US,Georgia,Dooly County,Vienna,32.09156,-83.79545
Austria,Vienna,"2025-03-01",alphabet,127.0,3.0,0,0,0,0,1,https://www.whiskyquartier.de/,AT,"","",Vienna,48.20849,16.37208
Russia,Dyatkovo,"2025-03-01",whiskybase,228.0,7.0,0,0,0,0,1,https://www.whiskyquartier.de/products/ardnahoe-infinite-loch-0-7,,,,,,
Austria,Vienna,"2025-03-01",alphabet,0.0,1.0,1,0,0,0,1,https://www.whiskyquartier.de/products/macallan-folio-8-0-7l?srsl,US,West Virginia,Wood County,Vienna,39.32702,-81.54846
Austria,Vienna,"2025-03-01",alphabet,0.0,1.0,1,0,0,0,1,https://www.whiskyquartier.de/products/macallan-folio-8-0-7l?srsl,US,Virginia,Fairfax County,Vienna,38.90122,-77.26526
Austria,Vienna,"2025-03-01",alphabet,0.0,1.0,1,0,0,0,1,https://www.whiskyquartier.de/products/macallan-folio-8-0-7l?srsl,US,Missouri,Maries County,Vienna,38.18671,-91.94711
Austria,Vienna,"2025-03-01",alphabet,0.0,1.0,1,0,0,0,1,https://www.whiskyquartier.de/products/macallan-folio-8-0-7l?srsl,US,Illinois,Johnson County,Vienna,37.41533,-88.89784
Austria,Vienna,"2025-03-01",alphabet,0.0,1.0,1,0,0,0,1,https://www.whiskyquartier.de/products/macallan-folio-8-0-7l?srsl,US,Georgia,Dooly County,Vienna,32.09156,-83.79545
Austria,Vienna,"2025-03-01",alphabet,0.0,1.0,1,0,0,0,1,https://www.whiskyquartier.de/products/macallan-folio-8-0-7l?srsl,AT,"","",Vienna,48.20849,16.37208
Zambia,"","2025-03-01",alphabet,0.0,1.0,1,0,0,0,1,https://www.whiskyquartier.de/products/suntory-hibiki-100th-anniv,IT,Piemont,Torino,"",44.93645,7.54015
Belize,"","2025-03-01",direct,0.0,1.0,1,0,0,0,1,https://www.whiskyquartier.de/,IT,Piemont,Torino,"",44.93645,7.54015
Mexico,"","2025-03-01",alphabet,0.0,1.0,1,0,0,0,1,https://www.whiskyquartier.de/products/classic-cut-2020-0-7l,IT,Piemont,Torino,"",44.93645,7.54015
Italy,Rome,"2025-03-01",direct,64.0,3.0,0,1,1,1,1,https://www.whiskyquartier.de/checkouts/cn/Z2NwLWV1cm9wZS13ZXN0Mz,US,Wisconsin,Adams County,Rome,44.2206,-89.80843
Italy,Rome,"2025-03-01",direct,64.0,3.0,0,1,1,1,1,https://www.whiskyquartier.de/checkouts/cn/Z2NwLWV1cm9wZS13ZXN0Mz,US,New York,Oneida County,Rome,43.21285,-75.45573
Italy,Rome,"2025-03-01",direct,64.0,3.0,0,1,1,1,1,https://www.whiskyquartier.de/checkouts/cn/Z2NwLWV1cm9wZS13ZXN0Mz,US,Maine,Kennebec County,Rome,44.58506,-69.86922
Italy,Rome,"2025-03-01",direct,64.0,3.0,0,1,1,1,1,https://www.whiskyquartier.de/checkouts/cn/Z2NwLWV1cm9wZS13ZXN0Mz,US,Illinois,Peoria County,Rome,40.88309,-89.50259
Italy,Rome,"2025-03-01",direct,64.0,3.0,0,1,1,1,1,https://www.whiskyquartier.de/checkouts/cn/Z2NwLWV1cm9wZS13ZXN0Mz,US,Georgia,Floyd County,Rome,34.25704,-85.16467
Italy,Rome,"2025-03-01",direct,64.0,3.0,0,1,1,1,1,https://www.whiskyquartier.de/checkouts/cn/Z2NwLWV1cm9wZS13ZXN0Mz,IT,Lazio,Roma Capitale,Rome,41.89193,12.51133
Ukraine,Kyiv,"2025-03-01",direct,120.0,3.0,0,0,0,0,1,https://www.whiskyquartier.de/products/glenturret-12-yo-2024-0-7l,UA,"","",Kyiv,50.45466,30.5238
Türkiye,Istanbul,"2025-03-01",direct,0.0,1.0,1,0,0,0,1,https://www.whiskyquartier.de/,TR,"","",Istanbul,41.01384,28.94966
Russia,Moscow,"2025-03-01",whiskybase,0.0,1.0,1,0,0,0,1,https://www.whiskyquartier.de/products/quest-collection-quest-1l,US,Idaho,Latah County,Moscow,46.73239,-117.00017
Russia,Moscow,"2025-03-01",whiskybase,0.0,1.0,1,0,0,0,1,https://www.whiskyquartier.de/products/quest-collection-quest-1l,US,Pennsylvania,Lackawanna County,Moscow,41.33675,-75.51852
Russia,Moscow,"2025-03-01",whiskybase,0.0,1.0,1,0,0,0,1,https://www.whiskyquartier.de/products/quest-collection-quest-1l,RU,Moscow,"",Moscow,55.75222,37.61556
Italy,Rome,"2025-03-01",whiskybase,12.0,1.3333334,2,0,0,0,3,https://www.whiskyquartier.de/products/harmony-collection-green-m,US,Wisconsin,Adams County,Rome,44.2206,-89.80843
Italy,Rome,"2025-03-01",whiskybase,12.0,1.3333334,2,0,0,0,3,https://www.whiskyquartier.de/products/harmony-collection-green-m,US,New York,Oneida County,Rome,43.21285,-75.45573
Italy,Rome,"2025-03-01",whiskybase,12.0,1.3333334,2,0,0,0,3,https://www.whiskyquartier.de/products/harmony-collection-green-m,US,Maine,Kennebec County,Rome,44.58506,-69.86922
Italy,Rome,"2025-03-01",whiskybase,12.0,1.3333334,2,0,0,0,3,https://www.whiskyquartier.de/products/harmony-collection-green-m,US,Illinois,Peoria County,Rome,40.88309,-89.50259
Italy,Rome,"2025-03-01",whiskybase,12.0,1.3333334,2,0,0,0,3,https://www.whiskyquartier.de/products/harmony-collection-green-m,US,Georgia,Floyd County,Rome,34.25704,-85.16467
Italy,Rome,"2025-03-01",whiskybase,12.0,1.3333334,2,0,0,0,3,https://www.whiskyquartier.de/products/harmony-collection-green-m,IT,Lazio,Roma Capitale,Rome,41.89193,12.51133
Brazil,Itabaianinha,"2025-03-01",alphabet,0.0,1.0,1,0,0,0,1,https://www.whiskyquartier.de/collections/islay,BR,Sergipe,"",Itabaianinha,-11.27389,-37.79
Slovenia,Maribor,"2025-03-01",alphabet,0.0,1.0,1,0,0,0,1,https://www.whiskyquartier.de/products/glenfiddich-15-years-old-0,SI,"","",Maribor,46.55472,15.64667
Canada,Beauharnois,"2025-03-01",direct,0.0,1.0,1,0,0,0,1,https://www.whiskyquartier.de/,CA,Quebec,Beauharnois-Salaberry,Beauharnois,45.31341,-73.8725
Egypt,Cairo,"2025-03-01",meta,232.0,10.0,0,0,0,0,1,https://www.whiskyquartier.de/?fbclid=IwZXh0bgNhZW0BMABhZGlkAAAGG,US,New York,Greene County,Cairo,42.29897,-73.99847
Egypt,Cairo,"2025-03-01",meta,232.0,10.0,0,0,0,0,1,https://www.whiskyquartier.de/?fbclid=IwZXh0bgNhZW0BMABhZGlkAAAGG,US,Illinois,Alexander County,Cairo,37.00533,-89.17646
Egypt,Cairo,"2025-03-01",meta,232.0,10.0,0,0,0,0,1,https://www.whiskyquartier.de/?fbclid=IwZXh0bgNhZW0BMABhZGlkAAAGG,US,Georgia,Grady County,Cairo,30.87751,-84.20214
Egypt,Cairo,"2025-03-01",meta,232.0,10.0,0,0,0,0,1,https://www.whiskyquartier.de/?fbclid=IwZXh0bgNhZW0BMABhZGlkAAAGG,EG,Cairo Governorate,"",Cairo,30.06263,31.24967
The Netherlands,Amsterdam,"2025-03-01",direct,85.0,11.0,0,0,0,0,1,https://www.whiskyquartier.de/products/harmony-collection-green-m,US,New York,Montgomery County,Amsterdam,42.93869,-74.18819
The Netherlands,Amsterdam,"2025-03-01",direct,85.0,11.0,0,0,0,0,1,https://www.whiskyquartier.de/products/harmony-collection-green-m,NL,North Holland,"",Amsterdam,52.37403,4.88969
United Kingdom,London,"2025-03-01",whiskybase,0.0,1.0,1,0,0,0,1,https://www.whiskyquartier.de/products/kavalan-solist-brandy-0-7l,US,California,Tulare County,London,36.47606,-119.44318
United Kingdom,London,"2025-03-01",whiskybase,0.0,1.0,1,0,0,0,1,https://www.whiskyquartier.de/products/kavalan-solist-brandy-0-7l,US,Ohio,Madison County,London,39.88645,-83.44825
United Kingdom,London,"2025-03-01",whiskybase,0.0,1.0,1,0,0,0,1,https://www.whiskyquartier.de/products/kavalan-solist-brandy-0-7l,US,Kentucky,Laurel County,London,37.12898,-84.08326
United Kingdom,London,"2025-03-01",whiskybase,0.0,1.0,1,0,0,0,1,https://www.whiskyquartier.de/products/kavalan-solist-brandy-0-7l,US,Arkansas,Pope County,London,35.32897,-93.25296
United Kingdom,London,"2025-03-01",whiskybase,0.0,1.0,1,0,0,0,1,https://www.whiskyquartier.de/products/kavalan-solist-brandy-0-7l,GB,England,"",London,51.50853,-0.12574
United Kingdom,London,"2025-03-01",whiskybase,0.0,1.0,1,0,0,0,1,https://www.whiskyquartier.de/products/kavalan-solist-brandy-0-7l,CA,Ontario,London,London,42.98339,-81.23304
Slovakia,Nitra,"2025-03-01",whiskybase,381.0,5.0,0,0,0,0,1,https://www.whiskyquartier.de/products/harmony-collection-green-m,SK,Region of Nitra,District of Nitra,Nitra,48.30763,18.08453
Austria,Oberschützen,"2025-03-01",direct,0.0,1.0,2,0,0,0,2,https://www.whiskyquartier.de/products/glenfiddich-experimental-s,AT,Burgenland,Bezirk Oberwart,Oberschützen,47.35138,16.20732
Ukraine,Kyiv,"2025-03-01",whiskybase,102.0,4.0,0,1,0,0,1,https://www.whiskyquartier.de/products/glenturret-12-yo-2024-0-7l,UA,"","",Kyiv,50.45466,30.5238
Switzerland,Spreitenbach,"2025-03-01",whiskybase,0.0,1.0,2,0,0,0,2,https://www.whiskyquartier.de/products/suntory-hibiki-100th-anniv,CH,Aargau,Bezirk Baden,Spreitenbach,47.42285,8.36792
Russia,Yekaterinburg,"2025-03-01",direct,0.0,1.0,1,0,0,0,1,https://www.whiskyquartier.de/,RU,Sverdlovsk Oblast,Yekaterinburg Municipality,Yekaterinburg,56.8519,60.6122
Slovakia,Dunajská Streda,"2025-03-01",alphabet,0.0,1.0,1,0,0,0,1,https://www.whiskyquartier.de/products/edition-no-6-0-7l?srsltid=,SK,Region of Trnava,District of Dunajská Streda,Dunajská Streda,47.99268,17.61211
Switzerland,Zurich,"2025-03-01",direct,0.0,1.0,1,0,0,0,1,https://www.whiskyquartier.de/products/quest-collection-quest-1l,,,,,,
Maldives,Male,"2025-03-01",alphabet,0.0,1.0,2,0,0,0,2,https://www.whiskyquartier.de/products/birkenhof-fading-hill-ware,MV,"","",Male,4.17521,73.50916
Slovakia,Nitra,"2025-03-01",direct,293.0,3.0,1,0,0,0,4,https://www.whiskyquartier.de/products/managers-dram-release-no-2,SK,Region of Nitra,District of Nitra,Nitra,48.30763,18.08453
Italy,Venice,"2025-03-01",whiskybase,0.0,1.0,1,0,0,0,1,https://www.whiskyquartier.de/products/harmony-collection-green-m,US,California,Los Angeles County,Venice,33.99084,-118.46008
Italy,Venice,"2025-03-01",whiskybase,0.0,1.0,1,0,0,0,1,https://www.whiskyquartier.de/products/harmony-collection-green-m,US,Illinois,Madison County,Venice,38.67227,-90.16983
Italy,Venice,"2025-03-01",whiskybase,0.0,1.0,1,0,0,0,1,https://www.whiskyquartier.de/products/harmony-collection-green-m,US,Florida,Sarasota County,Venice,27.09978,-82.45426
Italy,Venice,"2025-03-01",whiskybase,0.0,1.0,1,0,0,0,1,https://www.whiskyquartier.de/products/harmony-collection-green-m,IT,Veneto,Venezia,Venice,45.43713,12.33265
Ukraine,Kyiv,"2025-03-01",direct,0.0,1.0,1,0,0,0,1,https://www.whiskyquartier.de/,UA,"","",Kyiv,50.45466,30.5238
Bulgaria,Sofia,"2025-03-01",direct,0.0,1.0,1,0,0,0,1,https://www.whiskyquartier.de/,BG,"",Sofia-City,Sofia,42.69751,23.32415
Switzerland,"","2025-03-01",alphabet,0.0,1.0,1,0,0,0,1,https://www.whiskyquartier.de/products/birkenhof-fading-hill-ware,IT,Piemont,Torino,"",44.93645,7.54015
American Samoa,Pago Pago,"2025-03-01",alphabet,0.0,1.0,2,0,0,0,2,https://www.whiskyquartier.de/pages/whiskyquartier-die-vielfalt-d,AS,American Samoa,Eastern District,Pago Pago,-14.27806,-170.7025
Croatia,Zagreb,"2025-03-01",meta,0.0,1.0,1,0,0,0,1,https://www.whiskyquartier.de/?fbclid=IwZXh0bgNhZW0BMABhZGlkAAAGG,HR,"","",Zagreb,45.81444,15.97798
Estonia,Tallinn,"2025-03-01",whiskybase,0.0,1.0,1,0,0,0,1,https://www.whiskyquartier.de/products/roseisle-12-years-old-the-,EE,"",Harju maakond,Tallinn,59.43696,24.75353
Ukraine,Kyiv,"2025-03-01",direct,0.0,1.0,2,0,0,0,2,https://www.whiskyquartier.de/products/triple-wood-0-7l?_pos=5&_s,UA,"","",Kyiv,50.45466,30.5238
Switzerland,Zurich,"2025-04-01",alphabet,55.0,3.0,0,0,0,0,1,https://www.whiskyquartier.de/products/macallan-classic-cut-2023?,,,,,,
United Arab Emirates,Sharjah,"2025-04-01",alphabet,0.0,1.0,2,0,0,0,2,https://www.whiskyquartier.de/collections/neu-im-shop,AE,Sharjah Emirate,"",Sharjah,25.33737,55.41206
Slovakia,Nitra,"2025-04-01",direct,22.6,1.6,4,0,0,0,5,https://www.whiskyquartier.de/products/managers-dram-release-no-2,SK,Region of Nitra,District of Nitra,Nitra,48.30763,18.08453
Russia,"","2025-04-01",whiskybase,269.0,3.0,0,0,0,0,1,https://www.whiskyquartier.de/products/dingle-single-cask-the-vil,IT,Piemont,Torino,"",44.93645,7.54015
Singapore,"","2025-04-01",direct,0.0,1.0,4,0,0,0,4,https://www.whiskyquartier.de/,IT,Piemont,Torino,"",44.93645,7.54015
Bulgaria,Sofia,"2025-04-01",whiskybase,53.0,3.0,0,1,1,0,1,https://www.whiskyquartier.de/products/macallan-classic-cut-2023,BG,"",Sofia-City,Sofia,42.69751,23.32415
Mexico,Ecatepec,"2025-04-01",direct,0.0,1.0,1,0,0,0,1,https://www.whiskyquartier.de/,,,,,,
Bangladesh,"","2025-04-01",alphabet,0.0,1.0,1,0,0,0,1,https://www.whiskyquartier.de/,IT,Piemont,Torino,"",44.93645,7.54015
Switzerland,Zurich,"2025-04-01",alphabet,42.0,2.0,0,0,0,0,1,https://www.whiskyquartier.de/products/classic-cut-2020-0-7l?srsl,,,,,,
Belarus,Minsk,"2025-04-01",whiskybase,1445.5,12.5,0,2,2,1,2,https://www.whiskyquartier.de/products/birkenhof-fading-hill-ware,BY,"","",Minsk,53.9,27.56667
Switzerland,Zurich,"2025-04-01",whiskybase,0.0,1.0,1,0,0,0,1,https://www.whiskyquartier.de/products/ardnahoe-5-yo-the-inaugura,,,,,,
Hungary,Budapest,"2025-04-01",alphabet,17.0,2.0,0,0,0,0,1,https://www.whiskyquartier.de/?gad_source=1,HU,"","",Budapest,47.49835,19.04045
Estonia,"","2025-04-01",whiskybase,0.0,1.0,1,0,0,0,1,https://www.whiskyquartier.de/products/roseisle-12-years-old-the-,IT,Piemont,Torino,"",44.93645,7.54015
France,"","2025-04-01",alphabet,0.0,1.0,1,0,0,0,1,https://www.whiskyquartier.de/products/laddie-ten-0-7l,IT,Piemont,Torino,"",44.93645,7.54015
Tunisia,Nabeul,"2025-04-01",direct,0.0,1.0,1,0,0,0,1,https://www.whiskyquartier.de/,TN,Nabeul,الأسواق,Nabeul,36.45606,10.73763
Mexico,Ecatepec,"2025-04-01",whiskybase,171.0,9.0,0,0,0,0,1,https://www.whiskyquartier.de/products/glenturret-12-yo-2024-0-7l,,,,,,
Bosnia and Herzegovina,Čitluk,"2025-04-01",whiskybase,0.0,1.0,1,0,0,0,1,https://www.whiskyquartier.de/products/harmony-collection-green-m,BA,Federation of Bosnia and Herzegovina,"",Čitluk,43.22861,17.70083
Switzerland,Zurich,"2025-04-01",alphabet,0.0,1.0,1,0,0,0,1,https://www.whiskyquartier.de/products/classic-cut-2020-0-7l?srsl,,,,,,
Azerbaijan,"","2025-04-01",alphabet,0.0,1.0,1,0,0,0,1,https://www.whiskyquartier.de/products/triple-wood-0-7l,IT,Piemont,Torino,"",44.93645,7.54015
The Netherlands,"","2025-04-01",whiskybase,0.0,1.0,1,0,0,0,1,https://www.whiskyquartier.de/products/glenturret-12-yo-2024-0-7l,IT,Piemont,Torino,"",44.93645,7.54015
Italy,Rome,"2025-04-01",whiskybase,0.0,1.0,1,0,0,0,1,https://www.whiskyquartier.de/products/harmony-collection-green-m,US,Wisconsin,Adams County,Rome,44.2206,-89.80843
Italy,Rome,"2025-04-01",whiskybase,0.0,1.0,1,0,0,0,1,https://www.whiskyquartier.de/products/harmony-collection-green-m,US,New York,Oneida County,Rome,43.21285,-75.45573
Italy,Rome,"2025-04-01",whiskybase,0.0,1.0,1,0,0,0,1,https://www.whiskyquartier.de/products/harmony-collection-green-m,US,Maine,Kennebec County,Rome,44.58506,-69.86922
Italy,Rome,"2025-04-01",whiskybase,0.0,1.0,1,0,0,0,1,https://www.whiskyquartier.de/products/harmony-collection-green-m,US,Illinois,Peoria County,Rome,40.88309,-89.50259
Italy,Rome,"2025-04-01",whiskybase,0.0,1.0,1,0,0,0,1,https://www.whiskyquartier.de/products/harmony-collection-green-m,US,Georgia,Floyd County,Rome,34.25704,-85.16467
Italy,Rome,"2025-04-01",whiskybase,0.0,1.0,1,0,0,0,1,https://www.whiskyquartier.de/products/harmony-collection-green-m,IT,Lazio,Roma Capitale,Rome,41.89193,12.51133
Tunisia,Aryanah,"2025-04-01",direct,0.0,1.0,1,0,0,0,1,https://www.whiskyquartier.de/,,,,,,
Switzerland,Spreitenbach,"2025-04-01",whiskybase,0.0,1.0,1,0,0,0,1,https://www.whiskyquartier.de/products/suntory-hibiki-100th-anniv,CH,Aargau,Bezirk Baden,Spreitenbach,47.42285,8.36792
The Netherlands,Purmerend,"2025-04-01",direct,0.0,1.0,1,0,0,0,1,https://www.whiskyquartier.de/products/a-night-on-earth-scotland-,NL,North Holland,"",Purmerend,52.505,4.95972
Hong Kong,"","2025-04-01",linkedin,37.0,2.0,0,0,0,0,1,https://www.whiskyquartier.de/,IT,Piemont,Torino,"",44.93645,7.54015
Switzerland,Bülach,"2025-04-01",alphabet,131.0,6.0,0,1,0,0,1,https://www.whiskyquartier.de/products/edition-no-6-0-7l,CH,Zurich,Bezirk Bülach,Bülach,47.52197,8.54049
Canada,Montreal,"2025-04-01",direct,0.0,1.0,2,0,0,0,2,https://www.whiskyquartier.de/,,,,,,
Denmark,Copenhagen,"2025-04-01",meta,125.0,3.0,0,0,0,0,1,https://www.whiskyquartier.de/?fbclid=IwZXh0bgNhZW0BMABhZGlkAAAGG,DK,Capital Region of Denmark,"",Copenhagen,55.67594,12.56553
Estonia,Tallinn,"2025-04-01",whiskybase,0.0,1.0,1,0,0,0,1,https://www.whiskyquartier.de/products/roseisle-12-years-old-the-,EE,"",Harju maakond,Tallinn,59.43696,24.75353
Russia,Moscow,"2025-04-01",whiskybase,5.5,1.5,1,1,1,0,2,https://www.whiskyquartier.de/products/birkenhof-fading-hill-ware,US,Idaho,Latah County,Moscow,46.73239,-117.00017
Russia,Moscow,"2025-04-01",whiskybase,5.5,1.5,1,1,1,0,2,https://www.whiskyquartier.de/products/birkenhof-fading-hill-ware,US,Pennsylvania,Lackawanna County,Moscow,41.33675,-75.51852
Russia,Moscow,"2025-04-01",whiskybase,5.5,1.5,1,1,1,0,2,https://www.whiskyquartier.de/products/birkenhof-fading-hill-ware,RU,Moscow,"",Moscow,55.75222,37.61556
Switzerland,Zurich,"2025-05-01",whiskybase,0.0,1.0,1,0,0,0,1,https://www.whiskyquartier.de/products/kavalan-solist-brandy-0-7l,,,,,,
The Netherlands,Amsterdam,"2025-05-01",whiskybase,0.0,1.0,1,0,0,0,1,https://www.whiskyquartier.de/products/suntory-hibiki-100th-anniv,US,New York,Montgomery County,Amsterdam,42.93869,-74.18819
The Netherlands,Amsterdam,"2025-05-01",whiskybase,0.0,1.0,1,0,0,0,1,https://www.whiskyquartier.de/products/suntory-hibiki-100th-anniv,NL,North Holland,"",Amsterdam,52.37403,4.88969
Ukraine,Kyiv,"2025-05-01",whiskybase,0.0,1.0,1,0,0,0,1,https://www.whiskyquartier.de/products/roseisle-12-years-old-the-,UA,"","",Kyiv,50.45466,30.5238
Ukraine,Dnipro,"2025-05-01",whiskybase,0.0,1.0,1,0,0,0,1,https://www.whiskyquartier.de/products/18-yo-colour-collection-0-,UA,Dnipropetrovsk Oblast,"",Dnipro,48.46664,35.04066
Ukraine,"","2025-05-01",alphabet,0.0,1.0,1,0,0,0,1,https://www.whiskyquartier.de/collections/neu-im-shop,IT,Piemont,Torino,"",44.93645,7.54015
Poland,Poznan,"2025-05-01",whiskybase,0.0,1.0,1,0,0,0,1,https://www.whiskyquartier.de/products/ardnahoe-5-yo-the-inaugura,,,,,,
The Netherlands,Naaldwijk,"2025-05-01",whiskybase,0.0,1.0,1,0,0,0,1,https://www.whiskyquartier.de/products/roseisle-12-years-old-the-,NL,South Holland,"",Naaldwijk,51.99417,4.20972
Thailand,Bangkok,"2025-05-01",alphabet,36.0,5.0,0,0,0,0,1,https://www.whiskyquartier.de/?srsltid=AfmBOooNgulMkwI_lasVw_x905,TH,Bangkok,"",Bangkok,13.75398,100.50144
Nepal,"","2025-05-01",alphabet,0.0,1.0,1,0,0,0,1,https://www.whiskyquartier.de/products/classic-cut-2020-0-7l,IT,Piemont,Torino,"",44.93645,7.54015
United Kingdom,Manchester,"2025-05-01",whiskybase,0.0,1.0,1,0,0,0,1,https://www.whiskyquartier.de/products/harmony-collection-intense,US,Washington,Kitsap County,Manchester,47.55566,-122.54507
United Kingdom,Manchester,"2025-05-01",whiskybase,0.0,1.0,1,0,0,0,1,https://www.whiskyquartier.de/products/harmony-collection-intense,US,Wisconsin,Green Lake County,Manchester,43.69054,-89.04845
United Kingdom,Manchester,"2025-05-01",whiskybase,0.0,1.0,1,0,0,0,1,https://www.whiskyquartier.de/products/harmony-collection-intense,US,Pennsylvania,York County,Manchester,40.06315,-76.7183
United Kingdom,Manchester,"2025-05-01",whiskybase,0.0,1.0,1,0,0,0,1,https://www.whiskyquartier.de/products/harmony-collection-intense,US,Ohio,Summit County,Manchester,40.937,-81.56929
United Kingdom,Manchester,"2025-05-01",whiskybase,0.0,1.0,1,0,0,0,1,https://www.whiskyquartier.de/products/harmony-collection-intense,US,New York,Ontario County,Manchester,42.96979,-77.23026
United Kingdom,Manchester,"2025-05-01",whiskybase,0.0,1.0,1,0,0,0,1,https://www.whiskyquartier.de/products/harmony-collection-intense,US,New Hampshire,Hillsborough County,Manchester,42.99564,-71.45479
United Kingdom,Manchester,"2025-05-01",whiskybase,0.0,1.0,1,0,0,0,1,https://www.whiskyquartier.de/products/harmony-collection-intense,US,Michigan,Washtenaw County,Manchester,42.15032,-84.03772
United Kingdom,Manchester,"2025-05-01",whiskybase,0.0,1.0,1,0,0,0,1,https://www.whiskyquartier.de/products/harmony-collection-intense,US,Maine,Kennebec County,Manchester,44.32451,-69.86033
United Kingdom,Manchester,"2025-05-01",whiskybase,0.0,1.0,1,0,0,0,1,https://www.whiskyquartier.de/products/harmony-collection-intense,US,Iowa,Delaware County,Manchester,42.48415,-91.45543
United Kingdom,Manchester,"2025-05-01",whiskybase,0.0,1.0,1,0,0,0,1,https://www.whiskyquartier.de/products/harmony-collection-intense,US,Connecticut,Hartford County,Manchester,41.77593,-72.52148
United Kingdom,Manchester,"2025-05-01",whiskybase,0.0,1.0,1,0,0,0,1,https://www.whiskyquartier.de/products/harmony-collection-intense,US,Tennessee,Coffee County,Manchester,35.48174,-86.0886
United Kingdom,Manchester,"2025-05-01",whiskybase,0.0,1.0,1,0,0,0,1,https://www.whiskyquartier.de/products/harmony-collection-intense,US,Ohio,Adams County,Manchester,38.68813,-83.60936
United Kingdom,Manchester,"2025-05-01",whiskybase,0.0,1.0,1,0,0,0,1,https://www.whiskyquartier.de/products/harmony-collection-intense,US,Missouri,Saint Louis County,Manchester,38.597,-90.50929
United Kingdom,Manchester,"2025-05-01",whiskybase,0.0,1.0,1,0,0,0,1,https://www.whiskyquartier.de/products/harmony-collection-intense,US,Maryland,Carroll County,Manchester,39.66121,-76.88498
United Kingdom,Manchester,"2025-05-01",whiskybase,0.0,1.0,1,0,0,0,1,https://www.whiskyquartier.de/products/harmony-collection-intense,US,Kentucky,Clay County,Manchester,37.1537,-83.76186
United Kingdom,Manchester,"2025-05-01",whiskybase,0.0,1.0,1,0,0,0,1,https://www.whiskyquartier.de/products/harmony-collection-intense,US,Georgia,Meriwether County,Manchester,32.85985,-84.61993
United Kingdom,Manchester,"2025-05-01",whiskybase,0.0,1.0,1,0,0,0,1,https://www.whiskyquartier.de/products/harmony-collection-intense,GB,England,Greater Manchester,Manchester,53.48095,-2.23743
Austria,Vienna,"2025-05-01",alphabet,39.0,3.0,0,0,0,0,1,https://www.whiskyquartier.de/products/macallan-folio-8-0-7l?srsl,US,West Virginia,Wood County,Vienna,39.32702,-81.54846
Austria,Vienna,"2025-05-01",alphabet,39.0,3.0,0,0,0,0,1,https://www.whiskyquartier.de/products/macallan-folio-8-0-7l?srsl,US,Virginia,Fairfax County,Vienna,38.90122,-77.26526
Austria,Vienna,"2025-05-01",alphabet,39.0,3.0,0,0,0,0,1,https://www.whiskyquartier.de/products/macallan-folio-8-0-7l?srsl,US,Missouri,Maries County,Vienna,38.18671,-91.94711
Austria,Vienna,"2025-05-01",alphabet,39.0,3.0,0,0,0,0,1,https://www.whiskyquartier.de/products/macallan-folio-8-0-7l?srsl,US,Illinois,Johnson County,Vienna,37.41533,-88.89784
Austria,Vienna,"2025-05-01",alphabet,39.0,3.0,0,0,0,0,1,https://www.whiskyquartier.de/products/macallan-folio-8-0-7l?srsl,US,Georgia,Dooly County,Vienna,32.09156,-83.79545
Austria,Vienna,"2025-05-01",alphabet,39.0,3.0,0,0,0,0,1,https://www.whiskyquartier.de/products/macallan-folio-8-0-7l?srsl,AT,"","",Vienna,48.20849,16.37208
Bulgaria,Rousse,"2025-05-01",whiskybase,0.0,1.0,1,0,0,0,1,https://www.whiskyquartier.de/products/harmony-collection-green-m,,,,,,
Jamaica,"","2025-05-01",alphabet,0.0,1.0,1,0,0,0,1,https://www.whiskyquartier.de/products/suntory-hibiki-100th-anniv,IT,Piemont,Torino,"",44.93645,7.54015
Latvia,Riga,"2025-05-01",whiskybase,19.0,2.0,0,0,0,0,1,https://www.whiskyquartier.de/products/ardnahoe-5-yo-the-inaugura,LV,Vidzeme,"",Riga,56.946,24.10589
United Kingdom,Loughton,"2025-05-01",whiskybase,0.0,1.0,1,0,0,0,1,https://www.whiskyquartier.de/products/ardnahoe-5-yo-the-inaugura,GB,England,Milton Keynes,Loughton,52.03037,-0.78642
Latvia,Riga,"2025-05-01",whiskybase,300.0,9.0,0,0,0,0,2,https://www.whiskyquartier.de/products/glenmorangie-16-yo-the-nec,LV,Vidzeme,"",Riga,56.946,24.10589
Slovakia,Nitra,"2025-05-01",whiskybase,0.0,1.0,1,0,0,0,1,https://www.whiskyquartier.de/products/harmony-collection-green-m,SK,Region of Nitra,District of Nitra,Nitra,48.30763,18.08453
The Netherlands,Amsterdam,"2025-05-01",whiskybase,36.0,2.0,0,0,0,0,1,https://www.whiskyquartier.de/products/ardnahoe-5-yo-the-inaugura,US,New York,Montgomery County,Amsterdam,42.93869,-74.18819
The Netherlands,Amsterdam,"2025-05-01",whiskybase,36.0,2.0,0,0,0,0,1,https://www.whiskyquartier.de/products/ardnahoe-5-yo-the-inaugura,NL,North Holland,"",Amsterdam,52.37403,4.88969
Dominican Republic,Santo Domingo,"2025-05-01",alphabet,0.0,1.0,1,0,0,0,1,https://www.whiskyquartier.de/collections/neu-im-shop,VE,Merida State,Municipio Cardenal Quintero,Santo Domingo,8.86052,-70.6948
Dominican Republic,Santo Domingo,"2025-05-01",alphabet,0.0,1.0,1,0,0,0,1,https://www.whiskyquartier.de/collections/neu-im-shop,PR,Puerto Rico,Peñuelas,Santo Domingo,18.0633,-66.7524
Dominican Republic,Santo Domingo,"2025-05-01",alphabet,0.0,1.0,1,0,0,0,1,https://www.whiskyquartier.de/collections/neu-im-shop,PH,Albay,"",Santo Domingo,13.23528,123.77722
Dominican Republic,Santo Domingo,"2025-05-01",alphabet,0.0,1.0,1,0,0,0,1,https://www.whiskyquartier.de/collections/neu-im-shop,PH,Camarines Sur,"",Santo Domingo,13.42,123.4486
Dominican Republic,Santo Domingo,"2025-05-01",alphabet,0.0,1.0,1,0,0,0,1,https://www.whiskyquartier.de/collections/neu-im-shop,PH,Camarines Sur,"",Santo Domingo,13.7,123.16667
Dominican Republic,Santo Domingo,"2025-05-01",alphabet,0.0,1.0,1,0,0,0,1,https://www.whiskyquartier.de/collections/neu-im-shop,PH,Camarines Norte,"",Santo Domingo,14.1338,122.8883
Dominican Republic,Santo Domingo,"2025-05-01",alphabet,0.0,1.0,1,0,0,0,1,https://www.whiskyquartier.de/collections/neu-im-shop,PH,Pampanga,"",Santo Domingo,14.96532,120.55672
Dominican Republic,Santo Domingo,"2025-05-01",alphabet,0.0,1.0,1,0,0,0,1,https://www.whiskyquartier.de/collections/neu-im-shop,PH,Pampanga,"",Santo Domingo,14.9912,120.74341
Dominican Republic,Santo Domingo,"2025-05-01",alphabet,0.0,1.0,1,0,0,0,1,https://www.whiskyquartier.de/collections/neu-im-shop,PH,Pampanga,"",Santo Domingo,15.07289,120.75703
Dominican Republic,Santo Domingo,"2025-05-01",alphabet,0.0,1.0,1,0,0,0,1,https://www.whiskyquartier.de/collections/neu-im-shop,PH,Nueva Ecija,"",Santo Domingo,15.5873,120.877
Dominican Republic,Santo Domingo,"2025-05-01",alphabet,0.0,1.0,1,0,0,0,1,https://www.whiskyquartier.de/collections/neu-im-shop,PH,Isabela,"",Santo Domingo,17.15999,121.75183
Dominican Republic,Santo Domingo,"2025-05-01",alphabet,0.0,1.0,1,0,0,0,1,https://www.whiskyquartier.de/collections/neu-im-shop,PH,Ilocos Sur,"",Santo Domingo,17.63528,120.41083
Dominican Republic,Santo Domingo,"2025-05-01",alphabet,0.0,1.0,1,0,0,0,1,https://www.whiskyquartier.de/collections/neu-im-shop,PE,Piura,Kathmandu,Santo Domingo,-5.02927,-79.87604
Dominican Republic,Santo Domingo,"2025-05-01",alphabet,0.0,1.0,1,0,0,0,1,https://www.whiskyquartier.de/collections/neu-im-shop,PA,Los Santos,Distrito Las Tablas,Santo Domingo,7.74856,-80.2414
Dominican Republic,Santo Domingo,"2025-05-01",alphabet,0.0,1.0,1,0,0,0,1,https://www.whiskyquartier.de/collections/neu-im-shop,PA,Chiriquí,Distrito Bugaba,Santo Domingo,8.5104,-82.71365
Dominican Republic,Santo Domingo,"2025-05-01",alphabet,0.0,1.0,1,0,0,0,1,https://www.whiskyquartier.de/collections/neu-im-shop,NI,Chontales,"",Santo Domingo,12.26438,-85.08235
Dominican Republic,Santo Domingo,"2025-05-01",alphabet,0.0,1.0,1,0,0,0,1,https://www.whiskyquartier.de/collections/neu-im-shop,MX,San Luis Potosi,Villa Juárez,Santo Domingo,22.28325,-100.16965
Dominican Republic,Santo Domingo,"2025-05-01",alphabet,0.0,1.0,1,0,0,0,1,https://www.whiskyquartier.de/collections/neu-im-shop,MX,San Luis Potosi,Santo Domingo,Santo Domingo,23.3267,-101.7361
Dominican Republic,Santo Domingo,"2025-05-01",alphabet,0.0,1.0,1,0,0,0,1,https://www.whiskyquartier.de/collections/neu-im-shop,MX,Yucatán,Maxcanú,Santo Domingo,20.6,-90.11667
Dominican Republic,Santo Domingo,"2025-05-01",alphabet,0.0,1.0,1,0,0,0,1,https://www.whiskyquartier.de/collections/neu-im-shop,MX,Chiapas,Ocosingo,Santo Domingo,17.02819,-91.41682
Dominican Republic,Santo Domingo,"2025-05-01",alphabet,0.0,1.0,1,0,0,0,1,https://www.whiskyquartier.de/collections/neu-im-shop,MX,Chiapas,Unión Juárez,Santo Domingo,15.03067,-92.10361
Dominican Republic,Santo Domingo,"2025-05-01",alphabet,0.0,1.0,1,0,0,0,1,https://www.whiskyquartier.de/collections/neu-im-shop,DO,Distrito Nacional,"",Santo Domingo,18.47186,-69.89232
Dominican Republic,Santo Domingo,"2025-05-01",alphabet,0.0,1.0,1,0,0,0,1,https://www.whiskyquartier.de/collections/neu-im-shop,CU,Villa Clara,"",Santo Domingo,22.58677,-80.24261
Dominican Republic,Santo Domingo,"2025-05-01",alphabet,0.0,1.0,1,0,0,0,1,https://www.whiskyquartier.de/collections/neu-im-shop,CR,"",Cantón Santa Bárbara,Santo Domingo,10.06389,-84.15499
Dominican Republic,Santo Domingo,"2025-05-01",alphabet,0.0,1.0,1,0,0,0,1,https://www.whiskyquartier.de/collections/neu-im-shop,CO,Antioquia,"",Santo Domingo,6.47282,-75.16547
Canada,Montreal,"2025-05-01",direct,0.0,1.0,3,0,0,0,3,https://www.whiskyquartier.de/,,,,,,
Ukraine,Dnipro,"2025-05-01",whiskybase,0.0,1.0,1,0,0,0,1,https://www.whiskyquartier.de/products/12-yo-colour-collection-0-,UA,Dnipropetrovsk Oblast,"",Dnipro,48.46664,35.04066
Switzerland,Zurich,"2025-05-01",direct,0.0,1.0,1,0,0,0,1,https://www.whiskyquartier.de/collections/asien,,,,,,
The Netherlands,Wervershoof,"2025-06-01",whiskybase,33.0,4.0,0,1,0,1,1,https://www.whiskyquartier.de/products/harmony-collection-green-m,,,,,,
Canada,Montreal,"2025-06-01",direct,0.0,1.0,1,0,0,0,1,https://www.whiskyquartier.de/collections/islay,,,,,,
United Kingdom,London,"2025-06-01",alphabet,15.0,2.0,0,0,0,0,1,https://www.whiskyquartier.de/?srsltid=AfmBOopS5WQh193KtFIRczAnCK,US,California,Tulare County,London,36.47606,-119.44318
United Kingdom,London,"2025-06-01",alphabet,15.0,2.0,0,0,0,0,1,https://www.whiskyquartier.de/?srsltid=AfmBOopS5WQh193KtFIRczAnCK,US,Ohio,Madison County,London,39.88645,-83.44825
United Kingdom,London,"2025-06-01",alphabet,15.0,2.0,0,0,0,0,1,https://www.whiskyquartier.de/?srsltid=AfmBOopS5WQh193KtFIRczAnCK,US,Kentucky,Laurel County,London,37.12898,-84.08326
United Kingdom,London,"2025-06-01",alphabet,15.0,2.0,0,0,0,0,1,https://www.whiskyquartier.de/?srsltid=AfmBOopS5WQh193KtFIRczAnCK,US,Arkansas,Pope County,London,35.32897,-93.25296
United Kingdom,London,"2025-06-01",alphabet,15.0,2.0,0,0,0,0,1,https://www.whiskyquartier.de/?srsltid=AfmBOopS5WQh193KtFIRczAnCK,GB,England,"",London,51.50853,-0.12574
United Kingdom,London,"2025-06-01",alphabet,15.0,2.0,0,0,0,0,1,https://www.whiskyquartier.de/?srsltid=AfmBOopS5WQh193KtFIRczAnCK,CA,Ontario,London,London,42.98339,-81.23304
United Kingdom,Manchester,"2025-06-01",alphabet,0.0,1.0,1,0,0,0,1,https://www.whiskyquartier.de/products/macallan-folio-8-0-7l?srsl,US,Washington,Kitsap County,Manchester,47.55566,-122.54507
United Kingdom,Manchester,"2025-06-01",alphabet,0.0,1.0,1,0,0,0,1,https://www.whiskyquartier.de/products/macallan-folio-8-0-7l?srsl,US,Wisconsin,Green Lake County,Manchester,43.69054,-89.04845
United Kingdom,Manchester,"2025-06-01",alphabet,0.0,1.0,1,0,0,0,1,https://www.whiskyquartier.de/products/macallan-folio-8-0-7l?srsl,US,Pennsylvania,York County,Manchester,40.06315,-76.7183
United Kingdom,Manchester,"2025-06-01",alphabet,0.0,1.0,1,0,0,0,1,https://www.whiskyquartier.de/products/macallan-folio-8-0-7l?srsl,US,Ohio,Summit County,Manchester,40.937,-81.56929
United Kingdom,Manchester,"2025-06-01",alphabet,0.0,1.0,1,0,0,0,1,https://www.whiskyquartier.de/products/macallan-folio-8-0-7l?srsl,US,New York,Ontario County,Manchester,42.96979,-77.23026
United Kingdom,Manchester,"2025-06-01",alphabet,0.0,1.0,1,0,0,0,1,https://www.whiskyquartier.de/products/macallan-folio-8-0-7l?srsl,US,New Hampshire,Hillsborough County,Manchester,42.99564,-71.45479
United Kingdom,Manchester,"2025-06-01",alphabet,0.0,1.0,1,0,0,0,1,https://www.whiskyquartier.de/products/macallan-folio-8-0-7l?srsl,US,Michigan,Washtenaw County,Manchester,42.15032,-84.03772
United Kingdom,Manchester,"2025-06-01",alphabet,0.0,1.0,1,0,0,0,1,https://www.whiskyquartier.de/products/macallan-folio-8-0-7l?srsl,US,Maine,Kennebec County,Manchester,44.32451,-69.86033
United Kingdom,Manchester,"2025-06-01",alphabet,0.0,1.0,1,0,0,0,1,https://www.whiskyquartier.de/products/macallan-folio-8-0-7l?srsl,US,Iowa,Delaware County,Manchester,42.48415,-91.45543
United Kingdom,Manchester,"2025-06-01",alphabet,0.0,1.0,1,0,0,0,1,https://www.whiskyquartier.de/products/macallan-folio-8-0-7l?srsl,US,Connecticut,Hartford County,Manchester,41.77593,-72.52148
United Kingdom,Manchester,"2025-06-01",alphabet,0.0,1.0,1,0,0,0,1,https://www.whiskyquartier.de/products/macallan-folio-8-0-7l?srsl,US,Tennessee,Coffee County,Manchester,35.48174,-86.0886
United Kingdom,Manchester,"2025-06-01",alphabet,0.0,1.0,1,0,0,0,1,https://www.whiskyquartier.de/products/macallan-folio-8-0-7l?srsl,US,Ohio,Adams County,Manchester,38.68813,-83.60936
United Kingdom,Manchester,"2025-06-01",alphabet,0.0,1.0,1,0,0,0,1,https://www.whiskyquartier.de/products/macallan-folio-8-0-7l?srsl,US,Missouri,Saint Louis County,Manchester,38.597,-90.50929
United Kingdom,Manchester,"2025-06-01",alphabet,0.0,1.0,1,0,0,0,1,https://www.whiskyquartier.de/products/macallan-folio-8-0-7l?srsl,US,Maryland,Carroll County,Manchester,39.66121,-76.88498
United Kingdom,Manchester,"2025-06-01",alphabet,0.0,1.0,1,0,0,0,1,https://www.whiskyquartier.de/products/macallan-folio-8-0-7l?srsl,US,Kentucky,Clay County,Manchester,37.1537,-83.76186
United Kingdom,Manchester,"2025-06-01",alphabet,0.0,1.0,1,0,0,0,1,https://www.whiskyquartier.de/products/macallan-folio-8-0-7l?srsl,US,Georgia,Meriwether County,Manchester,32.85985,-84.61993
United Kingdom,Manchester,"2025-06-01",alphabet,0.0,1.0,1,0,0,0,1,https://www.whiskyquartier.de/products/macallan-folio-8-0-7l?srsl,GB,England,Greater Manchester,Manchester,53.48095,-2.23743
The Netherlands,Rotterdam,"2025-06-01",direct,0.0,1.0,1,0,0,0,1,https://www.whiskyquartier.de/,US,New York,Schenectady,Rotterdam,42.78702,-73.97096
The Netherlands,Rotterdam,"2025-06-01",direct,0.0,1.0,1,0,0,0,1,https://www.whiskyquartier.de/,NL,South Holland,"",Rotterdam,51.9225,4.47917
Ukraine,Kyiv,"2025-06-01",whiskybase,63.0,3.0,0,0,0,0,1,https://www.whiskyquartier.de/products/caol-ila-12-years-0-7l,UA,"","",Kyiv,50.45466,30.5238
United Kingdom,Cambridge,"2025-06-01",whiskybase,103.0,7.0,0,0,0,0,1,https://www.whiskyquartier.de/products/roseisle-12-years-old-the-,US,Nebraska,Furnas County,Cambridge,40.28195,-100.16569
United Kingdom,Cambridge,"2025-06-01",whiskybase,103.0,7.0,0,0,0,0,1,https://www.whiskyquartier.de/products/roseisle-12-years-old-the-,US,Wisconsin,Dane County,Cambridge,43.00361,-89.0165
United Kingdom,Cambridge,"2025-06-01",whiskybase,103.0,7.0,0,0,0,0,1,https://www.whiskyquartier.de/products/roseisle-12-years-old-the-,US,Ohio,Guernsey County,Cambridge,40.03118,-81.58846
United Kingdom,Cambridge,"2025-06-01",whiskybase,103.0,7.0,0,0,0,0,1,https://www.whiskyquartier.de/products/roseisle-12-years-old-the-,US,New York,Washington County,Cambridge,43.02813,-73.38122
United Kingdom,Cambridge,"2025-06-01",whiskybase,103.0,7.0,0,0,0,0,1,https://www.whiskyquartier.de/products/roseisle-12-years-old-the-,US,Minnesota,Isanti County,Cambridge,45.57274,-93.22439
United Kingdom,Cambridge,"2025-06-01",whiskybase,103.0,7.0,0,0,0,0,1,https://www.whiskyquartier.de/products/roseisle-12-years-old-the-,US,Massachusetts,Middlesex County,Cambridge,42.3751,-71.10561
United Kingdom,Cambridge,"2025-06-01",whiskybase,103.0,7.0,0,0,0,0,1,https://www.whiskyquartier.de/products/roseisle-12-years-old-the-,US,Illinois,Henry County,Cambridge,41.30365,-90.1929
United Kingdom,Cambridge,"2025-06-01",whiskybase,103.0,7.0,0,0,0,0,1,https://www.whiskyquartier.de/products/roseisle-12-years-old-the-,US,Maryland,Dorchester County,Cambridge,38.56317,-76.07883
United Kingdom,Cambridge,"2025-06-01",whiskybase,103.0,7.0,0,0,0,0,1,https://www.whiskyquartier.de/products/roseisle-12-years-old-the-,NZ,Waikato,Waipa District,Cambridge,-37.87822,175.4402
United Kingdom,Cambridge,"2025-06-01",whiskybase,103.0,7.0,0,0,0,0,1,https://www.whiskyquartier.de/products/roseisle-12-years-old-the-,JM,"",Saint James,Cambridge,18.31326,-77.90252
United Kingdom,Cambridge,"2025-06-01",whiskybase,103.0,7.0,0,0,0,0,1,https://www.whiskyquartier.de/products/roseisle-12-years-old-the-,GB,England,Cambridgeshire,Cambridge,52.2,0.11667
United Kingdom,Cambridge,"2025-06-01",whiskybase,103.0,7.0,0,0,0,0,1,https://www.whiskyquartier.de/products/roseisle-12-years-old-the-,CA,Ontario,Region of Waterloo,Cambridge,43.3601,-80.31269
United Kingdom,Cambridge,"2025-06-01",whiskybase,103.0,7.0,0,0,0,0,1,https://www.whiskyquartier.de/products/roseisle-12-years-old-the-,AU,Tasmania,"",Cambridge,-42.83333,147.45
The Netherlands,Helmond,"2025-06-01",whiskybase,0.0,1.0,1,0,0,0,1,https://www.whiskyquartier.de/products/roseisle-12-years-old-the-,NL,North Brabant,"",Helmond,51.48167,5.66111
Belarus,Minsk,"2025-06-01",alphabet,0.0,1.0,1,0,0,0,1,https://www.whiskyquartier.de/collections/neu-im-shop?srsltid=Afm,BY,"","",Minsk,53.9,27.56667
Ukraine,"","2025-06-01",whiskybase,0.0,1.0,1,0,0,0,1,https://www.whiskyquartier.de/products/macallan-classic-cut-2023,IT,Piemont,Torino,"",44.93645,7.54015
Belarus,Minsk,"2025-06-01",whiskybase,0.0,1.0,1,0,0,0,1,https://www.whiskyquartier.de/products/glenturret-12-yo-2024-0-7l,BY,"","",Minsk,53.9,27.56667
Denmark,Varde,"2025-06-01",direct,5.0,2.0,0,0,0,0,1,https://www.whiskyquartier.de/collections/deutsche-whiskys,DK,Region of Southern Denmark,"",Varde,55.62112,8.48069
Belarus,Minsk,"2025-06-01",direct,0.0,1.0,1,0,0,0,1,https://www.whiskyquartier.de/products/glenturret-12-yo-2024-0-7l,BY,"","",Minsk,53.9,27.56667
Brazil,Belo Horizonte,"2025-06-01",whiskybase,25.0,3.0,0,0,0,0,1,https://www.whiskyquartier.de/products/dalwhinnie-15-years-old-0-,BR,Minas Gerais,Região Metropolitana de Belo Horizonte,Belo Horizonte,-19.92083,-43.93778
The Netherlands,Purmerend,"2025-06-01",whiskybase,0.0,1.0,1,0,0,0,1,https://www.whiskyquartier.de/products/concept-no-1-0-7l,NL,North Holland,"",Purmerend,52.505,4.95972
Bulgaria,Varna,"2025-06-01",whiskybase,223.0,7.0,0,1,0,0,1,https://www.whiskyquartier.de/products/glenturret-triple-wood-202,RU,Chelyabinsk Oblast,Varnensky District,Varna,53.38194,60.97472
Bulgaria,Varna,"2025-06-01",whiskybase,223.0,7.0,0,1,0,0,1,https://www.whiskyquartier.de/products/glenturret-triple-wood-202,RS,Central Serbia,Macva Administrative District,Varna,44.67914,19.6515
Bulgaria,Varna,"2025-06-01",whiskybase,223.0,7.0,0,1,0,0,1,https://www.whiskyquartier.de/products/glenturret-triple-wood-202,IT,Trentino-Alto Adige/Südtirol,South Tyrol,Varna,46.73901,11.63749
Bulgaria,Varna,"2025-06-01",whiskybase,223.0,7.0,0,1,0,0,1,https://www.whiskyquartier.de/products/glenturret-triple-wood-202,BG,"",Varna,Varna,43.21667,27.91667
Canada,Montreal,"2025-06-01",direct,0.0,1.0,1,0,0,0,1,https://www.whiskyquartier.de/products/glenfiddich-experimental-s,,,,,,
Brazil,Belo Horizonte,"2025-06-01",alphabet,0.0,1.0,1,0,0,0,1,https://www.whiskyquartier.de/?srsltid=AfmBOorWa8o3uTzaXNYeVofoTJ,BR,Minas Gerais,Região Metropolitana de Belo Horizonte,Belo Horizonte,-19.92083,-43.93778
Slovenia,Maribor,"2025-06-01",direct,134.0,1.5,0,0,2,0,2,https://www.whiskyquartier.de/checkouts/cn/Z2NwLWV1cm9wZS13ZXN0MT,SI,"","",Maribor,46.55472,15.64667
Switzerland,Payerne,"2025-06-01",alphabet,0.0,1.0,2,0,0,0,2,https://www.whiskyquartier.de/products/the-laddie-valinch-no-12-0,CH,Vaud,District de la Broye-Vully,Payerne,46.82192,6.93817
Japan,"","2025-06-01",alphabet,20.0,2.0,0,0,0,0,1,https://www.whiskyquartier.de/collections/all,IT,Piemont,Torino,"",44.93645,7.54015
Ukraine,Kyiv,"2025-06-01",direct,188.0,5.0,0,0,0,0,1,https://www.whiskyquartier.de/products/deanston-virgin-oak-0-7l,UA,"","",Kyiv,50.45466,30.5238
Ukraine,"","2025-06-01",whiskybase,0.0,1.0,1,0,0,0,1,https://www.whiskyquartier.de/products/18-yo-colour-collection-0-,IT,Piemont,Torino,"",44.93645,7.54015
Hungary,Budapest,"2025-06-01",whiskybase,0.0,1.0,1,0,0,0,1,https://www.whiskyquartier.de/products/quest-collection-quest-1l,HU,"","",Budapest,47.49835,19.04045
United Kingdom,Tower Hamlets,"2025-06-01",direct,0.0,1.0,1,0,0,0,1,https://www.whiskyquartier.de/products/quest-collection-terra-0-7,,,,,,
Bulgaria,Sofia,"2025-06-01",whiskybase,0.0,1.0,1,0,0,0,1,https://www.whiskyquartier.de/products/glenturret-triple-wood-202,BG,"",Sofia-City,Sofia,42.69751,23.32415
Belarus,Minsk,"2025-06-01",whiskybase,0.0,1.0,1,0,0,0,1,https://www.whiskyquartier.de/products/birkenhof-fading-hill-ware,BY,"","",Minsk,53.9,27.56667
Canada,Beauharnois,"2025-06-01",direct,0.0,1.0,1,0,0,0,1,https://www.whiskyquartier.de/,CA,Quebec,Beauharnois-Salaberry,Beauharnois,45.31341,-73.8725
Denmark,Varde,"2025-06-01",direct,34.125,1.625,4,0,0,0,8,https://www.whiskyquartier.de/,DK,Region of Southern Denmark,"",Varde,55.62112,8.48069
Bangladesh,"","2025-06-01",alphabet,34.0,2.0,0,0,0,0,1,https://www.whiskyquartier.de/pages/contact,IT,Piemont,Torino,"",44.93645,7.54015
Portugal,Lisbon,"2025-06-01",whiskybase,10.0,2.0,0,0,0,0,1,https://www.whiskyquartier.de/products/glenturret-12-yo-2024-0-7l,US,Ohio,Columbiana County,Lisbon,40.772,-80.76813
Portugal,Lisbon,"2025-06-01",whiskybase,10.0,2.0,0,0,0,0,1,https://www.whiskyquartier.de/products/glenturret-12-yo-2024-0-7l,US,North Dakota,Ransom County,Lisbon,46.44163,-97.68121
Portugal,Lisbon,"2025-06-01",whiskybase,10.0,2.0,0,0,0,0,1,https://www.whiskyquartier.de/products/glenturret-12-yo-2024-0-7l,US,Maine,Androscoggin County,Lisbon,44.03146,-70.1045
Portugal,Lisbon,"2025-06-01",whiskybase,10.0,2.0,0,0,0,0,1,https://www.whiskyquartier.de/products/glenturret-12-yo-2024-0-7l,US,Iowa,Linn County,Lisbon,41.92112,-91.38545
Portugal,Lisbon,"2025-06-01",whiskybase,10.0,2.0,0,0,0,0,1,https://www.whiskyquartier.de/products/glenturret-12-yo-2024-0-7l,US,Connecticut,New London County,Lisbon,41.60399,-72.01174
Portugal,Lisbon,"2025-06-01",whiskybase,10.0,2.0,0,0,0,0,1,https://www.whiskyquartier.de/products/glenturret-12-yo-2024-0-7l,US,Ohio,Clark County,Lisbon,39.86089,-83.6352
Portugal,Lisbon,"2025-06-01",whiskybase,10.0,2.0,0,0,0,0,1,https://www.whiskyquartier.de/products/glenturret-12-yo-2024-0-7l,PT,"",Lisbon,Lisbon,38.71667,-9.13333
Russia,Moscow,"2025-06-01",whiskybase,0.0,1.0,1,0,0,0,1,https://www.whiskyquartier.de/products/edition-no-3-0-7l,US,Idaho,Latah County,Moscow,46.73239,-117.00017
Russia,Moscow,"2025-06-01",whiskybase,0.0,1.0,1,0,0,0,1,https://www.whiskyquartier.de/products/edition-no-3-0-7l,US,Pennsylvania,Lackawanna County,Moscow,41.33675,-75.51852
Russia,Moscow,"2025-06-01",whiskybase,0.0,1.0,1,0,0,0,1,https://www.whiskyquartier.de/products/edition-no-3-0-7l,RU,Moscow,"",Moscow,55.75222,37.61556
Denmark,"","2025-06-01",whiskybase,0.0,1.0,1,0,0,0,1,https://www.whiskyquartier.de/products/roseisle-12-years-old-the-,IT,Piemont,Torino,"",44.93645,7.54015
Denmark,Rødovre Municipality,"2025-06-01",whiskybase,0.0,1.0,1,0,0,0,1,https://www.whiskyquartier.de/products/ardnahoe-5-yo-the-inaugura,,,,,,
Slovenia,Maribor,"2025-06-01",whiskybase,103.0,3.0,0,1,1,0,1,https://www.whiskyquartier.de/products/ardnahoe-infinite-loch-0-7,SI,"","",Maribor,46.55472,15.64667
Ukraine,Kyiv,"2025-06-01",whiskybase,0.0,1.0,1,0,0,0,1,https://www.whiskyquartier.de/products/ardcore-0-7l,UA,"","",Kyiv,50.45466,30.5238
Canada,Montreal,"2025-06-01",direct,0.0,1.0,2,0,0,0,2,https://www.whiskyquartier.de/,,,,,,
Denmark,Rødovre Municipality,"2025-07-01",whiskybase,120.0,3.0,0,1,1,0,1,https://www.whiskyquartier.de/products/deanston-virgin-oak-0-7l,,,,,,
Canada,Montreal,"2025-07-01",direct,0.0,1.0,2,0,0,0,2,https://www.whiskyquartier.de/,,,,,,
Denmark,Varde,"2025-07-01",direct,22.6,1.4,3,0,0,0,5,https://www.whiskyquartier.de/products/glenfiddich-15-years-old-0,DK,Region of Southern Denmark,"",Varde,55.62112,8.48069
Slovakia,Banská Bystrica,"2025-07-01",direct,0.0,1.0,1,0,0,0,1,https://www.whiskyquartier.de/products/glenallachie-sinteis_serie,SK,Region of Banská Bystrica,District of Banská Bystrica,Banská Bystrica,48.73946,19.15349
Denmark,Brønderslev,"2025-07-01",whiskybase,191.0,6.0,0,0,0,0,1,https://www.whiskyquartier.de/products/stauning-barley-burbon-bar,DK,North Denmark Region,"",Brønderslev,57.27021,9.94102
Belgium,Amel,"2025-07-01",whiskybase,99.0,3.0,0,0,0,0,2,https://www.whiskyquartier.de/products/ardnahoe-infinite-loch-0-7,,,,,,
Finland,Helsinki,"2025-07-01",direct,0.0,1.0,1,0,0,0,1,https://www.whiskyquartier.de/search?options%5Bprefix%5D=last&q=e,FI,"",Uusimaa,Helsinki,60.16952,24.93545
Croatia,"","2025-07-01",meta,23.0,2.0,0,0,0,0,1,https://www.whiskyquartier.de/?fbclid=PAZXh0bgNhZW0CMTEAAafU6RjIp,IT,Piemont,Torino,"",44.93645,7.54015
Austria,Vienna,"2025-07-01",alphabet,0.0,1.0,1,0,0,0,1,https://www.whiskyquartier.de/products/macallan-classic-cut-2023?,US,West Virginia,Wood County,Vienna,39.32702,-81.54846
Austria,Vienna,"2025-07-01",alphabet,0.0,1.0,1,0,0,0,1,https://www.whiskyquartier.de/products/macallan-classic-cut-2023?,US,Virginia,Fairfax County,Vienna,38.90122,-77.26526
Austria,Vienna,"2025-07-01",alphabet,0.0,1.0,1,0,0,0,1,https://www.whiskyquartier.de/products/macallan-classic-cut-2023?,US,Missouri,Maries County,Vienna,38.18671,-91.94711
Austria,Vienna,"2025-07-01",alphabet,0.0,1.0,1,0,0,0,1,https://www.whiskyquartier.de/products/macallan-classic-cut-2023?,US,Illinois,Johnson County,Vienna,37.41533,-88.89784
Austria,Vienna,"2025-07-01",alphabet,0.0,1.0,1,0,0,0,1,https://www.whiskyquartier.de/products/macallan-classic-cut-2023?,US,Georgia,Dooly County,Vienna,32.09156,-83.79545
Austria,Vienna,"2025-07-01",alphabet,0.0,1.0,1,0,0,0,1,https://www.whiskyquartier.de/products/macallan-classic-cut-2023?,AT,"","",Vienna,48.20849,16.37208
France,Lavilledieu,"2025-07-01",whiskybase,1057.0,2.0,0,0,0,0,1,https://www.whiskyquartier.de/products/glenallachie-sinteis_serie,FR,Auvergne-Rhône-Alpes,Ardèche,Lavilledieu,44.57545,4.45314
The Netherlands,Amsterdam,"2025-07-01",whiskybase,0.0,1.0,1,0,0,0,1,https://www.whiskyquartier.de/products/harmony-collection-green-m,US,New York,Montgomery County,Amsterdam,42.93869,-74.18819
The Netherlands,Amsterdam,"2025-07-01",whiskybase,0.0,1.0,1,0,0,0,1,https://www.whiskyquartier.de/products/harmony-collection-green-m,NL,North Holland,"",Amsterdam,52.37403,4.88969
Finland,Helsinki,"2025-07-01",direct,155.0,15.0,0,0,0,0,1,https://www.whiskyquartier.de/collections/irische-whiskys,FI,"",Uusimaa,Helsinki,60.16952,24.93545
Switzerland,Zurich,"2025-07-01",whiskybase,0.0,1.0,1,0,0,0,1,https://www.whiskyquartier.de/products/suntory-hibiki-100th-anniv,,,,,,
Hungary,Budapest,"2025-07-01",direct,0.0,1.0,1,0,0,0,1,https://www.whiskyquartier.de/,HU,"","",Budapest,47.49835,19.04045
Sweden,Örebro,"2025-07-01",whiskybase,1987.0,20.0,0,0,0,0,1,https://www.whiskyquartier.de/products/caol-ila-12-years-0-7l,SE,"",Örebro County,Örebro,59.27412,15.2066
Slovakia,Nitra,"2025-07-01",direct,24.0,3.0,0,0,0,0,1,https://www.whiskyquartier.de/products/glenallachie-sinteis_serie,SK,Region of Nitra,District of Nitra,Nitra,48.30763,18.08453
Switzerland,Frauenfeld,"2025-07-01",whiskybase,15.0,3.0,0,0,0,0,1,https://www.whiskyquartier.de/products/glenallachie-sinteis_serie,CH,Thurgau,Bezirk Frauenfeld,Frauenfeld,47.55776,8.89893
Brazil,Belo Horizonte,"2025-07-01",whiskybase,0.0,1.0,1,0,0,0,1,https://www.whiskyquartier.de/products/dalwhinnie-winters-gold-0-,BR,Minas Gerais,Região Metropolitana de Belo Horizonte,Belo Horizonte,-19.92083,-43.93778
The Netherlands,Utrecht,"2025-07-01",whiskybase,23.0,2.0,0,0,0,0,1,https://www.whiskyquartier.de/products/glenallachie-sinteis_serie,ZA,KwaZulu-Natal,Amajuba District Municipality,Utrecht,-27.65862,30.32166
The Netherlands,Utrecht,"2025-07-01",whiskybase,23.0,2.0,0,0,0,0,1,https://www.whiskyquartier.de/products/glenallachie-sinteis_serie,NL,Utrecht,"",Utrecht,52.09083,5.12222
Bulgaria,Plovdiv,"2025-07-01",whiskybase,0.0,1.0,2,0,0,0,2,https://www.whiskyquartier.de/products/macallan-classic-cut-2022,BG,"",Plovdiv,Plovdiv,42.15,24.75
Denmark,Brønshøj,"2025-07-01",meta,34.0,2.0,0,0,0,0,1,https://www.whiskyquartier.de/?fbclid=IwQ0xDSwLiQm5leHRuA2FlbQIxM,,,,,,
India,Salem,"2025-07-01",direct,0.0,1.0,1,0,0,0,1,https://www.whiskyquartier.de/,US,Oregon,Marion County,Salem,44.9429,-123.0351
India,Salem,"2025-07-01",direct,0.0,1.0,1,0,0,0,1,https://www.whiskyquartier.de/,US,Utah,Utah County,Salem,40.05301,-111.67354
India,Salem,"2025-07-01",direct,0.0,1.0,1,0,0,0,1,https://www.whiskyquartier.de/,US,Wisconsin,Kenosha County,Salem,42.55474,-88.11092
India,Salem,"2025-07-01",direct,0.0,1.0,1,0,0,0,1,https://www.whiskyquartier.de/,US,South Dakota,McCook County,Salem,43.72415,-97.38895
India,Salem,"2025-07-01",direct,0.0,1.0,1,0,0,0,1,https://www.whiskyquartier.de/,US,Ohio,Columbiana County,Salem,40.90089,-80.85675
India,Salem,"2025-07-01",direct,0.0,1.0,1,0,0,0,1,https://www.whiskyquartier.de/,US,New Hampshire,Rockingham County,Salem,42.78842,-71.20089
India,Salem,"2025-07-01",direct,0.0,1.0,1,0,0,0,1,https://www.whiskyquartier.de/,US,Massachusetts,Essex County,Salem,42.51977,-70.89552
India,Salem,"2025-07-01",direct,0.0,1.0,1,0,0,0,1,https://www.whiskyquartier.de/,US,Connecticut,New London County,Salem,41.49038,-72.27536
India,Salem,"2025-07-01",direct,0.0,1.0,1,0,0,0,1,https://www.whiskyquartier.de/,US,West Virginia,Harrison County,Salem,39.28287,-80.55899
India,Salem,"2025-07-01",direct,0.0,1.0,1,0,0,0,1,https://www.whiskyquartier.de/,US,Virginia,"",Salem,37.29347,-80.05476
India,Salem,"2025-07-01",direct,0.0,1.0,1,0,0,0,1,https://www.whiskyquartier.de/,US,New Jersey,Salem County,Salem,39.57178,-75.46714
India,Salem,"2025-07-01",direct,0.0,1.0,1,0,0,0,1,https://www.whiskyquartier.de/,US,North Carolina,Burke County,Salem,35.69874,-81.69704
India,Salem,"2025-07-01",direct,0.0,1.0,1,0,0,0,1,https://www.whiskyquartier.de/,US,Missouri,Dent County,Salem,37.6456,-91.53598
India,Salem,"2025-07-01",direct,0.0,1.0,1,0,0,0,1,https://www.whiskyquartier.de/,US,Indiana,Washington County,Salem,38.60561,-86.10109
India,Salem,"2025-07-01",direct,0.0,1.0,1,0,0,0,1,https://www.whiskyquartier.de/,US,Illinois,Marion County,Salem,38.62699,-88.94562
India,Salem,"2025-07-01",direct,0.0,1.0,1,0,0,0,1,https://www.whiskyquartier.de/,US,Arkansas,Saline County,Salem,34.62898,-92.55822
India,Salem,"2025-07-01",direct,0.0,1.0,1,0,0,0,1,https://www.whiskyquartier.de/,US,Arkansas,Fulton County,Salem,36.37118,-91.82265
India,Salem,"2025-07-01",direct,0.0,1.0,1,0,0,0,1,https://www.whiskyquartier.de/,MS,Övörkhangai,Saint Peter,Salem,16.75095,-62.22175
India,Salem,"2025-07-01",direct,0.0,1.0,1,0,0,0,1,https://www.whiskyquartier.de/,IN,Tamil Nadu,Salem,Salem,11.65376,78.15538
India,Salem,"2025-07-01",direct,0.0,1.0,1,0,0,0,1,https://www.whiskyquartier.de/,ID,Central Java,Brebes,Salem,-7.1825,108.8059
India,Salem,"2025-07-01",direct,0.0,1.0,1,0,0,0,1,https://www.whiskyquartier.de/,DE,Baden-Württemberg,Bodenseekreis,Salem,47.76258,9.29031
Denmark,Varde,"2025-07-01",direct,1210.1111,9.555555,2,0,0,0,9,https://www.whiskyquartier.de/,DK,Region of Southern Denmark,"",Varde,55.62112,8.48069
Cyprus,Limassol,"2025-07-01",whiskybase,0.0,1.0,1,0,0,0,1,https://www.whiskyquartier.de/products/a-night-on-earth-scotland-,CY,South Cyprus,"",Limassol,34.68406,33.03794
The Netherlands,Utrecht,"2025-07-01",whiskybase,0.0,1.0,1,0,0,0,1,https://www.whiskyquartier.de/products/18y-sherry-oak-2023-0-7l,ZA,KwaZulu-Natal,Amajuba District Municipality,Utrecht,-27.65862,30.32166
The Netherlands,Utrecht,"2025-07-01",whiskybase,0.0,1.0,1,0,0,0,1,https://www.whiskyquartier.de/products/18y-sherry-oak-2023-0-7l,NL,Utrecht,"",Utrecht,52.09083,5.12222
Denmark,Vojens,"2025-07-01",meta,104.6,1.2,4,0,0,0,5,https://www.whiskyquartier.de/?fbclid=IwQ0xDSwLiQm5leHRuA2FlbQIxM,DK,Region of Southern Denmark,"",Vojens,55.24639,9.30603
Denmark,Varde,"2025-07-01",direct,0.0,1.0,2,0,0,0,2,https://www.whiskyquartier.de/collections/danische-whiskys,DK,Region of Southern Denmark,"",Varde,55.62112,8.48069
Bulgaria,Yambol,"2025-07-01",whiskybase,55.0,4.0,0,0,0,0,1,https://www.whiskyquartier.de/products/kavalan-solist-brandy-0-7l,BG,"",Yambol,Yambol,42.48333,26.5
Slovakia,Banská Bystrica,"2025-07-01",direct,0.0,1.0,0,0,1,0,1,https://www.whiskyquartier.de/checkouts/cn/hWN1DcHKbY6lzxDA6Qzamv,SK,Region of Banská Bystrica,District of Banská Bystrica,Banská Bystrica,48.73946,19.15349
Finland,Helsinki,"2025-07-01",direct,0.0,1.0,1,0,0,0,1,https://www.whiskyquartier.de/cart/,FI,"",Uusimaa,Helsinki,60.16952,24.93545
Ukraine,Kyiv,"2025-07-01",whiskybase,252.0,10.0,0,0,0,0,1,https://www.whiskyquartier.de/products/deanston-virgin-oak-0-7l,UA,"","",Kyiv,50.45466,30.5238
United Kingdom,London,"2025-07-01",direct,98.0,3.0,0,0,0,0,1,https://www.whiskyquartier.de/,US,California,Tulare County,London,36.47606,-119.44318
United Kingdom,London,"2025-07-01",direct,98.0,3.0,0,0,0,0,1,https://www.whiskyquartier.de/,US,Ohio,Madison County,London,39.88645,-83.44825
United Kingdom,London,"2025-07-01",direct,98.0,3.0,0,0,0,0,1,https://www.whiskyquartier.de/,US,Kentucky,Laurel County,London,37.12898,-84.08326
United Kingdom,London,"2025-07-01",direct,98.0,3.0,0,0,0,0,1,https://www.whiskyquartier.de/,US,Arkansas,Pope County,London,35.32897,-93.25296
United Kingdom,London,"2025-07-01",direct,98.0,3.0,0,0,0,0,1,https://www.whiskyquartier.de/,GB,England,"",London,51.50853,-0.12574
United Kingdom,London,"2025-07-01",direct,98.0,3.0,0,0,0,0,1,https://www.whiskyquartier.de/,CA,Ontario,London,London,42.98339,-81.23304
Spain,Valladolid,"2025-07-01",alphabet,0.0,1.0,1,0,0,0,1,https://www.whiskyquartier.de/products/edition-no-6-0-7l,PH,Negros Occidental,"",Valladolid,10.4616,122.8245
Spain,Valladolid,"2025-07-01",alphabet,0.0,1.0,1,0,0,0,1,https://www.whiskyquartier.de/products/edition-no-6-0-7l,MX,Aguascalientes,Jesús María,Valladolid,22.02111,-102.315
Spain,Valladolid,"2025-07-01",alphabet,0.0,1.0,1,0,0,0,1,https://www.whiskyquartier.de/products/edition-no-6-0-7l,MX,Yucatán,Valladolid,Valladolid,20.68812,-88.19936
Spain,Valladolid,"2025-07-01",alphabet,0.0,1.0,1,0,0,0,1,https://www.whiskyquartier.de/products/edition-no-6-0-7l,ES,Castile and León,"",Valladolid,41.65518,-4.72372
Spain,Valladolid,"2025-07-01",alphabet,0.0,1.0,1,0,0,0,1,https://www.whiskyquartier.de/products/edition-no-6-0-7l,EC,Zamora Chinchipe,Palanda,Valladolid,-4.55137,-79.13199
Brazil,Belo Horizonte,"2025-07-01",alphabet,12.0,2.0,0,0,0,0,1,https://www.whiskyquartier.de/?srsltid=AfmBOorwwy_Cy-khJkGbosxoKB,BR,Minas Gerais,Região Metropolitana de Belo Horizonte,Belo Horizonte,-19.92083,-43.93778
Poland,Poznan,"2025-07-01",alphabet,0.0,1.0,1,0,0,0,1,https://www.whiskyquartier.de/collections/neu-im-shop,,,,,,
The Netherlands,Naaldwijk,"2025-07-01",meta,184.0,5.0,0,0,0,0,1,https://www.whiskyquartier.de/?utm_medium=paid&utm_source=ig&utm_,NL,South Holland,"",Naaldwijk,51.99417,4.20972
Lebanon,"","2025-07-01",whiskybase,62.0,3.0,0,1,1,0,1,https://www.whiskyquartier.de/products/glenallachie-sinteis_serie,IT,Piemont,Torino,"",44.93645,7.54015
The Netherlands,Amsterdam,"2025-07-01",alphabet,15.0,4.0,0,0,0,0,1,https://www.whiskyquartier.de/?srsltid=AfmBOoqc3VlnRwkf3VvWFye9zi,US,New York,Montgomery County,Amsterdam,42.93869,-74.18819
The Netherlands,Amsterdam,"2025-07-01",alphabet,15.0,4.0,0,0,0,0,1,https://www.whiskyquartier.de/?srsltid=AfmBOoqc3VlnRwkf3VvWFye9zi,NL,North Holland,"",Amsterdam,52.37403,4.88969
Finland,Helsinki,"2025-07-01",direct,0.0,1.0,1,0,0,0,1,https://www.whiskyquartier.de/collections/schottland,FI,"",Uusimaa,Helsinki,60.16952,24.93545
Slovakia,Banská Bystrica,"2025-07-01",whiskybase,1954.0,24.0,0,1,1,0,1,https://www.whiskyquartier.de/products/glenallachie-sinteis_serie,SK,Region of Banská Bystrica,District of Banská Bystrica,Banská Bystrica,48.73946,19.15349
Bulgaria,Sofia,"2025-07-01",whiskybase,0.0,1.0,1,0,0,0,1,https://www.whiskyquartier.de/products/roseisle-12-years-old-the-,BG,"",Sofia-City,Sofia,42.69751,23.32415
Finland,Helsinki,"2025-07-01",direct,9528.0,141.0,0,1,0,0,1,https://www.whiskyquartier.de/,FI,"",Uusimaa,Helsinki,60.16952,24.93545
Finland,Helsinki,"2025-07-01",direct,3772.0,24.0,0,0,0,0,1,https://www.whiskyquartier.de/products/whiskyquartier-de-geschenk,FI,"",Uusimaa,Helsinki,60.16952,24.93545
Denmark,Esbjerg,"2025-07-01",meta,0.0,1.0,1,0,0,0,1,https://www.whiskyquartier.de/?fbclid=IwQ0xDSwLiQm5leHRuA2FlbQIxM,DK,Region of Southern Denmark,"",Esbjerg,55.47028,8.45187
Denmark,Varde,"2025-07-01",direct,577.0,3.0,0,0,0,0,1,https://www.whiskyquartier.de/collections/highland-games-2025,DK,Region of Southern Denmark,"",Varde,55.62112,8.48069
Slovakia,Banská Bystrica,"2025-08-01",direct,0.0,2.0,0,0,0,0,1,https://www.whiskyquartier.de/search?q=glenallachie&options%5Bpre,SK,Region of Banská Bystrica,District of Banská Bystrica,Banská Bystrica,48.73946,19.15349
Ukraine,Dnipro,"2025-08-01",whiskybase,0.0,1.0,1,0,0,0,1,https://www.whiskyquartier.de/products/12-yo-colour-collection-0-,UA,Dnipropetrovsk Oblast,"",Dnipro,48.46664,35.04066
Switzerland,Zurich,"2025-08-01",whiskybase,0.0,1.0,1,0,0,0,1,https://www.whiskyquartier.de/products/macallan-harmony-collectio,,,,,,
Croatia,Zagreb,"2025-08-01",whiskybase,0.0,1.0,1,0,0,0,1,https://www.whiskyquartier.de/products/glenturret-10-yo-peat-smok,HR,"","",Zagreb,45.81444,15.97798
Denmark,Copenhagen,"2025-08-01",direct,0.0,1.0,1,0,0,0,1,https://www.whiskyquartier.de/policies/contact-information,DK,Capital Region of Denmark,"",Copenhagen,55.67594,12.56553
Ireland,Dublin,"2025-08-01",whiskybase,0.0,1.0,1,0,0,0,1,https://www.whiskyquartier.de/products/green-spot-single-pot-stil,US,California,Alameda County,Dublin,37.70215,-121.93579
Ireland,Dublin,"2025-08-01",whiskybase,0.0,1.0,1,0,0,0,1,https://www.whiskyquartier.de/products/green-spot-single-pot-stil,US,Pennsylvania,Bucks County,Dublin,40.37177,-75.20156
Ireland,Dublin,"2025-08-01",whiskybase,0.0,1.0,1,0,0,0,1,https://www.whiskyquartier.de/products/green-spot-single-pot-stil,US,Ohio,Franklin County,Dublin,40.09923,-83.11408
Ireland,Dublin,"2025-08-01",whiskybase,0.0,1.0,1,0,0,0,1,https://www.whiskyquartier.de/products/green-spot-single-pot-stil,US,New Hampshire,Cheshire County,Dublin,42.90758,-72.06258
Ireland,Dublin,"2025-08-01",whiskybase,0.0,1.0,1,0,0,0,1,https://www.whiskyquartier.de/products/green-spot-single-pot-stil,US,Virginia,Pulaski County,Dublin,37.10568,-80.68534
Ireland,Dublin,"2025-08-01",whiskybase,0.0,1.0,1,0,0,0,1,https://www.whiskyquartier.de/products/green-spot-single-pot-stil,US,Texas,Erath County,Dublin,32.08514,-98.34199
Ireland,Dublin,"2025-08-01",whiskybase,0.0,1.0,1,0,0,0,1,https://www.whiskyquartier.de/products/green-spot-single-pot-stil,US,Georgia,Laurens County,Dublin,32.54044,-82.90375
Ireland,Dublin,"2025-08-01",whiskybase,0.0,1.0,1,0,0,0,1,https://www.whiskyquartier.de/products/green-spot-single-pot-stil,IE,"",County Dublin,Dublin,53.33306,-6.24889
Switzerland,Zurich,"2025-08-01",whiskybase,0.0,1.0,1,0,0,0,1,https://www.whiskyquartier.de/products/a-night-on-earth-scotland-,,,,,,
Belgium,Ghent,"2025-08-01",whiskybase,0.0,1.0,1,0,0,0,1,https://www.whiskyquartier.de/products/kavalan-solist-brandy-0-7l,,,,,,
Türkiye,Istanbul,"2025-08-01",meta,0.0,1.0,1,0,0,0,1,https://www.whiskyquartier.de/?utm_source=FB+Werbung&fbclid=IwZXh,TR,"","",Istanbul,41.01384,28.94966
Switzerland,Zurich,"2025-08-01",alphabet,0.0,1.0,1,0,0,0,1,https://www.whiskyquartier.de/products/macallan-classic-cut-2023?,,,,,,
United Kingdom,"","2025-08-01",alphabet,87.0,2.0,0,0,0,0,1,https://www.whiskyquartier.de/products/dalwhinnie-winters-gold-0-,IT,Piemont,Torino,"",44.93645,7.54015
Austria,"","2025-08-01",meta,0.0,1.0,1,0,0,0,1,https://www.whiskyquartier.de/?fbclid=PAZXh0bgNhZW0CMTEAAadbUV-R3,IT,Piemont,Torino,"",44.93645,7.54015
Austria,Jenbach,"2025-08-01",alphabet,0.0,1.0,1,0,0,0,1,https://www.whiskyquartier.de/products/laddie-ten-0-7l?srsltid=Af,AT,Tyrol,Bezirk Schwaz,Jenbach,47.39173,11.77245
The Netherlands,Dieren,"2025-08-01",whiskybase,852.5,1.5,1,0,0,0,2,https://www.whiskyquartier.de/products/deanston-virgin-oak-0-7l,NL,Gelderland,"",Dieren,52.0512,6.103
Poland,Krakow,"2025-08-01",direct,0.0,1.0,1,0,0,0,1,https://www.whiskyquartier.de/products/12y-triple-destilled-0-7l,,,,,,
Denmark,Rønne,"2025-08-01",alphabet,39.0,3.0,0,0,0,0,1,https://www.whiskyquartier.de/?srsltid=AfmBOor1-lo5d9auWTRuQhOex9,DK,Capital Region of Denmark,"",Rønne,55.10091,14.70664
Denmark,Copenhagen,"2025-08-01",whiskybase,8.0,2.0,0,0,0,0,1,https://www.whiskyquartier.de/products/glenallachie-sinteis_serie,DK,Capital Region of Denmark,"",Copenhagen,55.67594,12.56553
Belgium,Oudenaarde,"2025-08-01",whiskybase,64.0,5.0,0,0,0,0,1,https://www.whiskyquartier.de/products/balvenie-12-years-old-doub,BE,East Flanders,Oudenaarde,Oudenaarde,50.85168,3.60891
Armenia,"","2025-08-01",alphabet,4.25,1.25,3,0,0,0,4,https://www.whiskyquartier.de/products/stauning-barley-rye-moscat,IT,Piemont,Torino,"",44.93645,7.54015
Slovakia,Banská Bystrica,"2025-08-01",direct,2.0,2.0,0,0,1,0,1,https://www.whiskyquartier.de/checkouts/cn/hWN1DcHKbY6lzxDA6Qzamv,SK,Region of Banská Bystrica,District of Banská Bystrica,Banská Bystrica,48.73946,19.15349
Austria,Tiefgraben,"2025-08-01",meta,0.0,1.0,1,0,0,0,1,https://www.whiskyquartier.de/?utm_source=FB+Werbung&fbclid=IwZXh,AT,Upper Austria,Bezirk Vöcklabruck,Tiefgraben,47.87385,13.30591
Poland,Katowice,"2025-08-01",whiskybase,0.0,1.0,2,0,0,0,2,https://www.whiskyquartier.de/products/quest-collection-quest-1l,PL,Silesian Voivodeship,"",Katowice,50.25841,19.02754
Switzerland,Zurich,"2025-08-01",whiskybase,1723.0,2.0,0,0,0,0,1,https://www.whiskyquartier.de/products/harmony-collection-intense,,,,,,
Egypt,Cairo,"2025-08-01",direct,0.0,1.0,1,0,0,0,1,https://www.whiskyquartier.de/,US,New York,Greene County,Cairo,42.29897,-73.99847
Egypt,Cairo,"2025-08-01",direct,0.0,1.0,1,0,0,0,1,https://www.whiskyquartier.de/,US,Illinois,Alexander County,Cairo,37.00533,-89.17646
Egypt,Cairo,"2025-08-01",direct,0.0,1.0,1,0,0,0,1,https://www.whiskyquartier.de/,US,Georgia,Grady County,Cairo,30.87751,-84.20214
Egypt,Cairo,"2025-08-01",direct,0.0,1.0,1,0,0,0,1,https://www.whiskyquartier.de/,EG,Cairo Governorate,"",Cairo,30.06263,31.24967
The Netherlands,Amsterdam,"2025-08-01",whiskybase,0.0,1.0,1,0,0,0,1,https://www.whiskyquartier.de/products/concept-no-1-0-7l,US,New York,Montgomery County,Amsterdam,42.93869,-74.18819
The Netherlands,Amsterdam,"2025-08-01",whiskybase,0.0,1.0,1,0,0,0,1,https://www.whiskyquartier.de/products/concept-no-1-0-7l,NL,North Holland,"",Amsterdam,52.37403,4.88969
The Netherlands,Amsterdam,"2025-08-01",whiskybase,83.0,10.0,0,0,0,0,1,https://www.whiskyquartier.de/,US,New York,Montgomery County,Amsterdam,42.93869,-74.18819
The Netherlands,Amsterdam,"2025-08-01",whiskybase,83.0,10.0,0,0,0,0,1,https://www.whiskyquartier.de/,NL,North Holland,"",Amsterdam,52.37403,4.88969
Greece,Vári,"2025-08-01",whiskybase,0.0,1.0,1,0,0,0,1,https://www.whiskyquartier.de/products/concept-no-1-0-7l,GR,Aegean,Syros Regional Unit,Vári,37.39859,24.94904
Greece,Vári,"2025-08-01",whiskybase,0.0,1.0,1,0,0,0,1,https://www.whiskyquartier.de/products/concept-no-1-0-7l,GR,Attica,Regional Unit of East Attica,Vári,37.8332,23.80311
Austria,Vienna,"2025-08-01",meta,1140.0,2.0,0,0,0,0,1,https://www.whiskyquartier.de/?utm_source=FB+Werbung&fbclid=IwZXh,US,West Virginia,Wood County,Vienna,39.32702,-81.54846
Austria,Vienna,"2025-08-01",meta,1140.0,2.0,0,0,0,0,1,https://www.whiskyquartier.de/?utm_source=FB+Werbung&fbclid=IwZXh,US,Virginia,Fairfax County,Vienna,38.90122,-77.26526
Austria,Vienna,"2025-08-01",meta,1140.0,2.0,0,0,0,0,1,https://www.whiskyquartier.de/?utm_source=FB+Werbung&fbclid=IwZXh,US,Missouri,Maries County,Vienna,38.18671,-91.94711
Austria,Vienna,"2025-08-01",meta,1140.0,2.0,0,0,0,0,1,https://www.whiskyquartier.de/?utm_source=FB+Werbung&fbclid=IwZXh,US,Illinois,Johnson County,Vienna,37.41533,-88.89784
Austria,Vienna,"2025-08-01",meta,1140.0,2.0,0,0,0,0,1,https://www.whiskyquartier.de/?utm_source=FB+Werbung&fbclid=IwZXh,US,Georgia,Dooly County,Vienna,32.09156,-83.79545
Austria,Vienna,"2025-08-01",meta,1140.0,2.0,0,0,0,0,1,https://www.whiskyquartier.de/?utm_source=FB+Werbung&fbclid=IwZXh,AT,"","",Vienna,48.20849,16.37208
Romania,Chiajna,"2025-08-01",meta,0.0,1.0,1,0,0,0,1,https://www.whiskyquartier.de/?fbclid=PAZXh0bgNhZW0CMTEAAadQIzN_b,RO,"",Ilfov,Chiajna,44.46,25.97333
Switzerland,Männedorf,"2025-08-01",meta,118.0,2.0,0,0,0,0,1,https://www.whiskyquartier.de/?utm_source=FB+Werbung&fbclid=IwZXh,CH,Zurich,Bezirk Meilen,Männedorf,47.25686,8.69893
Luxembourg,"","2025-08-01",direct,0.0,1.0,1,0,0,0,1,https://www.whiskyquartier.de/,IT,Piemont,Torino,"",44.93645,7.54015
Canada,Beauharnois,"2025-08-01",direct,0.0,1.0,1,0,0,0,1,https://www.whiskyquartier.de/,CA,Quebec,Beauharnois-Salaberry,Beauharnois,45.31341,-73.8725
Switzerland,Zurich,"2025-08-01",whiskybase,0.0,1.0,1,0,0,0,1,https://www.whiskyquartier.de/products/ardcore-0-7l,,,,,,
Armenia,"","2025-08-01",alphabet,1.0,1.0,1,0,0,0,1,https://www.whiskyquartier.de/products/suntory-hibiki-100th-anniv,IT,Piemont,Torino,"",44.93645,7.54015
Portugal,Guimarães,"2025-08-01",whiskybase,51.0,4.0,0,0,0,0,1,https://www.whiskyquartier.de/products/glenallachie-sinteis_serie,PT,"",Braga,Guimarães,41.44443,-8.29619
Italy,Florence,"2025-08-01",whiskybase,0.0,1.0,1,0,0,0,1,https://www.whiskyquartier.de/products/suntory-hibiki-100th-anniv,US,Oregon,Lane County,Florence,43.98262,-124.09984
Italy,Florence,"2025-08-01",whiskybase,0.0,1.0,1,0,0,0,1,https://www.whiskyquartier.de/products/suntory-hibiki-100th-anniv,US,Colorado,Fremont County,Florence,38.39028,-105.1186
Italy,Florence,"2025-08-01",whiskybase,0.0,1.0,1,0,0,0,1,https://www.whiskyquartier.de/products/suntory-hibiki-100th-anniv,US,Arizona,Pinal County,Florence,33.03145,-111.38734
Italy,Florence,"2025-08-01",whiskybase,0.0,1.0,1,0,0,0,1,https://www.whiskyquartier.de/products/suntory-hibiki-100th-anniv,US,Wisconsin,Florence County,Florence,45.92218,-88.2518
Italy,Florence,"2025-08-01",whiskybase,0.0,1.0,1,0,0,0,1,https://www.whiskyquartier.de/products/suntory-hibiki-100th-anniv,US,New Jersey,Burlington County,Florence,40.11955,-74.80544
Italy,Florence,"2025-08-01",whiskybase,0.0,1.0,1,0,0,0,1,https://www.whiskyquartier.de/products/suntory-hibiki-100th-anniv,US,New Jersey,Camden County,Florence,39.73428,-74.91822
Italy,Florence,"2025-08-01",whiskybase,0.0,1.0,1,0,0,0,1,https://www.whiskyquartier.de/products/suntory-hibiki-100th-anniv,US,Texas,Williamson County,Florence,30.8413,-97.79363
Italy,Florence,"2025-08-01",whiskybase,0.0,1.0,1,0,0,0,1,https://www.whiskyquartier.de/products/suntory-hibiki-100th-anniv,US,South Carolina,Florence County,Florence,34.19543,-79.76256
Italy,Florence,"2025-08-01",whiskybase,0.0,1.0,1,0,0,0,1,https://www.whiskyquartier.de/products/suntory-hibiki-100th-anniv,US,Mississippi,Rankin County,Florence,32.15348,-90.1312
Italy,Florence,"2025-08-01",whiskybase,0.0,1.0,1,0,0,0,1,https://www.whiskyquartier.de/products/suntory-hibiki-100th-anniv,US,Kentucky,Boone County,Florence,38.99895,-84.62661
Italy,Florence,"2025-08-01",whiskybase,0.0,1.0,1,0,0,0,1,https://www.whiskyquartier.de/products/suntory-hibiki-100th-anniv,US,Alabama,Lauderdale County,Florence,34.79981,-87.67725
Italy,Florence,"2025-08-01",whiskybase,0.0,1.0,1,0,0,0,1,https://www.whiskyquartier.de/products/suntory-hibiki-100th-anniv,IT,Tuscany,Metropolitan City of Florence,Florence,43.77925,11.24626
Austria,Vienna,"2025-08-01",meta,68.0,3.0,0,0,0,0,1,https://www.whiskyquartier.de/?utm_source=FB+Werbung&utm_medium=p,US,West Virginia,Wood County,Vienna,39.32702,-81.54846
Austria,Vienna,"2025-08-01",meta,68.0,3.0,0,0,0,0,1,https://www.whiskyquartier.de/?utm_source=FB+Werbung&utm_medium=p,US,Virginia,Fairfax County,Vienna,38.90122,-77.26526
Austria,Vienna,"2025-08-01",meta,68.0,3.0,0,0,0,0,1,https://www.whiskyquartier.de/?utm_source=FB+Werbung&utm_medium=p,US,Missouri,Maries County,Vienna,38.18671,-91.94711
Austria,Vienna,"2025-08-01",meta,68.0,3.0,0,0,0,0,1,https://www.whiskyquartier.de/?utm_source=FB+Werbung&utm_medium=p,US,Illinois,Johnson County,Vienna,37.41533,-88.89784
Austria,Vienna,"2025-08-01",meta,68.0,3.0,0,0,0,0,1,https://www.whiskyquartier.de/?utm_source=FB+Werbung&utm_medium=p,US,Georgia,Dooly County,Vienna,32.09156,-83.79545
Austria,Vienna,"2025-08-01",meta,68.0,3.0,0,0,0,0,1,https://www.whiskyquartier.de/?utm_source=FB+Werbung&utm_medium=p,AT,"","",Vienna,48.20849,16.37208
China,Shanghai,"2025-08-01",whiskybase,0.0,1.0,1,0,0,0,1,https://www.whiskyquartier.de/products/glenallachie-sinteis_serie,CN,"","",Shanghai,31.22222,121.45806
Austria,Vienna,"2025-08-01",meta,87.0,4.0,0,0,0,0,1,https://www.whiskyquartier.de/?utm_source=FB+Werbung&fbclid=IwZXh,US,West Virginia,Wood County,Vienna,39.32702,-81.54846
Austria,Vienna,"2025-08-01",meta,87.0,4.0,0,0,0,0,1,https://www.whiskyquartier.de/?utm_source=FB+Werbung&fbclid=IwZXh,US,Virginia,Fairfax County,Vienna,38.90122,-77.26526
Austria,Vienna,"2025-08-01",meta,87.0,4.0,0,0,0,0,1,https://www.whiskyquartier.de/?utm_source=FB+Werbung&fbclid=IwZXh,US,Missouri,Maries County,Vienna,38.18671,-91.94711
Austria,Vienna,"2025-08-01",meta,87.0,4.0,0,0,0,0,1,https://www.whiskyquartier.de/?utm_source=FB+Werbung&fbclid=IwZXh,US,Illinois,Johnson County,Vienna,37.41533,-88.89784
Austria,Vienna,"2025-08-01",meta,87.0,4.0,0,0,0,0,1,https://www.whiskyquartier.de/?utm_source=FB+Werbung&fbclid=IwZXh,US,Georgia,Dooly County,Vienna,32.09156,-83.79545
Austria,Vienna,"2025-08-01",meta,87.0,4.0,0,0,0,0,1,https://www.whiskyquartier.de/?utm_source=FB+Werbung&fbclid=IwZXh,AT,"","",Vienna,48.20849,16.37208
Ireland,Dublin,"2025-08-01",whiskybase,0.0,1.0,1,0,0,0,1,https://www.whiskyquartier.de/products/glenturret-triple-wood-202,US,California,Alameda County,Dublin,37.70215,-121.93579
Ireland,Dublin,"2025-08-01",whiskybase,0.0,1.0,1,0,0,0,1,https://www.whiskyquartier.de/products/glenturret-triple-wood-202,US,Pennsylvania,Bucks County,Dublin,40.37177,-75.20156
Ireland,Dublin,"2025-08-01",whiskybase,0.0,1.0,1,0,0,0,1,https://www.whiskyquartier.de/products/glenturret-triple-wood-202,US,Ohio,Franklin County,Dublin,40.09923,-83.11408
Ireland,Dublin,"2025-08-01",whiskybase,0.0,1.0,1,0,0,0,1,https://www.whiskyquartier.de/products/glenturret-triple-wood-202,US,New Hampshire,Cheshire County,Dublin,42.90758,-72.06258
Ireland,Dublin,"2025-08-01",whiskybase,0.0,1.0,1,0,0,0,1,https://www.whiskyquartier.de/products/glenturret-triple-wood-202,US,Virginia,Pulaski County,Dublin,37.10568,-80.68534
Ireland,Dublin,"2025-08-01",whiskybase,0.0,1.0,1,0,0,0,1,https://www.whiskyquartier.de/products/glenturret-triple-wood-202,US,Texas,Erath County,Dublin,32.08514,-98.34199
Ireland,Dublin,"2025-08-01",whiskybase,0.0,1.0,1,0,0,0,1,https://www.whiskyquartier.de/products/glenturret-triple-wood-202,US,Georgia,Laurens County,Dublin,32.54044,-82.90375
Ireland,Dublin,"2025-08-01",whiskybase,0.0,1.0,1,0,0,0,1,https://www.whiskyquartier.de/products/glenturret-triple-wood-202,IE,"",County Dublin,Dublin,53.33306,-6.24889
Italy,Glurns,"2025-08-01",direct,76.0,5.0,0,0,0,0,1,https://www.whiskyquartier.de/,,,,,,
India,Surat,"2025-08-01",direct,11.0,1.0,0,1,0,0,1,https://www.whiskyquartier.de/,IN,Gujarat,"",Surat,21.19594,72.83023
Hungary,Budapest,"2025-08-01",whiskybase,8.0,2.0,0,0,0,0,1,https://www.whiskyquartier.de/products/glenturret-10-yo-peat-smok,HU,"","",Budapest,47.49835,19.04045
Portugal,Guimarães,"2025-08-01",direct,0.0,1.0,1,0,0,0,1,https://www.whiskyquartier.de/products/kavalan-solist-brandy-0-7l,PT,"",Braga,Guimarães,41.44443,-8.29619
Portugal,Vila Nova de Famalicão,"2024-11-01",whiskybase,30.0,3.0,0,0,0,0,1,https://www.whiskyquartier.de/products/1824-gold-0-7l-kopie,PT,"",Braga,Vila Nova de Famalicão,41.40797,-8.51978
Denmark,Charlottenlund,"2024-11-01",whiskybase,0.0,1.0,1,0,0,0,1,https://www.whiskyquartier.de/products/cardeas-warehouse-1-0-7l,DK,Capital Region of Denmark,"",Charlottenlund,55.75238,12.5745
The Netherlands,Doetinchem,"2024-11-01",whiskybase,32.0,3.0,0,0,0,0,1,https://www.whiskyquartier.de/products/harmony-collection-green-m,NL,Gelderland,"",Doetinchem,51.965,6.28889
Singapore,Singapore,"2024-11-01",direct,0.0,1.0,1,0,0,0,1,https://www.whiskyquartier.de/password,SG,"",Central,Singapore,1.28967,103.85007
Czechia,Prague,"2024-11-01",whiskybase,0.0,1.0,1,0,0,0,1,https://www.whiskyquartier.de/products/harmony-collection-green-m,US,Oklahoma,Lincoln County,Prague,35.48674,-96.68502
Czechia,Prague,"2024-11-01",whiskybase,0.0,1.0,1,0,0,0,1,https://www.whiskyquartier.de/products/harmony-collection-green-m,CZ,Prague,"",Prague,50.08804,14.42076
The Netherlands,Drunen,"2024-11-01",whiskybase,0.0,1.0,2,0,0,0,2,https://www.whiskyquartier.de/products/triple-wood-0-7l?_pos=1&_s,,,,,,
Czechia,České Budějovice,"2024-11-01",spiritradar,1799.0,8.0,0,0,0,0,1,https://www.whiskyquartier.de/,CZ,Southwest,Jihočeský kraj,České Budějovice,48.97447,14.47434
Japan,Tokyo,"2024-11-01",direct,0.0,1.0,1,0,0,0,1,https://www.whiskyquartier.de/,JP,"","",Tokyo,35.6895,139.69171
Sweden,Stockholm,"2024-11-01",whiskybase,50.0,2.0,0,1,1,0,1,https://www.whiskyquartier.de/products/cardeas-warehouse-1-0-7l,SE,"",Stockholm County,Stockholm,59.32938,18.06871
United Kingdom,Glasgow,"2024-11-01",direct,0.0,1.0,1,0,0,0,1,https://www.whiskyquartier.de/products/harmony-collection-green-m,US,Montana,Valley County,Glasgow,48.19696,-106.63671
United Kingdom,Glasgow,"2024-11-01",direct,0.0,1.0,1,0,0,0,1,https://www.whiskyquartier.de/products/harmony-collection-green-m,US,Virginia,Rockbridge County,Glasgow,37.63402,-79.45031
United Kingdom,Glasgow,"2024-11-01",direct,0.0,1.0,1,0,0,0,1,https://www.whiskyquartier.de/products/harmony-collection-green-m,US,Missouri,Howard County,Glasgow,39.22725,-92.84658
United Kingdom,Glasgow,"2024-11-01",direct,0.0,1.0,1,0,0,0,1,https://www.whiskyquartier.de/products/harmony-collection-green-m,US,Kentucky,Barren County,Glasgow,36.99588,-85.91192
United Kingdom,Glasgow,"2024-11-01",direct,0.0,1.0,1,0,0,0,1,https://www.whiskyquartier.de/products/harmony-collection-green-m,US,Delaware,New Castle County,Glasgow,39.60483,-75.74521
United Kingdom,Glasgow,"2024-11-01",direct,0.0,1.0,1,0,0,0,1,https://www.whiskyquartier.de/products/harmony-collection-green-m,GB,Scotland,Glasgow City,Glasgow,55.86515,-4.25763
Italy,Santa Vittoria d'Alba,"2024-11-01",whiskybase,0.0,1.0,1,0,0,0,1,https://www.whiskyquartier.de/products/the-quinta-ruban-port-cask,IT,Piemont,Cuneo,Santa Vittoria d'Alba,44.69864,7.93733
The Netherlands,Pijnacker,"2024-11-01",whiskybase,0.0,1.0,1,0,0,0,1,https://www.whiskyquartier.de/products/gold-double-cask-0-7l,NL,South Holland,"",Pijnacker,52.01954,4.42946
The Netherlands,Hendrik-Ido-Ambacht,"2024-11-01",whiskybase,0.0,1.0,1,0,0,0,1,https://www.whiskyquartier.de/products/balvenie-12-years-old-doub,NL,South Holland,"",Hendrik-Ido-Ambacht,51.84417,4.63889
The Netherlands,Eindhoven,"2024-11-01",whiskybase,0.0,1.0,1,0,0,0,1,https://www.whiskyquartier.de/products/ardcore-0-7l,NL,North Brabant,"",Eindhoven,51.44083,5.47778
Czechia,Prague,"2024-12-01",meta,305.0,9.0,0,0,0,0,1,https://www.whiskyquartier.de/?fbclid=IwZXh0bgNhZW0BMAABHSGfAuwd9,US,Oklahoma,Lincoln County,Prague,35.48674,-96.68502
Czechia,Prague,"2024-12-01",meta,305.0,9.0,0,0,0,0,1,https://www.whiskyquartier.de/?fbclid=IwZXh0bgNhZW0BMAABHSGfAuwd9,CZ,Prague,"",Prague,50.08804,14.42076
The Netherlands,Alphen aan den Rijn,"2024-12-01",whiskybase,37.0,3.0,0,1,1,0,1,https://www.whiskyquartier.de/products/quest-collection-quest-1l,NL,South Holland,"",Alphen aan den Rijn,52.12917,4.65546
Austria,Graz,"2024-12-01",alphabet,70.0,4.0,0,1,1,0,1,https://www.whiskyquartier.de/products/quest-collection-lumina-0-,AT,Styria,"",Graz,47.06667,15.45
Spain,Santa Coloma de Farners,"2024-12-01",whiskybase,0.0,1.0,1,0,0,0,1,https://www.whiskyquartier.de/products/cardeas-warehouse-1-0-7l,ES,Catalonia,Selva,Santa Coloma de Farners,41.86667,2.66667
South Korea,Bupyeong-gu,"2024-12-01",whiskybase,453.0,4.0,0,0,0,0,1,https://www.whiskyquartier.de/products/kavalan-solist-brandy-0-7l,,,,,,
France,Corbeil-Essonnes,"2024-12-01",whiskybase,0.0,1.0,1,0,0,0,1,https://www.whiskyquartier.de/products/kavalan-solist-brandy-0-7l,FR,Ile-de-France,Essonne,Corbeil-Essonnes,48.60603,2.48757
Costa Rica,San José,"2024-12-01",alphabet,0.0,1.0,3,0,0,0,3,https://www.whiskyquartier.de/products/classic-cut-2020-0-7l,PR,Puerto Rico,"",San José,18.39828,-66.25572
Costa Rica,San José,"2024-12-01",alphabet,0.0,1.0,3,0,0,0,3,https://www.whiskyquartier.de/products/classic-cut-2020-0-7l,PE,Puno,Lower Hutt City,San José,-14.682,-70.15905
Costa Rica,San José,"2024-12-01",alphabet,0.0,1.0,3,0,0,0,3,https://www.whiskyquartier.de/products/classic-cut-2020-0-7l,PE,Arequipa,Lower Hutt City,San José,-16.61847,-72.73667
Costa Rica,San José,"2024-12-01",alphabet,0.0,1.0,3,0,0,0,3,https://www.whiskyquartier.de/products/classic-cut-2020-0-7l,PE,Lambayeque,"",San José,-6.73813,-79.8275
Costa Rica,San José,"2024-12-01",alphabet,0.0,1.0,3,0,0,0,3,https://www.whiskyquartier.de/products/classic-cut-2020-0-7l,PA,Los Santos,Distrito Las Tablas,San José,7.67704,-80.24339
Costa Rica,San José,"2024-12-01",alphabet,0.0,1.0,3,0,0,0,3,https://www.whiskyquartier.de/products/classic-cut-2020-0-7l,PA,Veraguas,Distrito Cañazas,San José,8.37052,-81.41527
Costa Rica,San José,"2024-12-01",alphabet,0.0,1.0,3,0,0,0,3,https://www.whiskyquartier.de/products/classic-cut-2020-0-7l,PA,Veraguas,Distrito Calobre,San José,8.46578,-80.80365
Costa Rica,San José,"2024-12-01",alphabet,0.0,1.0,3,0,0,0,3,https://www.whiskyquartier.de/products/classic-cut-2020-0-7l,PA,Panamá Oeste,"",San José,8.53542,-79.92357
Costa Rica,San José,"2024-12-01",alphabet,0.0,1.0,3,0,0,0,3,https://www.whiskyquartier.de/products/classic-cut-2020-0-7l,PA,Panamá Oeste,Distrito Arraiján,San José,8.92703,-79.73359
Costa Rica,San José,"2024-12-01",alphabet,0.0,1.0,3,0,0,0,3,https://www.whiskyquartier.de/products/classic-cut-2020-0-7l,MX,Puebla,Xiutetelco,San José,19.80306,-97.33389
Costa Rica,San José,"2024-12-01",alphabet,0.0,1.0,3,0,0,0,3,https://www.whiskyquartier.de/products/classic-cut-2020-0-7l,MX,Hidalgo,Tlanchinol,San José,21.06917,-98.59444
Costa Rica,San José,"2024-12-01",alphabet,0.0,1.0,3,0,0,0,3,https://www.whiskyquartier.de/products/classic-cut-2020-0-7l,MX,State of Mexico,Villa Guerrero,San José,19.00777,-99.66345
Costa Rica,San José,"2024-12-01",alphabet,0.0,1.0,3,0,0,0,3,https://www.whiskyquartier.de/products/classic-cut-2020-0-7l,HN,La Paz,"",San José,14.24809,-87.95951
Costa Rica,San José,"2024-12-01",alphabet,0.0,1.0,3,0,0,0,3,https://www.whiskyquartier.de/products/classic-cut-2020-0-7l,HN,Yoro,"",San José,15.31667,-87.16667
Costa Rica,San José,"2024-12-01",alphabet,0.0,1.0,3,0,0,0,3,https://www.whiskyquartier.de/products/classic-cut-2020-0-7l,HN,Copán,"",San José,14.90235,-88.72063
Costa Rica,San José,"2024-12-01",alphabet,0.0,1.0,3,0,0,0,3,https://www.whiskyquartier.de/products/classic-cut-2020-0-7l,GT,Petén,"",San José,16.98333,-89.9
Costa Rica,San José,"2024-12-01",alphabet,0.0,1.0,3,0,0,0,3,https://www.whiskyquartier.de/products/classic-cut-2020-0-7l,ES,Andalusia,"",San José,36.76048,-2.10912
Costa Rica,San José,"2024-12-01",alphabet,0.0,1.0,3,0,0,0,3,https://www.whiskyquartier.de/products/classic-cut-2020-0-7l,CR,"",Cantón San José,San José,9.93333,-84.08333
Costa Rica,San José,"2024-12-01",alphabet,0.0,1.0,3,0,0,0,3,https://www.whiskyquartier.de/products/classic-cut-2020-0-7l,CR,"",Cantón Upala,San José,10.95192,-85.13572
Costa Rica,San José,"2024-12-01",alphabet,0.0,1.0,3,0,0,0,3,https://www.whiskyquartier.de/products/classic-cut-2020-0-7l,CO,Nariño,Albán (San José),San José,1.47446,-77.08144
Costa Rica,San José,"2024-12-01",alphabet,0.0,1.0,3,0,0,0,3,https://www.whiskyquartier.de/products/classic-cut-2020-0-7l,CO,Nariño,Roberto Payán (San José),San José,1.69659,-78.24482
Costa Rica,San José,"2024-12-01",alphabet,0.0,1.0,3,0,0,0,3,https://www.whiskyquartier.de/products/classic-cut-2020-0-7l,CO,Caldas,"",San José,5.08221,-75.79107
Costa Rica,San José,"2024-12-01",alphabet,0.0,1.0,3,0,0,0,3,https://www.whiskyquartier.de/products/classic-cut-2020-0-7l,AR,Catamarca,"",San José,-28.38756,-65.70087
Costa Rica,San José,"2024-12-01",alphabet,0.0,1.0,3,0,0,0,3,https://www.whiskyquartier.de/products/classic-cut-2020-0-7l,AR,Misiones,"",San José,-27.76916,-55.78033
Belgium,Mons,"2024-12-01",direct,9.0,2.0,0,0,0,0,1,https://www.whiskyquartier.de/collections/neu-im-shop,FR,Occitania,Haute-Garonne,Mons,43.6124,1.57207
Belgium,Mons,"2024-12-01",direct,9.0,2.0,0,0,0,0,1,https://www.whiskyquartier.de/collections/neu-im-shop,FR,Occitania,Gard,Mons,44.11563,4.17185
Belgium,Mons,"2024-12-01",direct,9.0,2.0,0,0,0,0,1,https://www.whiskyquartier.de/collections/neu-im-shop,BE,Hainaut,Mons,Mons,50.45413,3.95229
India,Lucknow,"2024-12-01",direct,0.0,1.0,1,0,0,0,1,https://www.whiskyquartier.de/,IN,Uttar Pradesh,Sadar,Lucknow,26.83928,80.92313
India,Lucknow,"2024-12-01",direct,0.0,1.0,1,0,0,0,1,https://www.whiskyquartier.de/,AU,Victoria,"",Lucknow,-37.81667,147.65
France,Rosenau,"2024-12-01",alphabet,0.0,1.0,1,0,0,0,1,https://www.whiskyquartier.de/products/edition-no-3-0-7l?srsltid=,FR,Grand Est,Haut-Rhin,Rosenau,47.63688,7.53598
Switzerland,Ehrendingen,"2024-12-01",alphabet,252.0,3.0,1,1,1,0,2,https://www.whiskyquartier.de/products/classic-cut-2020-0-7l?srsl,CH,Aargau,Bezirk Baden,Ehrendingen,47.5025,8.34729
The Netherlands,Veldhoven,"2024-12-01",whiskybase,0.0,1.0,1,0,0,0,1,https://www.whiskyquartier.de/products/triple-wood-0-7l?_pos=1&_s,NL,North Brabant,"",Veldhoven,51.41833,5.40278
Czechia,Žatec,"2024-12-01",whiskybase,0.0,1.0,1,0,0,0,1,https://www.whiskyquartier.de/products/concept-no-1-0-7l,CZ,Northwest,Ústecký kraj,Žatec,50.32717,13.54577
Czechia,České Budějovice,"2024-12-01",spiritradar,0.0,1.0,1,0,0,0,1,https://www.whiskyquartier.de/products/1824-gold-0-7l-kopie,CZ,Southwest,Jihočeský kraj,České Budějovice,48.97447,14.47434
The Netherlands,Maastricht,"2024-12-01",whiskybase,724.0,2.0,0,0,0,0,1,https://www.whiskyquartier.de/products/edition-no-3-0-7l,NL,Limburg,"",Maastricht,50.84833,5.68889
Hong Kong,Hong Kong,"2024-12-01",direct,0.0,1.0,1,0,0,0,1,https://www.whiskyquartier.de/,HK,Hong Kong,"",Hong Kong,22.27832,114.17469
Belgium,Mons,"2024-12-01",whiskybase,687.0,7.0,0,0,0,0,1,https://www.whiskyquartier.de/products/quest-collection-quest-1l,FR,Occitania,Haute-Garonne,Mons,43.6124,1.57207
Belgium,Mons,"2024-12-01",whiskybase,687.0,7.0,0,0,0,0,1,https://www.whiskyquartier.de/products/quest-collection-quest-1l,FR,Occitania,Gard,Mons,44.11563,4.17185
Belgium,Mons,"2024-12-01",whiskybase,687.0,7.0,0,0,0,0,1,https://www.whiskyquartier.de/products/quest-collection-quest-1l,BE,Hainaut,Mons,Mons,50.45413,3.95229
The Netherlands,Arnhem,"2024-12-01",whiskybase,32.0,2.0,0,0,0,0,1,https://www.whiskyquartier.de/products/triple-wood-0-7l?_pos=1&_s,NL,Gelderland,"",Arnhem,51.98,5.91111
Czechia,Žatec,"2025-01-01",whiskybase,0.0,1.0,1,0,0,0,1,https://www.whiskyquartier.de/products/cardeas-warehouse-1-0-7l,CZ,Northwest,Ústecký kraj,Žatec,50.32717,13.54577
Czechia,Český Brod,"2025-01-01",whiskybase,22.0,2.0,0,0,0,0,1,https://www.whiskyquartier.de/products/caol-ila-moch-0-7l,CZ,Central Bohemia,"",Český Brod,50.0742,14.86081
Ukraine,Lviv,"2025-01-01",whiskybase,0.0,1.0,1,0,0,0,1,https://www.whiskyquartier.de/products/roseisle-12-years-old-the-,UA,Lviv Oblast,"",Lviv,49.83826,24.02324
Poland,Rząśnik,"2025-01-01",whiskybase,132.0,5.0,0,0,0,0,1,https://www.whiskyquartier.de/products/kavalan-solist-brandy-0-7l,PL,Masovian Voivodeship,Wyszków County,Rząśnik,52.71332,21.36772
India,Mumbai,"2025-02-01",direct,713.0,8.0,0,1,1,0,2,https://www.whiskyquartier.de/products/macallan-folio-8-0-7l,IN,Maharashtra,"",Mumbai,19.07283,72.88261
Portugal,Vila Nova de Famalicão,"2025-02-01",whiskybase,62.0,4.0,0,0,0,0,1,https://www.whiskyquartier.de/products/glenfiddich-experimental-s,PT,"",Braga,Vila Nova de Famalicão,41.40797,-8.51978
Portugal,Vila Nova de Famalicão,"2025-02-01",whiskybase,0.0,1.0,1,0,0,0,1,https://www.whiskyquartier.de/products/kavalan-solist-brandy-0-7l,PT,"",Braga,Vila Nova de Famalicão,41.40797,-8.51978
India,Mumbai,"2025-02-01",shopify,53.0,3.0,0,0,0,0,1,https://8o4zwecxk4kd97tw-87406969169.shopifypreview.com/products_,IN,Maharashtra,"",Mumbai,19.07283,72.88261
South Africa,Cape Town,"2025-02-01",direct,22.0,2.0,0,0,0,0,1,https://www.whiskyquartier.de/,ZA,Western Cape,City of Cape Town,Cape Town,-33.92584,18.42322
India,Mumbai,"2025-02-01",direct,351.5,10.5,0,1,1,1,2,https://www.whiskyquartier.de/products/whiskyquartier-de-geschenk,IN,Maharashtra,"",Mumbai,19.07283,72.88261
India,Mumbai,"2025-02-01",shopify,0.0,1.0,1,0,0,0,1,https://8o4zwecxk4kd97tw-87406969169.shopifypreview.com/products_,IN,Maharashtra,"",Mumbai,19.07283,72.88261
Argentina,Nordelta,"2025-02-01",direct,0.0,1.0,1,0,0,0,1,https://www.whiskyquartier.de/,,,,,,
Poland,Szczecin,"2025-02-01",direct,28.0,2.0,0,0,0,0,1,https://www.whiskyquartier.de/products/classic-cut-2020-0-7l,PL,West Pomeranian Voivodeship,"",Szczecin,53.42894,14.55302
The Netherlands,Rhoon,"2025-02-01",whiskybase,23.0,2.5,1,0,0,0,2,https://www.whiskyquartier.de/products/roseisle-12-years-old-the-,NL,South Holland,"",Rhoon,51.8575,4.42222
Sweden,Malmo,"2025-02-01",whiskybase,6.0,1.0,1,0,0,0,1,https://www.whiskyquartier.de/products/roseisle-12-years-old-the-,,,,,,
Nigeria,Ibadan,"2025-02-01",direct,1243.0,2.0,0,1,1,0,1,https://www.whiskyquartier.de/,NG,Oyo,Ibadan South East,Ibadan,7.37756,3.90591
The Netherlands,Enschede,"2025-02-01",whiskybase,0.0,1.0,1,0,0,0,1,https://www.whiskyquartier.de/products/macallan-folio-8-0-7l,NL,Overijssel,"",Enschede,52.21833,6.89583
Poland,Warsaw,"2025-02-01",direct,0.0,1.0,1,0,0,0,1,https://www.whiskyquartier.de/,US,New York,Wyoming County,Warsaw,42.74006,-78.13279
Poland,Warsaw,"2025-02-01",direct,0.0,1.0,1,0,0,0,1,https://www.whiskyquartier.de/,US,Indiana,Kosciusko County,Warsaw,41.2381,-85.85305
Poland,Warsaw,"2025-02-01",direct,0.0,1.0,1,0,0,0,1,https://www.whiskyquartier.de/,US,Illinois,Hancock County,Warsaw,40.35921,-91.4346
Poland,Warsaw,"2025-02-01",direct,0.0,1.0,1,0,0,0,1,https://www.whiskyquartier.de/,US,Virginia,Richmond County,Warsaw,37.95874,-76.75801
Poland,Warsaw,"2025-02-01",direct,0.0,1.0,1,0,0,0,1,https://www.whiskyquartier.de/,US,North Carolina,Duplin County,Warsaw,34.99933,-78.0911
Poland,Warsaw,"2025-02-01",direct,0.0,1.0,1,0,0,0,1,https://www.whiskyquartier.de/,US,Missouri,Benton County,Warsaw,38.24308,-93.38187
Poland,Warsaw,"2025-02-01",direct,0.0,1.0,1,0,0,0,1,https://www.whiskyquartier.de/,US,Kentucky,Gallatin County,Warsaw,38.7834,-84.90162
Poland,Warsaw,"2025-02-01",direct,0.0,1.0,1,0,0,0,1,https://www.whiskyquartier.de/,PL,Masovian Voivodeship,"",Warsaw,52.22977,21.01178
Sweden,Norrköping,"2025-02-01",whiskybase,386.0,14.0,0,1,1,0,1,https://www.whiskyquartier.de/products/roseisle-12-years-old-the-,SE,"",Östergötland County,Norrköping,58.59419,16.1826
The Netherlands,Vught,"2025-03-01",alphabet,0.0,1.0,1,0,0,0,1,https://www.whiskyquartier.de/products/macallan-folio-8-0-7l?srsl,NL,North Brabant,"",Vught,51.65333,5.2875
United Arab Emirates,Dubai,"2025-03-01",alphabet,0.0,1.0,1,0,0,0,1,https://www.whiskyquartier.de/products/15-yo-colour-collection-0-,AE,Dubai,"",Dubai,25.07725,55.30927
Czechia,Jesenice,"2025-03-01",direct,404.0,5.0,0,1,1,1,1,https://www.whiskyquartier.de/pages/contact,SI,"","",Jesenice,46.43056,14.06694
Czechia,Jesenice,"2025-03-01",direct,404.0,5.0,0,1,1,1,1,https://www.whiskyquartier.de/pages/contact,HR,"",Split-Dalmatia County,Jesenice,43.46158,16.60197
Czechia,Jesenice,"2025-03-01",direct,404.0,5.0,0,1,1,1,1,https://www.whiskyquartier.de/pages/contact,HR,"",Zadar County,Jesenice,44.23,15.5775
Czechia,Jesenice,"2025-03-01",direct,404.0,5.0,0,1,1,1,1,https://www.whiskyquartier.de/pages/contact,CZ,Central Bohemia,"",Jesenice,49.96814,14.5135
Czechia,Jesenice,"2025-03-01",direct,404.0,5.0,0,1,1,1,1,https://www.whiskyquartier.de/pages/contact,CZ,Central Bohemia,"",Jesenice,50.09703,13.46948
Mexico,Ocotlán,"2025-03-01",alphabet,0.0,1.0,1,0,0,0,1,https://www.whiskyquartier.de/products/classic-cut-2020-0-7l,MX,Jalisco,Ocotlán,Ocotlán,20.3553,-102.77358
Mexico,Ocotlán,"2025-03-01",alphabet,0.0,1.0,1,0,0,0,1,https://www.whiskyquartier.de/products/classic-cut-2020-0-7l,MX,Guerrero,Tecoanapa,Ocotlán,16.93947,-99.36919
Czechia,Jesenice,"2025-03-01",whiskybase,27.0,2.0,0,0,0,0,1,https://www.whiskyquartier.de/products/yamazaki-0-7l,SI,"","",Jesenice,46.43056,14.06694
Czechia,Jesenice,"2025-03-01",whiskybase,27.0,2.0,0,0,0,0,1,https://www.whiskyquartier.de/products/yamazaki-0-7l,HR,"",Split-Dalmatia County,Jesenice,43.46158,16.60197
Czechia,Jesenice,"2025-03-01",whiskybase,27.0,2.0,0,0,0,0,1,https://www.whiskyquartier.de/products/yamazaki-0-7l,HR,"",Zadar County,Jesenice,44.23,15.5775
Czechia,Jesenice,"2025-03-01",whiskybase,27.0,2.0,0,0,0,0,1,https://www.whiskyquartier.de/products/yamazaki-0-7l,CZ,Central Bohemia,"",Jesenice,49.96814,14.5135
Czechia,Jesenice,"2025-03-01",whiskybase,27.0,2.0,0,0,0,0,1,https://www.whiskyquartier.de/products/yamazaki-0-7l,CZ,Central Bohemia,"",Jesenice,50.09703,13.46948
Poland,Nowa Dęba,"2025-03-01",whiskybase,0.0,1.0,1,0,0,0,1,https://www.whiskyquartier.de/products/kavalan-solist-brandy-0-7l,PL,Subcarpathian Voivodeship,Tarnobrzeg County,Nowa Dęba,50.42974,21.75078
The Netherlands,Zundert,"2025-03-01",whiskybase,0.0,1.0,1,0,0,0,1,https://www.whiskyquartier.de/products/1824-gold-0-7l-kopie,NL,North Brabant,"",Zundert,51.47167,4.65556
United Kingdom,Montrose,"2025-03-01",whiskybase,0.0,1.0,1,0,0,0,1,https://www.whiskyquartier.de/products/kavalan-solist-brandy-0-7l,US,Colorado,Montrose County,Montrose,38.47832,-107.87617
United Kingdom,Montrose,"2025-03-01",whiskybase,0.0,1.0,1,0,0,0,1,https://www.whiskyquartier.de/products/kavalan-solist-brandy-0-7l,US,Pennsylvania,Susquehanna County,Montrose,41.83397,-75.87714
United Kingdom,Montrose,"2025-03-01",whiskybase,0.0,1.0,1,0,0,0,1,https://www.whiskyquartier.de/products/kavalan-solist-brandy-0-7l,US,Pennsylvania,"",Montrose,40.30648,-75.98771
United Kingdom,Montrose,"2025-03-01",whiskybase,0.0,1.0,1,0,0,0,1,https://www.whiskyquartier.de/products/kavalan-solist-brandy-0-7l,US,New York,Westchester County,Montrose,41.25232,-73.93153
United Kingdom,Montrose,"2025-03-01",whiskybase,0.0,1.0,1,0,0,0,1,https://www.whiskyquartier.de/products/kavalan-solist-brandy-0-7l,US,Minnesota,Wright County,Montrose,45.06496,-93.91108
United Kingdom,Montrose,"2025-03-01",whiskybase,0.0,1.0,1,0,0,0,1,https://www.whiskyquartier.de/products/kavalan-solist-brandy-0-7l,US,Michigan,Genesee County,Montrose,43.17669,-83.89274
United Kingdom,Montrose,"2025-03-01",whiskybase,0.0,1.0,1,0,0,0,1,https://www.whiskyquartier.de/products/kavalan-solist-brandy-0-7l,US,Virginia,Henrico County,Montrose,37.5207,-77.37831
United Kingdom,Montrose,"2025-03-01",whiskybase,0.0,1.0,1,0,0,0,1,https://www.whiskyquartier.de/products/kavalan-solist-brandy-0-7l,GB,Scotland,Angus,Montrose,56.71683,-2.46695
United Kingdom,Montrose,"2025-03-01",whiskybase,0.0,1.0,1,0,0,0,1,https://www.whiskyquartier.de/products/kavalan-solist-brandy-0-7l,AU,Tasmania,"",Montrose,-42.82895,147.24735
United Kingdom,Montrose,"2025-03-01",whiskybase,0.0,1.0,1,0,0,0,1,https://www.whiskyquartier.de/products/kavalan-solist-brandy-0-7l,AU,Victoria,"",Montrose,-37.81667,145.35
Brazil,Joinville,"2025-03-01",alphabet,0.0,1.0,1,0,0,0,1,https://www.whiskyquartier.de/collections/islay,FR,Grand Est,Haute-Marne,Joinville,48.44363,5.14144
Brazil,Joinville,"2025-03-01",alphabet,0.0,1.0,1,0,0,0,1,https://www.whiskyquartier.de/collections/islay,BR,Santa Catarina,"",Joinville,-26.30444,-48.84556
Belgium,Brussels,"2025-03-01",alphabet,0.0,1.0,1,0,0,0,1,https://www.whiskyquartier.de/products/macallan-folio-8-0-7l?srsl,US,Wisconsin,Door County,Brussels,44.73611,-87.62093
Belgium,Brussels,"2025-03-01",alphabet,0.0,1.0,1,0,0,0,1,https://www.whiskyquartier.de/products/macallan-folio-8-0-7l?srsl,CA,Ontario,Huron County,Brussels,43.74316,-81.24998
Belgium,Brussels,"2025-03-01",alphabet,0.0,1.0,1,0,0,0,1,https://www.whiskyquartier.de/products/macallan-folio-8-0-7l?srsl,BE,"",Brussels-Capital,Brussels,50.85045,4.34878
Poland,Wyszków,"2025-03-01",whiskybase,0.0,1.0,1,0,0,0,1,https://www.whiskyquartier.de/products/kavalan-solist-brandy-0-7l,PL,Masovian Voivodeship,Wyszków County,Wyszków,52.59278,21.4584
Austria,Elixhausen,"2025-03-01",alphabet,0.0,1.0,1,0,0,0,1,https://www.whiskyquartier.de/products/macallan-folio-8-0-7l?srsl,AT,Salzburg,Bezirk Salzburg-Umgebung,Elixhausen,47.86667,13.06667
Vietnam,Long An,"2025-03-01",alphabet,0.0,1.0,1,0,0,0,1,https://www.whiskyquartier.de/products/macallan-folio-8-0-7l?srsl,,,,,,
Czechia,Jesenice,"2025-03-01",direct,103.5,3.0,0,0,0,0,2,https://www.whiskyquartier.de/,SI,"","",Jesenice,46.43056,14.06694
Czechia,Jesenice,"2025-03-01",direct,103.5,3.0,0,0,0,0,2,https://www.whiskyquartier.de/,HR,"",Split-Dalmatia County,Jesenice,43.46158,16.60197
Czechia,Jesenice,"2025-03-01",direct,103.5,3.0,0,0,0,0,2,https://www.whiskyquartier.de/,HR,"",Zadar County,Jesenice,44.23,15.5775
Czechia,Jesenice,"2025-03-01",direct,103.5,3.0,0,0,0,0,2,https://www.whiskyquartier.de/,CZ,Central Bohemia,"",Jesenice,49.96814,14.5135
Czechia,Jesenice,"2025-03-01",direct,103.5,3.0,0,0,0,0,2,https://www.whiskyquartier.de/,CZ,Central Bohemia,"",Jesenice,50.09703,13.46948
Switzerland,Geneva,"2025-03-01",alphabet,0.0,1.0,1,0,0,0,1,https://www.whiskyquartier.de/products/macallan-folio-8-0-7l?srsl,US,Washington,Whatcom County,Geneva,48.74567,-122.40183
Switzerland,Geneva,"2025-03-01",alphabet,0.0,1.0,1,0,0,0,1,https://www.whiskyquartier.de/products/macallan-folio-8-0-7l?srsl,US,Ohio,Ashtabula County,Geneva,41.80505,-80.94815
Switzerland,Geneva,"2025-03-01",alphabet,0.0,1.0,1,0,0,0,1,https://www.whiskyquartier.de/products/macallan-folio-8-0-7l?srsl,US,New York,Ontario County,Geneva,42.86896,-76.97774
Switzerland,Geneva,"2025-03-01",alphabet,0.0,1.0,1,0,0,0,1,https://www.whiskyquartier.de/products/macallan-folio-8-0-7l?srsl,US,Nebraska,Fillmore County,Geneva,40.52695,-97.59588
Switzerland,Geneva,"2025-03-01",alphabet,0.0,1.0,1,0,0,0,1,https://www.whiskyquartier.de/products/macallan-folio-8-0-7l?srsl,US,Indiana,Adams County,Geneva,40.59199,-84.95719
Switzerland,Geneva,"2025-03-01",alphabet,0.0,1.0,1,0,0,0,1,https://www.whiskyquartier.de/products/macallan-folio-8-0-7l?srsl,US,Illinois,Kane County,Geneva,41.88753,-88.30535
Switzerland,Geneva,"2025-03-01",alphabet,0.0,1.0,1,0,0,0,1,https://www.whiskyquartier.de/products/macallan-folio-8-0-7l?srsl,US,Ohio,Fairfield County,Geneva,39.66201,-82.43349
Switzerland,Geneva,"2025-03-01",alphabet,0.0,1.0,1,0,0,0,1,https://www.whiskyquartier.de/products/macallan-folio-8-0-7l?srsl,US,Indiana,Shelby County,Geneva,39.39172,-85.71998
Switzerland,Geneva,"2025-03-01",alphabet,0.0,1.0,1,0,0,0,1,https://www.whiskyquartier.de/products/macallan-folio-8-0-7l?srsl,US,Florida,Seminole County,Geneva,28.73972,-81.11506
Switzerland,Geneva,"2025-03-01",alphabet,0.0,1.0,1,0,0,0,1,https://www.whiskyquartier.de/products/macallan-folio-8-0-7l?srsl,US,Alabama,Geneva County,Geneva,31.03296,-85.86382
Brazil,Ferraz de Vasconcelos,"2025-03-01",alphabet,0.0,1.0,1,0,0,0,1,https://www.whiskyquartier.de/collections/islay,BR,São Paulo,Região Metropolitana de São Paulo,Ferraz de Vasconcelos,-23.54083,-46.36861
The Netherlands,Dordrecht,"2025-03-01",whiskybase,44.0,3.0,0,0,0,0,1,https://www.whiskyquartier.de/products/harmony-collection-green-m,ZA,Eastern Cape,Chris Hani District Municipality,Dordrecht,-31.372,27.04878
The Netherlands,Dordrecht,"2025-03-01",whiskybase,44.0,3.0,0,0,0,0,1,https://www.whiskyquartier.de/products/harmony-collection-green-m,NL,South Holland,"",Dordrecht,51.81,4.67361
Switzerland,Waldkirch,"2025-04-01",direct,250.0,9.0,0,0,0,0,1,https://www.whiskyquartier.de/products/ardnahoe-5-yo-the-inaugura,DE,Baden-Württemberg,Landkreis Emmendingen,Waldkirch,48.09585,7.96371
Switzerland,Waldkirch,"2025-04-01",direct,250.0,9.0,0,0,0,0,1,https://www.whiskyquartier.de/products/ardnahoe-5-yo-the-inaugura,CH,St. Gallen,Wahlkreis St. Gallen,Waldkirch,47.46859,9.28665
Sweden,Linköping,"2025-04-01",direct,0.0,1.0,1,0,0,0,1,https://www.whiskyquartier.de/,SE,"",Östergötland County,Linköping,58.41086,15.62157
Azerbaijan,Baku,"2025-04-01",alphabet,0.0,1.0,1,0,0,0,1,https://www.whiskyquartier.de/products/triple-wood-0-7l,AZ,Baku,"",Baku,40.37767,49.89201
Israel,Herzliya,"2025-04-01",alphabet,0.0,1.0,1,0,0,0,1,https://www.whiskyquartier.de/collections/neu-im-shop,IL,Tel Aviv District,"",Herzliya,32.16627,34.82536
The Netherlands,Heerhugowaard,"2025-04-01",whiskybase,0.0,1.0,1,0,0,0,1,https://www.whiskyquartier.de/products/quest-collection-quest-1l,NL,North Holland,"",Heerhugowaard,52.67144,4.84862
The Netherlands,Zundert,"2025-04-01",whiskybase,0.0,1.0,1,0,0,0,1,https://www.whiskyquartier.de/products/macallan-12yo-double-cask-,NL,North Brabant,"",Zundert,51.47167,4.65556
Greece,Athens,"2025-04-01",whiskybase,37.0,2.0,0,1,1,0,1,https://www.whiskyquartier.de/products/laddie-ten-0-7l,US,Wisconsin,Marathon County,Athens,45.03302,-90.07402
Greece,Athens,"2025-04-01",whiskybase,37.0,2.0,0,1,1,0,1,https://www.whiskyquartier.de/products/laddie-ten-0-7l,US,Pennsylvania,Bradford County,Athens,41.9573,-76.518
Greece,Athens,"2025-04-01",whiskybase,37.0,2.0,0,1,1,0,1,https://www.whiskyquartier.de/products/laddie-ten-0-7l,US,New York,Greene County,Athens,42.26036,-73.80957
Greece,Athens,"2025-04-01",whiskybase,37.0,2.0,0,1,1,0,1,https://www.whiskyquartier.de/products/laddie-ten-0-7l,US,Michigan,Calhoun County,Athens,42.08866,-85.23471
Greece,Athens,"2025-04-01",whiskybase,37.0,2.0,0,1,1,0,1,https://www.whiskyquartier.de/products/laddie-ten-0-7l,US,Alabama,Limestone County,Athens,34.80243,-86.97219
Greece,Athens,"2025-04-01",whiskybase,37.0,2.0,0,1,1,0,1,https://www.whiskyquartier.de/products/laddie-ten-0-7l,US,Texas,Henderson County,Athens,32.20487,-95.85552
Greece,Athens,"2025-04-01",whiskybase,37.0,2.0,0,1,1,0,1,https://www.whiskyquartier.de/products/laddie-ten-0-7l,US,Tennessee,McMinn County,Athens,35.44285,-84.59299
Greece,Athens,"2025-04-01",whiskybase,37.0,2.0,0,1,1,0,1,https://www.whiskyquartier.de/products/laddie-ten-0-7l,US,Ohio,Athens County,Athens,39.32924,-82.10126
Greece,Athens,"2025-04-01",whiskybase,37.0,2.0,0,1,1,0,1,https://www.whiskyquartier.de/products/laddie-ten-0-7l,US,Illinois,Menard County,Athens,39.96088,-89.72399
Greece,Athens,"2025-04-01",whiskybase,37.0,2.0,0,1,1,0,1,https://www.whiskyquartier.de/products/laddie-ten-0-7l,US,Georgia,Athens-Clarke County,Athens,33.96095,-83.37794
Greece,Athens,"2025-04-01",whiskybase,37.0,2.0,0,1,1,0,1,https://www.whiskyquartier.de/products/laddie-ten-0-7l,GR,Attica,Regional Unit of Central Athens,Athens,37.98376,23.72784
Sweden,Stockholm,"2025-04-01",direct,19.5,3.5,1,0,0,0,2,https://www.whiskyquartier.de/,SE,"",Stockholm County,Stockholm,59.32938,18.06871
United Kingdom,Southwark,"2025-04-01",whiskybase,0.0,1.0,1,0,0,0,1,https://www.whiskyquartier.de/products/dingle-single-cask-the-vil,,,,,,
Israel,Ness Ziona,"2025-04-01",alphabet,0.0,1.0,1,0,0,0,1,https://www.whiskyquartier.de/collections/neu-im-shop,IL,Center District,"",Ness Ziona,31.92933,34.79868
Israel,Tel Aviv,"2025-04-01",alphabet,0.0,1.0,1,0,0,0,1,https://www.whiskyquartier.de/collections/neu-im-shop,IL,Tel Aviv District,"",Tel Aviv,32.08088,34.78057
Switzerland,Rorschach,"2025-04-01",whiskybase,0.0,1.0,1,0,0,0,1,https://www.whiskyquartier.de/products/suntory-hibiki-100th-anniv,CH,St. Gallen,Wahlkreis Rorschach,Rorschach,47.478,9.4903
Portugal,Mirandela,"2025-04-01",whiskybase,49.0,4.0,0,0,0,0,1,https://www.whiskyquartier.de/products/glenturret-12-yo-2024-0-7l,PT,"",Bragança District,Mirandela,41.48739,-7.18695
The Netherlands,Panningen,"2025-04-01",alphabet,23.0,2.0,0,0,0,0,1,https://www.whiskyquartier.de/,NL,Limburg,"",Panningen,51.32667,5.97917
Vietnam,Ho Chi Minh City,"2025-04-01",meta,0.0,1.0,1,0,0,0,1,https://www.whiskyquartier.de/?fbclid=IwZXh0bgNhZW0BMABhZGlkAAAGG,VN,"","",Ho Chi Minh City,10.82302,106.62965
United Arab Emirates,Dubai,"2025-04-01",alphabet,0.0,1.0,1,0,0,0,1,https://www.whiskyquartier.de/collections/neu-im-shop,AE,Dubai,"",Dubai,25.07725,55.30927
Israel,Tel Aviv,"2025-04-01",whiskybase,37.0,2.0,0,1,1,0,1,https://www.whiskyquartier.de/products/glenfiddich-experimental-s,IL,Tel Aviv District,"",Tel Aviv,32.08088,34.78057
Cyprus,Larnaca,"2025-05-01",direct,113.0,10.0,0,0,0,0,1,https://www.whiskyquartier.de/,CY,South Cyprus,"",Larnaca,34.92291,33.6233
United Kingdom,Leicester,"2025-05-01",whiskystats,0.0,1.0,1,0,0,0,1,https://www.whiskyquartier.de/products/kavalan-solist-brandy-0-7l,US,Vermont,Addison County,Leicester,43.86673,-73.10789
United Kingdom,Leicester,"2025-05-01",whiskystats,0.0,1.0,1,0,0,0,1,https://www.whiskyquartier.de/products/kavalan-solist-brandy-0-7l,US,Massachusetts,Worcester County,Leicester,42.24593,-71.90868
United Kingdom,Leicester,"2025-05-01",whiskystats,0.0,1.0,1,0,0,0,1,https://www.whiskyquartier.de/products/kavalan-solist-brandy-0-7l,GB,England,City of Leicester,Leicester,52.6386,-1.13169
Iceland,Reykjavik,"2025-05-01",whiskybase,9.0,1.0,0,1,0,0,1,https://www.whiskyquartier.de/products/12-yo-colour-collection-0-,,,,,,
North Macedonia,Skopje,"2025-05-01",direct,0.0,1.0,2,0,0,0,2,https://www.whiskyquartier.de/,MK,Skopje Region,City of Skopje,Skopje,41.99646,21.43141
The Netherlands,Pijnacker,"2025-05-01",direct,19.0,2.0,0,0,0,0,1,https://www.whiskyquartier.de/products/a-night-on-earth-scotland-,NL,South Holland,"",Pijnacker,52.01954,4.42946
Lithuania,Vilnius,"2025-05-01",whiskybase,0.0,1.0,1,0,0,0,1,https://www.whiskyquartier.de/products/roseisle-12-years-old-the-,LT,Vilnius County,"",Vilnius,54.68916,25.2798
The Netherlands,Schiedam,"2025-05-01",whiskybase,242.5,1.5,1,0,0,0,2,https://www.whiskyquartier.de/products/ardnahoe-5-yo-the-inaugura,NL,South Holland,"",Schiedam,51.91917,4.38889
Switzerland,Rorschach,"2025-05-01",whiskybase,0.0,1.0,1,0,0,0,1,https://www.whiskyquartier.de/products/suntory-hibiki-100th-anniv,CH,St. Gallen,Wahlkreis Rorschach,Rorschach,47.478,9.4903
United Kingdom,Glasgow,"2025-05-01",whiskybase,0.0,1.0,1,0,0,0,1,https://www.whiskyquartier.de/products/deanston-virgin-oak-0-7l,US,Montana,Valley County,Glasgow,48.19696,-106.63671
United Kingdom,Glasgow,"2025-05-01",whiskybase,0.0,1.0,1,0,0,0,1,https://www.whiskyquartier.de/products/deanston-virgin-oak-0-7l,US,Virginia,Rockbridge County,Glasgow,37.63402,-79.45031
United Kingdom,Glasgow,"2025-05-01",whiskybase,0.0,1.0,1,0,0,0,1,https://www.whiskyquartier.de/products/deanston-virgin-oak-0-7l,US,Missouri,Howard County,Glasgow,39.22725,-92.84658
United Kingdom,Glasgow,"2025-05-01",whiskybase,0.0,1.0,1,0,0,0,1,https://www.whiskyquartier.de/products/deanston-virgin-oak-0-7l,US,Kentucky,Barren County,Glasgow,36.99588,-85.91192
United Kingdom,Glasgow,"2025-05-01",whiskybase,0.0,1.0,1,0,0,0,1,https://www.whiskyquartier.de/products/deanston-virgin-oak-0-7l,US,Delaware,New Castle County,Glasgow,39.60483,-75.74521
United Kingdom,Glasgow,"2025-05-01",whiskybase,0.0,1.0,1,0,0,0,1,https://www.whiskyquartier.de/products/deanston-virgin-oak-0-7l,GB,Scotland,Glasgow City,Glasgow,55.86515,-4.25763
United Kingdom,Southampton,"2025-05-01",whiskybase,0.0,1.0,1,0,0,0,1,https://www.whiskyquartier.de/products/ardnahoe-5-yo-the-inaugura,US,New York,Suffolk County,Southampton,40.88427,-72.38953
United Kingdom,Southampton,"2025-05-01",whiskybase,0.0,1.0,1,0,0,0,1,https://www.whiskyquartier.de/products/ardnahoe-5-yo-the-inaugura,US,Massachusetts,Hampshire County,Southampton,42.22926,-72.73009
United Kingdom,Southampton,"2025-05-01",whiskybase,0.0,1.0,1,0,0,0,1,https://www.whiskyquartier.de/products/ardnahoe-5-yo-the-inaugura,GB,England,"",Southampton,50.90395,-1.40428
Czechia,Pardubice,"2025-05-01",whiskybase,0.0,1.0,1,0,0,0,1,https://www.whiskyquartier.de/products/ardnahoe-5-yo-the-inaugura,CZ,Northeast,Pardubický kraj,Pardubice,50.04075,15.77659
Ireland,Wicklow,"2025-05-01",alphabet,0.0,1.0,1,0,0,0,1,https://www.whiskyquartier.de/products/dingle-single-cask-the-vil,IE,"",County Wicklow,Wicklow,52.975,-6.04944
The Netherlands,Schiedam,"2025-05-01",direct,0.0,1.0,1,0,0,0,1,https://www.whiskyquartier.de/products/quest-collection-quest-1l,NL,South Holland,"",Schiedam,51.91917,4.38889
Australia,Sydney,"2025-05-01",whiskybase,36.0,2.0,0,0,0,0,1,https://www.whiskyquartier.de/products/roseisle-12-years-old-the-,CA,Nova Scotia,Cape Breton County,Sydney,46.1351,-60.1831
Australia,Sydney,"2025-05-01",whiskybase,36.0,2.0,0,0,0,0,1,https://www.whiskyquartier.de/products/roseisle-12-years-old-the-,AU,New South Wales,"",Sydney,-33.86785,151.20732
Argentina,Del Viso,"2025-06-01",direct,0.0,1.0,1,0,0,0,1,https://www.whiskyquartier.de/products/highland-park-dragon-legen,,,,,,
South Korea,Dalseo-gu,"2025-06-01",whiskybase,0.0,1.0,1,0,0,0,1,https://www.whiskyquartier.de/products/1824-gold-0-7l-kopie,,,,,,
Argentina,Del Viso,"2025-06-01",alphabet,0.0,1.0,1,0,0,0,1,https://www.whiskyquartier.de/products/highland-park-dragon-legen,,,,,,
United Kingdom,Ilford,"2025-06-01",whiskybase,0.0,1.0,1,0,0,0,1,https://www.whiskyquartier.de/products/glenturret-10-yo-peat-smok,GB,England,"",Ilford,51.55765,0.07278
Romania,Bucharest,"2025-06-01",direct,9.0,3.0,0,0,0,0,1,https://www.whiskyquartier.de/collections/bestseller?page=2,RO,"","",Bucharest,44.43225,26.10626
Slovakia,Bratislava,"2025-06-01",whiskybase,7.0,2.0,0,0,0,0,1,https://www.whiskyquartier.de/products/ardnahoe-infinite-loch-0-7,SK,Region of Bratislava,"",Bratislava,48.14816,17.10674
The Netherlands,Arnhem,"2025-06-01",direct,0.0,1.0,1,0,0,0,1,https://www.whiskyquartier.de/products/quest-collection-terra-0-7,NL,Gelderland,"",Arnhem,51.98,5.91111
Belgium,Brussels,"2025-06-01",whiskybase,266.0,6.0,0,0,0,0,1,https://www.whiskyquartier.de/products/roseisle-12-years-old-the-,US,Wisconsin,Door County,Brussels,44.73611,-87.62093
Belgium,Brussels,"2025-06-01",whiskybase,266.0,6.0,0,0,0,0,1,https://www.whiskyquartier.de/products/roseisle-12-years-old-the-,CA,Ontario,Huron County,Brussels,43.74316,-81.24998
Belgium,Brussels,"2025-06-01",whiskybase,266.0,6.0,0,0,0,0,1,https://www.whiskyquartier.de/products/roseisle-12-years-old-the-,BE,"",Brussels-Capital,Brussels,50.85045,4.34878
United Arab Emirates,Dubai,"2025-06-01",direct,0.0,1.0,1,0,0,0,1,https://www.whiskyquartier.de/,AE,Dubai,"",Dubai,25.07725,55.30927
Romania,Bucharest,"2025-06-01",whiskybase,4.0,2.0,0,0,0,0,1,https://www.whiskyquartier.de/products/18-yo-colour-collection-0-,RO,"","",Bucharest,44.43225,26.10626
Poland,Solec Kujawski,"2025-06-01",whiskybase,0.0,1.0,1,0,0,0,1,https://www.whiskyquartier.de/products/suntory-hibiki-harmony-0-7,PL,Kuyavian-Pomeranian Voivodeship,Bydgoszcz County,Solec Kujawski,53.08371,18.22572
United Kingdom,Ilford,"2025-06-01",direct,0.0,1.0,1,0,0,0,1,https://www.whiskyquartier.de/products/glenturret-10-yo-peat-smok,GB,England,"",Ilford,51.55765,0.07278
Cyprus,Nicosia,"2025-06-01",whiskybase,0.0,1.0,1,0,0,0,1,https://www.whiskyquartier.de/products/harmony-collection-green-m,IT,Sicily,Enna,Nicosia,37.74747,14.39218
Cyprus,Nicosia,"2025-06-01",whiskybase,0.0,1.0,1,0,0,0,1,https://www.whiskyquartier.de/products/harmony-collection-green-m,CY,South Cyprus,"",Nicosia,35.17531,33.3642
The Netherlands,Zundert,"2025-06-01",whiskybase,0.0,1.0,1,0,0,0,1,https://www.whiskyquartier.de/products/glenturret-10-yo-peat-smok,NL,North Brabant,"",Zundert,51.47167,4.65556
Romania,Bucharest,"2025-06-01",direct,0.0,1.0,1,0,0,0,1,https://www.whiskyquartier.de/,RO,"","",Bucharest,44.43225,26.10626
United Kingdom,Southwark,"2025-06-01",whiskybase,60.0,6.0,0,1,0,0,1,https://www.whiskyquartier.de/products/glenturret-10-yo-peat-smok,,,,,,
Poland,Warsaw,"2025-06-01",whiskybase,81.0,2.0,0,1,0,0,1,https://www.whiskyquartier.de/products/macallan-classic-cut-2023,US,New York,Wyoming County,Warsaw,42.74006,-78.13279
Poland,Warsaw,"2025-06-01",whiskybase,81.0,2.0,0,1,0,0,1,https://www.whiskyquartier.de/products/macallan-classic-cut-2023,US,Indiana,Kosciusko County,Warsaw,41.2381,-85.85305
Poland,Warsaw,"2025-06-01",whiskybase,81.0,2.0,0,1,0,0,1,https://www.whiskyquartier.de/products/macallan-classic-cut-2023,US,Illinois,Hancock County,Warsaw,40.35921,-91.4346
Poland,Warsaw,"2025-06-01",whiskybase,81.0,2.0,0,1,0,0,1,https://www.whiskyquartier.de/products/macallan-classic-cut-2023,US,Virginia,Richmond County,Warsaw,37.95874,-76.75801
Poland,Warsaw,"2025-06-01",whiskybase,81.0,2.0,0,1,0,0,1,https://www.whiskyquartier.de/products/macallan-classic-cut-2023,US,North Carolina,Duplin County,Warsaw,34.99933,-78.0911
Poland,Warsaw,"2025-06-01",whiskybase,81.0,2.0,0,1,0,0,1,https://www.whiskyquartier.de/products/macallan-classic-cut-2023,US,Missouri,Benton County,Warsaw,38.24308,-93.38187
Poland,Warsaw,"2025-06-01",whiskybase,81.0,2.0,0,1,0,0,1,https://www.whiskyquartier.de/products/macallan-classic-cut-2023,US,Kentucky,Gallatin County,Warsaw,38.7834,-84.90162
Poland,Warsaw,"2025-06-01",whiskybase,81.0,2.0,0,1,0,0,1,https://www.whiskyquartier.de/products/macallan-classic-cut-2023,PL,Masovian Voivodeship,"",Warsaw,52.22977,21.01178
Vietnam,Ho Chi Minh City,"2025-06-01",whiskybase,0.0,1.0,1,0,0,0,1,https://www.whiskyquartier.de/products/quest-collection-enigma-0-,VN,"","",Ho Chi Minh City,10.82302,106.62965
Switzerland,Rorschach,"2025-06-01",whiskybase,0.0,1.0,2,0,0,0,2,https://www.whiskyquartier.de/products/suntory-hibiki-100th-anniv,CH,St. Gallen,Wahlkreis Rorschach,Rorschach,47.478,9.4903
The Netherlands,Breda,"2025-07-01",direct,0.0,1.0,1,0,0,0,1,https://www.whiskyquartier.de/,NL,North Brabant,"",Breda,51.58656,4.77596
The Netherlands,Breda,"2025-07-01",direct,0.0,1.0,1,0,0,0,1,https://www.whiskyquartier.de/,IT,Veneto,Treviso,Breda,45.7225,12.33083
The Netherlands,Breda,"2025-07-01",direct,0.0,1.0,1,0,0,0,1,https://www.whiskyquartier.de/,ES,Catalonia,Selva,Breda,41.74833,2.55964
United Kingdom,Glasgow,"2025-07-01",whiskybase,77.0,2.0,0,0,0,0,1,https://www.whiskyquartier.de/products/roseisle-12-years-old-the-,US,Montana,Valley County,Glasgow,48.19696,-106.63671
United Kingdom,Glasgow,"2025-07-01",whiskybase,77.0,2.0,0,0,0,0,1,https://www.whiskyquartier.de/products/roseisle-12-years-old-the-,US,Virginia,Rockbridge County,Glasgow,37.63402,-79.45031
United Kingdom,Glasgow,"2025-07-01",whiskybase,77.0,2.0,0,0,0,0,1,https://www.whiskyquartier.de/products/roseisle-12-years-old-the-,US,Missouri,Howard County,Glasgow,39.22725,-92.84658
United Kingdom,Glasgow,"2025-07-01",whiskybase,77.0,2.0,0,0,0,0,1,https://www.whiskyquartier.de/products/roseisle-12-years-old-the-,US,Kentucky,Barren County,Glasgow,36.99588,-85.91192
United Kingdom,Glasgow,"2025-07-01",whiskybase,77.0,2.0,0,0,0,0,1,https://www.whiskyquartier.de/products/roseisle-12-years-old-the-,US,Delaware,New Castle County,Glasgow,39.60483,-75.74521
United Kingdom,Glasgow,"2025-07-01",whiskybase,77.0,2.0,0,0,0,0,1,https://www.whiskyquartier.de/products/roseisle-12-years-old-the-,GB,Scotland,Glasgow City,Glasgow,55.86515,-4.25763
Sweden,Karlstad,"2025-07-01",whiskybase,0.0,1.0,1,0,0,0,1,https://www.whiskyquartier.de/products/roseisle-12-years-old-the-,SE,"",Värmland County,Karlstad,59.3793,13.50357
South Korea,Yangsan,"2025-07-01",direct,0.0,1.0,0,0,1,0,1,https://www.whiskyquartier.de/checkouts/cn/Z2NwLWV1cm9wZS13ZXN0MT,KR,"","",Yangsan,35.34199,129.03358
United Kingdom,Luton,"2025-07-01",direct,145.0,2.0,0,0,0,0,1,https://www.whiskyquartier.de/products/quest-collection-enigma-0-,GB,England,Luton,Luton,51.87967,-0.41748
Austria,Götzis,"2025-07-01",alphabet,0.0,1.0,1,0,0,0,1,https://www.whiskyquartier.de/products/laddie-ten-0-7l?srsltid=Af,AT,Vorarlberg,Bezirk Feldkirch,Götzis,47.33306,9.63306
Sweden,Norrköping,"2025-07-01",whiskybase,87.0,4.0,0,1,1,0,1,https://www.whiskyquartier.de/products/roseisle-12-years-old-the-,SE,"",Östergötland County,Norrköping,58.59419,16.1826
Japan,Kinuta,"2025-07-01",alphabet,0.0,1.0,1,0,0,0,1,https://www.whiskyquartier.de/products/the-laddie-valinch-no-12-0,,,,,,
United Kingdom,City of Westminster,"2025-07-01",whiskybase,0.0,1.0,1,0,0,0,1,https://www.whiskyquartier.de/products/concept-no-1-0-7l,GB,England,"",City of Westminster,51.4975,-0.1357
Canada,Québec,"2025-07-01",alphabet,58.0,2.0,0,0,0,0,1,https://www.whiskyquartier.de/products/stauning-smoke-recioto-win,CA,Quebec,Québec (Agglomération),Québec,46.81228,-71.21454
The Netherlands,Heerhugowaard,"2025-07-01",direct,0.0,1.0,1,0,0,0,1,https://www.whiskyquartier.de/products/glenturret-10-yo-peat-smok,NL,North Holland,"",Heerhugowaard,52.67144,4.84862
United Kingdom,Luton,"2025-07-01",whiskybase,0.0,1.0,1,0,0,0,1,https://www.whiskyquartier.de/products/quest-collection-enigma-0-,GB,England,Luton,Luton,51.87967,-0.41748
Poland,Bialystok,"2025-07-01",whiskybase,0.0,1.0,1,0,0,0,1,https://www.whiskyquartier.de/products/glenallachie-sinteis_serie,,,,,,
France,Lyon,"2025-07-01",whiskybase,105.0,5.0,0,0,0,0,1,https://www.whiskyquartier.de/products/roseisle-12-years-old-the-,FR,Auvergne-Rhône-Alpes,Métropole de Lyon,Lyon,45.74846,4.84671
South Korea,Yangsan,"2025-07-01",whiskybase,98.0,7.0,0,1,1,0,1,https://www.whiskyquartier.de/products/glenallachie-sinteis_serie,KR,"","",Yangsan,35.34199,129.03358
The Netherlands,Zundert,"2025-07-01",whiskybase,0.0,1.0,1,0,0,0,1,https://www.whiskyquartier.de/products/glenturret-12-yo-2024-0-7l,NL,North Brabant,"",Zundert,51.47167,4.65556
Israel,Tel Aviv,"2025-07-01",whiskybase,138.5,2.5,1,1,1,0,2,https://www.whiskyquartier.de/products/roseisle-12-years-old-the-,IL,Tel Aviv District,"",Tel Aviv,32.08088,34.78057
Georgia,Batumi,"2025-07-01",direct,0.0,1.0,1,0,0,0,1,https://www.whiskyquartier.de/,GE,Autonomous Republic of Adjara,"",Batumi,41.64228,41.63392
Portugal,Porto,"2025-07-01",whiskybase,3981.0,6.0,0,0,0,0,1,https://www.whiskyquartier.de/products/glenallachie-sinteis_serie,PT,"",Porto,Porto,41.14961,-8.61099
Portugal,Porto,"2025-07-01",whiskybase,3981.0,6.0,0,0,0,0,1,https://www.whiskyquartier.de/products/glenallachie-sinteis_serie,IT,Campania,Napoli,Porto,40.84395,14.25724
Portugal,Porto,"2025-07-01",whiskybase,3981.0,6.0,0,0,0,0,1,https://www.whiskyquartier.de/products/glenallachie-sinteis_serie,ES,Castile and León,"",Porto,42.16737,-6.89934
Portugal,Porto,"2025-07-01",whiskybase,3981.0,6.0,0,0,0,0,1,https://www.whiskyquartier.de/products/glenallachie-sinteis_serie,BR,Piauí,"",Porto,-3.89333,-42.71
Slovakia,Bratislava,"2025-07-01",whiskybase,0.0,1.0,1,0,0,0,1,https://www.whiskyquartier.de/products/glenallachie-sinteis_serie,SK,Region of Bratislava,"",Bratislava,48.14816,17.10674
Israel,Tel Aviv,"2025-07-01",whiskybase,0.0,1.0,1,0,0,0,1,https://www.whiskyquartier.de/products/glenturret-12-yo-2024-0-7l,IL,Tel Aviv District,"",Tel Aviv,32.08088,34.78057
Luxembourg,Luxembourg,"2025-08-01",direct,359.5,10.5,1,0,0,0,2,https://www.whiskyquartier.de/?srsltid=AfmBOopGc0-5svB2sGxp6lr5Fw,LU,"",Canton Luxembourg,Luxembourg,49.61167,6.13
Switzerland,Bernex,"2025-08-01",whiskybase,0.0,1.0,1,0,0,0,1,https://www.whiskyquartier.de/products/roseisle-12-years-old-the-,CH,Geneva,"",Bernex,46.1765,6.07544
Spain,Madrid,"2025-08-01",whiskybase,552.0,12.0,0,0,0,0,1,https://www.whiskyquartier.de/products/roseisle-12-years-old-the-,US,Iowa,Boone County,Madrid,41.87665,-93.82328
Spain,Madrid,"2025-08-01",whiskybase,552.0,12.0,0,0,0,0,1,https://www.whiskyquartier.de/products/roseisle-12-years-old-the-,PH,Surigao del Sur,"",Madrid,9.26211,125.96437
Spain,Madrid,"2025-08-01",whiskybase,552.0,12.0,0,0,0,0,1,https://www.whiskyquartier.de/products/roseisle-12-years-old-the-,MX,Colima,Tecomán,Madrid,19.08459,-103.87123
Spain,Madrid,"2025-08-01",whiskybase,552.0,12.0,0,0,0,0,1,https://www.whiskyquartier.de/products/roseisle-12-years-old-the-,ES,Community of Madrid,Área metropolitana de Madrid y Corredor del Henares,Madrid,40.4165,-3.70256
Spain,Madrid,"2025-08-01",whiskybase,552.0,12.0,0,0,0,0,1,https://www.whiskyquartier.de/products/roseisle-12-years-old-the-,CO,"","",Madrid,4.73245,-74.26419
The Netherlands,Enschede,"2025-08-01",whiskybase,0.0,1.0,1,0,0,0,1,https://www.whiskyquartier.de/products/roseisle-12-years-old-the-,NL,Overijssel,"",Enschede,52.21833,6.89583
South Korea,Gangnam-gu,"2025-08-01",whiskybase,0.0,1.0,1,0,0,0,1,https://www.whiskyquartier.de/products/glenallachie-sinteis_serie,,,,,,
Luxembourg,Luxembourg,"2025-08-01",direct,164.0,7.0,0,1,1,0,1,https://www.whiskyquartier.de/products/ardnahoe-bholsa-0-7l,LU,"",Canton Luxembourg,Luxembourg,49.61167,6.13
Israel,Ganei Tikva,"2025-08-01",whiskybase,0.0,1.0,1,0,0,0,1,https://www.whiskyquartier.de/products/ardnahoe-infinite-loch-0-7,IL,Center District,"",Ganei Tikva,32.05971,34.8732
Poland,Jarocin,"2025-08-01",whiskybase,0.0,1.0,1,0,0,0,1,https://www.whiskyquartier.de/products/12-yo-colour-collection-0-,PL,Greater Poland Voivodeship,Jarocin County,Jarocin,51.97266,17.50256
Poland,Jarocin,"2025-08-01",whiskybase,0.0,1.0,1,0,0,0,1,https://www.whiskyquartier.de/products/12-yo-colour-collection-0-,PL,Subcarpathian Voivodeship,Nisko County,Jarocin,50.56459,22.32121
Denmark,Holstebro,"2025-08-01",direct,1352.0,2.0,0,0,0,0,1,https://www.whiskyquartier.de/collections/danische-whiskys,DK,Central Denmark Region,"",Holstebro,56.36009,8.61607
Sweden,Gothenburg,"2025-08-01",whiskybase,73.0,2.0,0,0,0,0,1,https://www.whiskyquartier.de/products/kavalan-solist-brandy-0-7l,US,Nebraska,Dawson County,Gothenburg,40.92945,-100.16068
United Kingdom,Cardiff,"2025-08-01",meta,0.0,1.0,1,0,0,0,1,https://www.whiskyquartier.de/?utm_source=FB+Werbung&utm_medium=p,GB,Wales,Cardiff,Cardiff,51.48,-3.18
United Kingdom,Cardiff,"2025-08-01",meta,0.0,1.0,1,0,0,0,1,https://www.whiskyquartier.de/?utm_source=FB+Werbung&utm_medium=p,AU,New South Wales,"",Cardiff,-32.94201,151.6544
Czechia,Pohořelice,"2025-08-01",meta,0.0,1.0,1,0,0,0,1,https://www.whiskyquartier.de/?utm_source=FB+Werbung&fbclid=IwZXh,CZ,Southeast,Jihomoravský kraj,Pohořelice,48.98119,16.52445
Poland,Warsaw,"2025-08-01",meta,0.0,1.0,1,0,0,0,1,https://www.whiskyquartier.de/collections/all?fbclid=IwZXh0bgNhZW,US,New York,Wyoming County,Warsaw,42.74006,-78.13279
Poland,Warsaw,"2025-08-01",meta,0.0,1.0,1,0,0,0,1,https://www.whiskyquartier.de/collections/all?fbclid=IwZXh0bgNhZW,US,Indiana,Kosciusko County,Warsaw,41.2381,-85.85305
Poland,Warsaw,"2025-08-01",meta,0.0,1.0,1,0,0,0,1,https://www.whiskyquartier.de/collections/all?fbclid=IwZXh0bgNhZW,US,Illinois,Hancock County,Warsaw,40.35921,-91.4346
Poland,Warsaw,"2025-08-01",meta,0.0,1.0,1,0,0,0,1,https://www.whiskyquartier.de/collections/all?fbclid=IwZXh0bgNhZW,US,Virginia,Richmond County,Warsaw,37.95874,-76.75801
Poland,Warsaw,"2025-08-01",meta,0.0,1.0,1,0,0,0,1,https://www.whiskyquartier.de/collections/all?fbclid=IwZXh0bgNhZW,US,North Carolina,Duplin County,Warsaw,34.99933,-78.0911
Poland,Warsaw,"2025-08-01",meta,0.0,1.0,1,0,0,0,1,https://www.whiskyquartier.de/collections/all?fbclid=IwZXh0bgNhZW,US,Missouri,Benton County,Warsaw,38.24308,-93.38187
Poland,Warsaw,"2025-08-01",meta,0.0,1.0,1,0,0,0,1,https://www.whiskyquartier.de/collections/all?fbclid=IwZXh0bgNhZW,US,Kentucky,Gallatin County,Warsaw,38.7834,-84.90162
Poland,Warsaw,"2025-08-01",meta,0.0,1.0,1,0,0,0,1,https://www.whiskyquartier.de/collections/all?fbclid=IwZXh0bgNhZW,PL,Masovian Voivodeship,"",Warsaw,52.22977,21.01178
United Kingdom,Alness,"2025-08-01",meta,19.0,2.0,0,0,0,0,1,https://www.whiskyquartier.de/?utm_source=FB+Werbung&utm_medium=p,GB,Scotland,Highland,Alness,57.69596,-4.2551
Denmark,Holstebro,"2025-08-01",alphabet,1679.0,15.0,0,0,0,0,1,https://www.whiskyquartier.de/collections/danische-whiskys?srslti,DK,Central Denmark Region,"",Holstebro,56.36009,8.61607
Slovakia,Bratislava,"2025-08-01",whiskybase,0.0,1.0,1,0,0,0,1,https://www.whiskyquartier.de/products/glenallachie-sinteis_serie,SK,Region of Bratislava,"",Bratislava,48.14816,17.10674
Italy,Cesena,"2025-08-01",direct,0.0,1.0,3,0,0,0,3,https://www.whiskyquartier.de/products/12-yo-colour-collection-0-,IT,Emilia-Romagna,"",Cesena,44.1391,12.24315
Poland,Warsaw,"2025-08-01",meta,0.0,1.0,1,0,0,0,1,https://www.whiskyquartier.de/?utm_source=FB+Werbung&fbclid=IwZXh,US,New York,Wyoming County,Warsaw,42.74006,-78.13279
Poland,Warsaw,"2025-08-01",meta,0.0,1.0,1,0,0,0,1,https://www.whiskyquartier.de/?utm_source=FB+Werbung&fbclid=IwZXh,US,Indiana,Kosciusko County,Warsaw,41.2381,-85.85305
Poland,Warsaw,"2025-08-01",meta,0.0,1.0,1,0,0,0,1,https://www.whiskyquartier.de/?utm_source=FB+Werbung&fbclid=IwZXh,US,Illinois,Hancock County,Warsaw,40.35921,-91.4346
Poland,Warsaw,"2025-08-01",meta,0.0,1.0,1,0,0,0,1,https://www.whiskyquartier.de/?utm_source=FB+Werbung&fbclid=IwZXh,US,Virginia,Richmond County,Warsaw,37.95874,-76.75801
Poland,Warsaw,"2025-08-01",meta,0.0,1.0,1,0,0,0,1,https://www.whiskyquartier.de/?utm_source=FB+Werbung&fbclid=IwZXh,US,North Carolina,Duplin County,Warsaw,34.99933,-78.0911
Poland,Warsaw,"2025-08-01",meta,0.0,1.0,1,0,0,0,1,https://www.whiskyquartier.de/?utm_source=FB+Werbung&fbclid=IwZXh,US,Missouri,Benton County,Warsaw,38.24308,-93.38187
Poland,Warsaw,"2025-08-01",meta,0.0,1.0,1,0,0,0,1,https://www.whiskyquartier.de/?utm_source=FB+Werbung&fbclid=IwZXh,US,Kentucky,Gallatin County,Warsaw,38.7834,-84.90162
Poland,Warsaw,"2025-08-01",meta,0.0,1.0,1,0,0,0,1,https://www.whiskyquartier.de/?utm_source=FB+Werbung&fbclid=IwZXh,PL,Masovian Voivodeship,"",Warsaw,52.22977,21.01178
France,Grasse,"2025-08-01",whiskybase,0.0,1.0,1,0,0,0,1,https://www.whiskyquartier.de/products/roseisle-12-years-old-the-,FR,Provence-Alpes-Côte d'Azur,Maritime Alps,Grasse,43.65783,6.92537
The Netherlands,The Hague,"2025-08-01",whiskybase,0.0,1.0,1,0,0,0,1,https://www.whiskyquartier.de/products/deanston-virgin-oak-0-7l,NL,South Holland,"",The Hague,52.07667,4.29861
Switzerland,Remetschwil,"2025-08-01",alphabet,0.0,1.0,1,0,0,0,1,https://www.whiskyquartier.de/products/the-laddie-valinch-no-12-0,,,,,,
Switzerland,Adliswil,"2025-08-01",whiskybase,0.0,1.0,1,0,0,0,1,https://www.whiskyquartier.de/products/concept-no-1-0-7l,CH,Zurich,Bezirk Horgen,Adliswil,47.30997,8.52462
Italy,Modena,"2025-08-01",whiskybase,90.0,4.0,0,0,0,0,1,https://www.whiskyquartier.de/products/roseisle-12-years-old-the-,IT,Emilia-Romagna,Modena,Modena,44.64783,10.92539
Italy,Bologna,"2025-08-01",alphabet,0.0,1.0,1,0,0,0,1,https://www.whiskyquartier.de/products/1824-gold-0-7l-kopie?srslt,IT,Emilia-Romagna,Bologna,Bologna,44.49381,11.33875
Croatia,Rijeka,"2025-08-01",meta,0.0,1.0,1,0,0,0,1,https://www.whiskyquartier.de/?utm_source=FB+Werbung&fbclid=IwZXh,HR,"",Primorje-Gorski Kotar County,Rijeka,45.32673,14.44241
Switzerland,Birsfelden,"2025-08-01",whiskybase,0.0,1.0,1,0,0,0,1,https://www.whiskyquartier.de/products/suntory-hibiki-100th-anniv,CH,Basel-Country,Bezirk Arlesheim,Birsfelden,47.5529,7.62322
Poland,Szczecin,"2025-08-01",meta,177.0,3.0,0,0,0,0,1,https://www.whiskyquartier.de/?utm_source=FB+Werbung&fbclid=IwZXh,PL,West Pomeranian Voivodeship,"",Szczecin,53.42894,14.55302
The Netherlands,'s-Hertogenbosch,"2025-08-01",whiskybase,116.0,5.0,0,1,1,0,1,https://www.whiskyquartier.de/products/roseisle-12-years-old-the-,NL,North Brabant,"",'s-Hertogenbosch,51.69917,5.30417
Egypt,Giza,"2025-08-01",whiskybase,0.0,1.0,1,0,0,0,1,https://www.whiskyquartier.de/products/quest-collection-quest-1l,EG,Giza Governorate,"",Giza,30.00944,31.20861
United Kingdom,Milton Keynes,"2025-08-01",alphabet,166.0,4.0,0,0,0,0,1,https://www.whiskyquartier.de/?gad_source=1,GB,England,Milton Keynes,Milton Keynes,52.04172,-0.75583
South Korea,Eunpyeong-gu,"2025-08-01",whiskybase,0.0,1.0,1,0,0,0,1,https://www.whiskyquartier.de/products/deanston-virgin-oak-0-7l,,,,,,
Czechia,Pohořelice,"2025-08-01",meta,0.0,1.0,1,0,0,0,1,https://www.whiskyquartier.de/?utm_source=FB+Werbung&fbclid=IwZXh,CZ,Southeast,Jihomoravský kraj,Pohořelice,48.98119,16.52445
